{"success":true,"error":null,"response":[{"id":"KQGX","loc":{"long":54.533333333333,"lat":24.25},"place":{"name":"al dhafra","state":"","country":"ae","pretty_name":{"city":"Al Dhafra|Al Muqa??arah","region":"AZ","country":"United Arab Emirates"}},"profile":{"tz":"Asia/Dubai","elevM":23,"elevFT":75},"obTimestamp":1419299880,"obDateTime":"2014-12-23T05:58:00+04:00","ob":{"timestamp":1419299880,"dateTimeISO":"2014-12-23T05:58:00+04:00","tempC":16,"tempF":61,"dewpointC":13,"dewpointF":55,"humidity":83,"pressureMB":1017,"pressureIN":30.03,"spressureMB":1014,"spressureIN":29.94,"altimeterMB":1017,"altimeterIN":30.03,"windKTS":3,"windKPH":6,"windMPH":3,"windSpeedKTS":3,"windSpeedKPH":6,"windSpeedMPH":3,"windDirDEG":240,"windDir":"WSW","windGustKTS":null,"windGustKPH":null,"windGustMPH":null,"flightRule":"LIFR","visibilityKM":null,"visibilityMI":null,"weather":"Clear","weatherShort":"Clear","weatherCoded":"::CL","weatherPrimary":"Clear","weatherPrimaryCoded":"::CL","cloudsCoded":"CL","icon":"sunnyn.png","heatindexC":16,"heatindexF":61,"windchillC":16,"windchillF":61,"feelslikeC":16,"feelslikeF":61,"isDay":false,"sunrise":1419303711,"sunriseISO":"2014-12-23T07:01:51+04:00","sunset":1419342008,"sunsetISO":"2014-12-23T17:40:08+04:00","snowDepthCM":null,"snowDepthIN":null,"precipMM":0,"precipIN":0,"solradWM2":null,"light":0,"sky":0},"raw":"KQGX 230158Z AUTO 24003KT 9999 CLR 16/13 A3002 RMK AO2 SLP168 T01570126 $"},{"id":"OMFJ","loc":{"long":56.316666666667,"lat":25.1},"place":{"name":"fujairah intl ar","state":"","country":"ae","pretty_name":{"city":"Fujairah|??r","region":"FU","country":"United Arab Emirates"}},"profile":{"tz":"Asia/Dubai","elevM":28,"elevFT":92},"obTimestamp":1419300000,"obDateTime":"2014-12-23T06:00:00+04:00","ob":{"timestamp":1419300000,"dateTimeISO":"2014-12-23T06:00:00+04:00","tempC":20,"tempF":68,"dewpointC":13,"dewpointF":55,"humidity":64,"pressureMB":1015,"pressureIN":29.97,"spressureMB":1012,"spressureIN":29.88,"altimeterMB":1015,"altimeterIN":29.97,"windKTS":2,"windKPH":4,"windMPH":2,"windSpeedKTS":2,"windSpeedKPH":4,"windSpeedMPH":2,"windDirDEG":290,"windDir":"WNW","windGustKTS":null,"windGustKPH":null,"windGustMPH":null,"flightRule":"LIFR","visibilityKM":5,"visibilityMI":3.11,"weather":"Partly Cloudy with Hazy","weatherShort":"Hazy","weatherCoded":"::H,::SC","weatherPrimary":"Hazy","weatherPrimaryCoded":"::H","cloudsCoded":"SC","icon":"hazyn.png","heatindexC":20,"heatindexF":68,"windchillC":20,"windchillF":68,"feelslikeC":20,"feelslikeF":68,"isDay":false,"sunrise":1419303390,"sunriseISO":"2014-12-23T06:56:30+04:00","sunset":1419341473,"sunsetISO":"2014-12-23T17:31:13+04:00","snowDepthCM":null,"snowDepthIN":null,"precipMM":null,"precipIN":null,"solradWM2":null,"light":0,"sky":44},"raw":"OMFJ 230200Z 29002KT 5000 HZ SCT020 20/13 Q1014 A2996"},{"id":"OMAL","loc":{"long":55.6,"lat":24.25},"place":{"name":"al ain intnl arp","state":"","country":"ae","pretty_name":{"city":"Al Ain|Alain|Al Ja?r","region":"AZ","country":"United Arab Emirates"}},"profile":{"tz":"Asia/Dubai","elevM":262,"elevFT":860},"obTimestamp":1419300000,"obDateTime":"2014-12-23T06:00:00+04:00","ob":{"timestamp":1419300000,"dateTimeISO":"2014-12-23T06:00:00+04:00","tempC":16,"tempF":61,"dewpointC":11,"dewpointF":52,"humidity":72,"pressureMB":1017,"pressureIN":30.03,"spressureMB":986,"spressureIN":29.12,"altimeterMB":1017,"altimeterIN":30.03,"windKTS":4,"windKPH":7,"windMPH":5,"windSpeedKTS":4,"windSpeedKPH":7,"windSpeedMPH":5,"windDirDEG":100,"windDir":"E","windGustKTS":null,"windGustKPH":null,"windGustMPH":null,"flightRule":"LIFR","visibilityKM":7,"visibilityMI":4.35,"weather":"Partly Cloudy","weatherShort":"Partly Cloudy","weatherCoded":"::SC","weatherPrimary":"Partly Cloudy","weatherPrimaryCoded":"::SC","cloudsCoded":"SC","icon":"pcloudyn.png","heatindexC":16,"heatindexF":61,"windchillC":16,"windchillF":61,"feelslikeC":16,"feelslikeF":61,"isDay":false,"sunrise":1419303455,"sunriseISO":"2014-12-23T06:57:35+04:00","sunset":1419341752,"sunsetISO":"2014-12-23T17:35:52+04:00","snowDepthCM":null,"snowDepthIN":null,"precipMM":null,"precipIN":null,"solradWM2":null,"light":0,"sky":44},"raw":"OMAL 230200Z 10004KT 7000 SCT011 16/11 Q1017 A3003 NOSIG"},{"id":"OMAD","loc":{"long":54.466666666667,"lat":24.416666666667},"place":{"name":"abu dhabi/bateen","state":"","country":"ae","pretty_name":{"city":"Abu Dhabi|Min?aqat al Ma??r","region":"AZ","country":"United Arab Emirates"}},"profile":{"tz":"Asia/Dubai","elevM":3,"elevFT":10},"obTimestamp":1419300000,"obDateTime":"2014-12-23T06:00:00+04:00","ob":{"timestamp":1419300000,"dateTimeISO":"2014-12-23T06:00:00+04:00","tempC":19,"tempF":66,"dewpointC":16,"dewpointF":61,"humidity":83,"pressureMB":1016,"pressureIN":30,"spressureMB":1016,"spressureIN":30,"altimeterMB":1016,"altimeterIN":30,"windKTS":2,"windKPH":4,"windMPH":2,"windSpeedKTS":2,"windSpeedKPH":4,"windSpeedMPH":2,"windDirDEG":0,"windDir":"N","windGustKTS":null,"windGustKPH":null,"windGustMPH":null,"flightRule":"LIFR","visibilityKM":8,"visibilityMI":4.97,"weather":"Mostly Clear","weatherShort":"Mostly Clear","weatherCoded":"::FW","weatherPrimary":"Mostly Clear","weatherPrimaryCoded":"::FW","cloudsCoded":"FW","icon":"pcloudyn.png","heatindexC":19,"heatindexF":66,"windchillC":19,"windchillF":66,"feelslikeC":19,"feelslikeF":66,"isDay":false,"sunrise":1419303748,"sunriseISO":"2014-12-23T07:02:28+04:00","sunset":1419342003,"sunsetISO":"2014-12-23T17:40:03+04:00","snowDepthCM":null,"snowDepthIN":null,"precipMM":null,"precipIN":null,"solradWM2":null,"sky":19,"light":0},"raw":"OMAD 230200Z VRB02KT 8000 NSC 19/16 Q1015 A2999 NOSIG"},{"id":"OMDW","loc":{"long":55.166666666667,"lat":24.9},"place":{"name":"dubai al maktoum","state":"","country":"ae","pretty_name":{"city":"Al Maktoum International Airport|Discovery Gardens","region":"DU","country":"United Arab Emirates"}},"profile":{"tz":"Asia/Dubai","elevM":25,"elevFT":82},"obTimestamp":1419300000,"obDateTime":"2014-12-23T06:00:00+04:00","ob":{"timestamp":1419300000,"dateTimeISO":"2014-12-23T06:00:00+04:00","tempC":15,"tempF":59,"dewpointC":14,"dewpointF":57,"humidity":94,"pressureMB":1016,"pressureIN":30,"spressureMB":1013,"spressureIN":29.91,"altimeterMB":null,"altimeterIN":null,"windKTS":7,"windKPH":13,"windMPH":8,"windSpeedKTS":7,"windSpeedKPH":13,"windSpeedMPH":8,"windDirDEG":180,"windDir":"S","windGustKTS":null,"windGustKPH":null,"windGustMPH":null,"flightRule":"MVFR","visibilityKM":4,"visibilityMI":2.49,"weather":"Mostly Cloudy with Mist and Fog","weatherShort":"Mist and Fog","weatherCoded":"::BR,::BK","weatherPrimary":"Mist and Fog","weatherPrimaryCoded":"::BR","cloudsCoded":"BK","icon":"fogn.png","heatindexC":15,"heatindexF":59,"windchillC":15,"windchillF":59,"feelslikeC":15,"feelslikeF":59,"isDay":false,"sunrise":1419303641,"sunriseISO":"2014-12-23T07:00:41+04:00","sunset":1419341774,"sunsetISO":"2014-12-23T17:36:14+04:00","snowDepthCM":null,"snowDepthIN":null,"precipMM":null,"precipIN":null,"solradWM2":null,"light":0,"sky":81},"raw":"OMDW 230200Z 18007KT 4000 BR NSC 15/14 Q1016 BECMG 3000 BKN015"},{"id":"OMAA","loc":{"long":54.633333333333,"lat":24.416666666667},"place":{"name":"abu dhabi intl","state":"","country":"ae","pretty_name":{"city":"Abu Dhabi|Mad?nat Khal?fah B","region":"AZ","country":"United Arab Emirates"}},"profile":{"tz":"Asia/Muscat","elevM":27,"elevFT":89},"obTimestamp":1419300000,"obDateTime":"2014-12-23T06:00:00+04:00","ob":{"timestamp":1419300000,"dateTimeISO":"2014-12-23T06:00:00+04:00","tempC":17,"tempF":63,"dewpointC":16,"dewpointF":61,"humidity":94,"pressureMB":1016,"pressureIN":30,"spressureMB":1013,"spressureIN":29.91,"altimeterMB":1016,"altimeterIN":30,"windKTS":4,"windKPH":7,"windMPH":5,"windSpeedKTS":4,"windSpeedKPH":7,"windSpeedMPH":5,"windDirDEG":150,"windDir":"SSE","windGustKTS":null,"windGustKPH":null,"windGustMPH":null,"flightRule":"LIFR","visibilityKM":5,"visibilityMI":3.11,"weather":"Mostly Clear with Hazy","weatherShort":"Hazy","weatherCoded":"::H,::FW","weatherPrimary":"Hazy","weatherPrimaryCoded":"::H","cloudsCoded":"FW","icon":"hazyn.png","heatindexC":17,"heatindexF":63,"windchillC":17,"windchillF":63,"feelslikeC":17,"feelslikeF":63,"isDay":false,"sunrise":1419303708,"sunriseISO":"2014-12-23T07:01:48+04:00","sunset":1419341963,"sunsetISO":"2014-12-23T17:39:23+04:00","snowDepthCM":null,"snowDepthIN":null,"precipMM":null,"precipIN":null,"solradWM2":null,"sky":19,"light":0},"raw":"OMAA 230200Z 15004KT 5000 HZ NSC 17/16 Q1015 A2999 BECMG 3000"},{"id":"OMDB","loc":{"long":55.366666666667,"lat":25.25},"place":{"name":"dubai intl airpo","state":"","country":"ae","pretty_name":{"city":"Dubai|B?r Sa‘?d|A? ?aw?r","region":"DU","country":"United Arab Emirates"}},"profile":{"tz":"Asia/Dubai","elevM":5,"elevFT":16},"obTimestamp":1419300000,"obDateTime":"2014-12-23T06:00:00+04:00","ob":{"timestamp":1419300000,"dateTimeISO":"2014-12-23T06:00:00+04:00","tempC":17,"tempF":63,"dewpointC":15,"dewpointF":59,"humidity":88,"pressureMB":1015,"pressureIN":29.97,"spressureMB":1014,"spressureIN":29.94,"altimeterMB":null,"altimeterIN":null,"windKTS":5,"windKPH":9,"windMPH":6,"windSpeedKTS":5,"windSpeedKPH":9,"windSpeedMPH":6,"windDirDEG":190,"windDir":"S","windGustKTS":null,"windGustKPH":null,"windGustMPH":null,"flightRule":"LIFR","visibilityKM":6,"visibilityMI":3.73,"weather":"Mostly Clear","weatherShort":"Mostly Clear","weatherCoded":"::FW","weatherPrimary":"Mostly Clear","weatherPrimaryCoded":"::FW","cloudsCoded":"FW","icon":"pcloudyn.png","heatindexC":17,"heatindexF":63,"windchillC":17,"windchillF":63,"feelslikeC":17,"feelslikeF":63,"isDay":false,"sunrise":1419303637,"sunriseISO":"2014-12-23T07:00:37+04:00","sunset":1419341682,"sunsetISO":"2014-12-23T17:34:42+04:00","snowDepthCM":null,"snowDepthIN":null,"precipMM":null,"precipIN":null,"solradWM2":null,"light":0,"sky":19},"raw":"OMDB 230200Z 19005KT 6000 FEW025 17/15 Q1015 NOSIG"},{"id":"OMRK","loc":{"long":55.916666666667,"lat":25.616666666667},"place":{"name":"ras al khaimah","state":"","country":"ae","pretty_name":{"city":"Ras Al Khaimah|Ras-Al-Khaima|Al ?amr?n?yah","region":"RK","country":"United Arab Emirates"}},"profile":{"tz":"Asia/Dubai","elevM":31,"elevFT":102},"obTimestamp":1419300000,"obDateTime":"2014-12-23T06:00:00+04:00","ob":{"timestamp":1419300000,"dateTimeISO":"2014-12-23T06:00:00+04:00","tempC":16,"tempF":61,"dewpointC":14,"dewpointF":57,"humidity":88,"pressureMB":1016,"pressureIN":30,"spressureMB":1012,"spressureIN":29.88,"altimeterMB":1016,"altimeterIN":30,"windKTS":5,"windKPH":9,"windMPH":6,"windSpeedKTS":5,"windSpeedKPH":9,"windSpeedMPH":6,"windDirDEG":200,"windDir":"SSW","windGustKTS":null,"windGustKPH":null,"windGustMPH":null,"flightRule":"LIFR","visibilityKM":5,"visibilityMI":3.11,"weather":"Mostly Clear with Hazy","weatherShort":"Hazy","weatherCoded":"::H,::FW","weatherPrimary":"Hazy","weatherPrimaryCoded":"::H","cloudsCoded":"FW","icon":"hazyn.png","heatindexC":16,"heatindexF":61,"windchillC":16,"windchillF":61,"feelslikeC":16,"feelslikeF":61,"isDay":false,"sunrise":1419303552,"sunriseISO":"2014-12-23T06:59:12+04:00","sunset":1419341503,"sunsetISO":"2014-12-23T17:31:43+04:00","snowDepthCM":null,"snowDepthIN":null,"precipMM":null,"precipIN":null,"solradWM2":null,"sky":19,"light":0},"raw":"OMRK 230200Z 20005KT 5000 HZ NSC 16/14 Q1015 A2999 SPECI"},{"id":"OMSJ","loc":{"long":55.516666666667,"lat":25.316666666667},"place":{"name":"sharjah intl arp","state":"","country":"ae","pretty_name":{"city":"Sharjah|Al Marijah","region":"SH","country":"United Arab Emirates"}},"profile":{"tz":"Asia/Dubai","elevM":33,"elevFT":108},"obTimestamp":1419300000,"obDateTime":"2014-12-23T06:00:00+04:00","ob":{"timestamp":1419300000,"dateTimeISO":"2014-12-23T06:00:00+04:00","tempC":17,"tempF":63,"dewpointC":15,"dewpointF":59,"humidity":88,"pressureMB":1015,"pressureIN":29.97,"spressureMB":1011,"spressureIN":29.85,"altimeterMB":null,"altimeterIN":null,"windKTS":7,"windKPH":13,"windMPH":8,"windSpeedKTS":7,"windSpeedKPH":13,"windSpeedMPH":8,"windDirDEG":200,"windDir":"SSW","windGustKTS":null,"windGustKPH":null,"windGustMPH":null,"flightRule":"LIFR","visibilityKM":6,"visibilityMI":3.73,"weather":"Mostly Clear","weatherShort":"Mostly Clear","weatherCoded":"::FW","weatherPrimary":"Mostly Clear","weatherPrimaryCoded":"::FW","cloudsCoded":"FW","icon":"pcloudyn.png","heatindexC":17,"heatindexF":63,"windchillC":17,"windchillF":63,"feelslikeC":17,"feelslikeF":63,"isDay":false,"sunrise":1419303610,"sunriseISO":"2014-12-23T07:00:10+04:00","sunset":1419341637,"sunsetISO":"2014-12-23T17:33:57+04:00","snowDepthCM":null,"snowDepthIN":null,"precipMM":null,"precipIN":null,"solradWM2":null,"light":0,"sky":19},"raw":"OMSJ 230200Z 20007KT 6000 FEW025 17/15 Q1015"}]}