{"success":true,"error":null,"response":[{"id":"KQGX","loc":{"long":54.533333333333,"lat":24.25},"place":{"name":"al dhafra","state":"","country":"ae","pretty_name":{"city":"Al Dhafra|Al Muqa??arah","region":"AZ","country":"United Arab Emirates"}},"profile":{"tz":"Asia/Dubai","elevM":23,"elevFT":75},"obTimestamp":1417661880,"obDateTime":"2014-12-04T06:58:00+04:00","ob":{"timestamp":1417661880,"dateTimeISO":"2014-12-04T06:58:00+04:00","tempC":16,"tempF":61,"dewpointC":12,"dewpointF":54,"humidity":77,"pressureMB":1020,"pressureIN":30.12,"spressureMB":1017,"spressureIN":30.03,"altimeterMB":1020,"altimeterIN":30.12,"windKTS":5,"windKPH":9,"windMPH":6,"windSpeedKTS":5,"windSpeedKPH":9,"windSpeedMPH":6,"windDirDEG":240,"windDir":"WSW","windGustKTS":null,"windGustKPH":null,"windGustMPH":null,"flightRule":"LIFR","visibilityKM":null,"visibilityMI":null,"weather":"Mostly Sunny","weatherShort":"Mostly Sunny","weatherCoded":"::FW","weatherPrimary":"Mostly Sunny","weatherPrimaryCoded":"::FW","cloudsCoded":"FW","icon":"pcloudy.png","heatindexC":16,"heatindexF":61,"windchillC":16,"windchillF":61,"feelslikeC":16,"feelslikeF":61,"isDay":true,"sunrise":1417661433,"sunriseISO":"2014-12-04T06:50:33+04:00","sunset":1417700020,"sunsetISO":"2014-12-04T17:33:40+04:00","snowDepthCM":null,"snowDepthIN":null,"precipMM":0,"precipIN":0,"solradWM2":null,"light":2,"sky":19},"raw":"KQGX 040258Z AUTO 24005KT 9999 FEW036 16/12 A3013 RMK AO2 SLPNO 60000 T01630123 53010 $"},{"id":"OMFJ","loc":{"long":56.316666666667,"lat":25.1},"place":{"name":"fujairah intl ar","state":"","country":"ae","pretty_name":{"city":"Fujairah|??r","region":"FU","country":"United Arab Emirates"}},"profile":{"tz":"Asia/Dubai","elevM":28,"elevFT":92},"obTimestamp":1417662000,"obDateTime":"2014-12-04T07:00:00+04:00","ob":{"timestamp":1417662000,"dateTimeISO":"2014-12-04T07:00:00+04:00","tempC":21,"tempF":70,"dewpointC":13,"dewpointF":55,"humidity":60,"pressureMB":1018,"pressureIN":30.06,"spressureMB":1015,"spressureIN":29.97,"altimeterMB":1018,"altimeterIN":30.06,"windKTS":9,"windKPH":17,"windMPH":10,"windSpeedKTS":9,"windSpeedKPH":17,"windSpeedMPH":10,"windDirDEG":290,"windDir":"WNW","windGustKTS":null,"windGustKPH":null,"windGustMPH":null,"flightRule":"LIFR","visibilityKM":9,"visibilityMI":5.59,"weather":"Mostly Sunny","weatherShort":"Mostly Sunny","weatherCoded":"::FW","weatherPrimary":"Mostly Sunny","weatherPrimaryCoded":"::FW","cloudsCoded":"FW","icon":"pcloudy.png","heatindexC":21,"heatindexF":70,"windchillC":21,"windchillF":70,"feelslikeC":21,"feelslikeF":70,"isDay":true,"sunrise":1417661106,"sunriseISO":"2014-12-04T06:45:06+04:00","sunset":1417699491,"sunsetISO":"2014-12-04T17:24:51+04:00","snowDepthCM":null,"snowDepthIN":null,"precipMM":null,"precipIN":null,"solradWM2":null,"sky":19,"light":4},"raw":"OMFJ 040300Z 29009KT 9000 NSC 21/13 Q1018 A3007"},{"id":"OMAL","loc":{"long":55.6,"lat":24.25},"place":{"name":"al ain intnl arp","state":"","country":"ae","pretty_name":{"city":"Al Ain|Alain|Al Ja?r","region":"AZ","country":"United Arab Emirates"}},"profile":{"tz":"Asia/Dubai","elevM":262,"elevFT":860},"obTimestamp":1417662000,"obDateTime":"2014-12-04T07:00:00+04:00","ob":{"timestamp":1417662000,"dateTimeISO":"2014-12-04T07:00:00+04:00","tempC":15,"tempF":59,"dewpointC":12,"dewpointF":54,"humidity":82,"pressureMB":1021,"pressureIN":30.15,"spressureMB":990,"spressureIN":29.23,"altimeterMB":1021,"altimeterIN":30.15,"windKTS":2,"windKPH":4,"windMPH":2,"windSpeedKTS":2,"windSpeedKPH":4,"windSpeedMPH":2,"windDirDEG":130,"windDir":"SE","windGustKTS":null,"windGustKPH":null,"windGustMPH":null,"flightRule":"LIFR","visibilityKM":null,"visibilityMI":null,"weather":"Mostly Sunny","weatherShort":"Mostly Sunny","weatherCoded":"::FW","weatherPrimary":"Mostly Sunny","weatherPrimaryCoded":"::FW","cloudsCoded":"FW","icon":"pcloudy.png","heatindexC":15,"heatindexF":59,"windchillC":15,"windchillF":59,"feelslikeC":15,"feelslikeF":59,"isDay":true,"sunrise":1417661177,"sunriseISO":"2014-12-04T06:46:17+04:00","sunset":1417699764,"sunsetISO":"2014-12-04T17:29:24+04:00","snowDepthCM":null,"snowDepthIN":null,"precipMM":null,"precipIN":null,"solradWM2":null,"light":3,"sky":19},"raw":"OMAL 040300Z 13002KT 9999 FEW023 15/12 Q1020 A3014 NOSIG"},{"id":"OMAD","loc":{"long":54.466666666667,"lat":24.416666666667},"place":{"name":"abu dhabi/bateen","state":"","country":"ae","pretty_name":{"city":"Abu Dhabi|Min?aqat al Ma??r","region":"AZ","country":"United Arab Emirates"}},"profile":{"tz":"Asia/Dubai","elevM":3,"elevFT":10},"obTimestamp":1417662000,"obDateTime":"2014-12-04T07:00:00+04:00","ob":{"timestamp":1417662000,"dateTimeISO":"2014-12-04T07:00:00+04:00","tempC":22,"tempF":72,"dewpointC":17,"dewpointF":63,"humidity":73,"pressureMB":1019,"pressureIN":30.09,"spressureMB":1019,"spressureIN":30.09,"altimeterMB":1019,"altimeterIN":30.09,"windKTS":2,"windKPH":4,"windMPH":2,"windSpeedKTS":2,"windSpeedKPH":4,"windSpeedMPH":2,"windDirDEG":0,"windDir":"N","windGustKTS":null,"windGustKPH":null,"windGustMPH":null,"flightRule":"LIFR","visibilityKM":null,"visibilityMI":null,"weather":"Partly Cloudy","weatherShort":"Partly Cloudy","weatherCoded":"::SC","weatherPrimary":"Partly Cloudy","weatherPrimaryCoded":"::SC","cloudsCoded":"SC","icon":"pcloudy.png","heatindexC":22,"heatindexF":72,"windchillC":22,"windchillF":72,"feelslikeC":22,"feelslikeF":72,"isDay":true,"sunrise":1417661469,"sunriseISO":"2014-12-04T06:51:09+04:00","sunset":1417700016,"sunsetISO":"2014-12-04T17:33:36+04:00","snowDepthCM":null,"snowDepthIN":null,"precipMM":null,"precipIN":null,"solradWM2":null,"light":2,"sky":44},"raw":"OMAD 040300Z VRB02KT 9999 SCT030 22/17 Q1019 A3009 NOSIG"},{"id":"OMDW","loc":{"long":55.166666666667,"lat":24.9},"place":{"name":"dubai al maktoum","state":"","country":"ae","pretty_name":{"city":"Al Maktoum International Airport|Discovery Gardens","region":"DU","country":"United Arab Emirates"}},"profile":{"tz":"Asia/Dubai","elevM":25,"elevFT":82},"obTimestamp":1417662000,"obDateTime":"2014-12-04T07:00:00+04:00","ob":{"timestamp":1417662000,"dateTimeISO":"2014-12-04T07:00:00+04:00","tempC":16,"tempF":61,"dewpointC":13,"dewpointF":55,"humidity":83,"pressureMB":1020,"pressureIN":30.12,"spressureMB":1017,"spressureIN":30.03,"altimeterMB":null,"altimeterIN":null,"windKTS":9,"windKPH":17,"windMPH":10,"windSpeedKTS":9,"windSpeedKPH":17,"windSpeedMPH":10,"windDirDEG":160,"windDir":"SSE","windGustKTS":null,"windGustKPH":null,"windGustMPH":null,"flightRule":"LIFR","visibilityKM":null,"visibilityMI":null,"weather":"Mostly Sunny","weatherShort":"Mostly Sunny","weatherCoded":"::FW","weatherPrimary":"Mostly Sunny","weatherPrimaryCoded":"::FW","cloudsCoded":"FW","icon":"pcloudy.png","heatindexC":16,"heatindexF":61,"windchillC":16,"windchillF":61,"feelslikeC":16,"feelslikeF":61,"isDay":true,"sunrise":1417661358,"sunriseISO":"2014-12-04T06:49:18+04:00","sunset":1417699791,"sunsetISO":"2014-12-04T17:29:51+04:00","snowDepthCM":null,"snowDepthIN":null,"precipMM":null,"precipIN":null,"solradWM2":null,"light":3,"sky":19},"raw":"OMDW 040300Z 16009KT 9999 FEW034 16/13 Q1020 NOSIG"},{"id":"OMAA","loc":{"long":54.633333333333,"lat":24.416666666667},"place":{"name":"abu dhabi intl","state":"","country":"ae","pretty_name":{"city":"Abu Dhabi|Mad?nat Khal?fah B","region":"AZ","country":"United Arab Emirates"}},"profile":{"tz":"Asia/Muscat","elevM":27,"elevFT":89},"obTimestamp":1417662000,"obDateTime":"2014-12-04T07:00:00+04:00","ob":{"timestamp":1417662000,"dateTimeISO":"2014-12-04T07:00:00+04:00","tempC":18,"tempF":64,"dewpointC":14,"dewpointF":57,"humidity":78,"pressureMB":1019,"pressureIN":30.09,"spressureMB":1016,"spressureIN":30,"altimeterMB":1019,"altimeterIN":30.09,"windKTS":4,"windKPH":7,"windMPH":5,"windSpeedKTS":4,"windSpeedKPH":7,"windSpeedMPH":5,"windDirDEG":140,"windDir":"SE","windGustKTS":null,"windGustKPH":null,"windGustMPH":null,"flightRule":"LIFR","visibilityKM":null,"visibilityMI":null,"weather":"Partly Cloudy","weatherShort":"Partly Cloudy","weatherCoded":"::SC","weatherPrimary":"Partly Cloudy","weatherPrimaryCoded":"::SC","cloudsCoded":"SC","icon":"pcloudy.png","heatindexC":18,"heatindexF":64,"windchillC":18,"windchillF":64,"feelslikeC":18,"feelslikeF":64,"isDay":true,"sunrise":1417661429,"sunriseISO":"2014-12-04T06:50:29+04:00","sunset":1417699976,"sunsetISO":"2014-12-04T17:32:56+04:00","snowDepthCM":null,"snowDepthIN":null,"precipMM":null,"precipIN":null,"solradWM2":null,"light":2,"sky":44},"raw":"OMAA 040300Z 14004KT 9999 SCT033 18/14 Q1019 A3009 BECMG 30010KT"},{"id":"OMDB","loc":{"long":55.366666666667,"lat":25.25},"place":{"name":"dubai intl airpo","state":"","country":"ae","pretty_name":{"city":"Dubai|B?r Sa‘?d|A? ?aw?r","region":"DU","country":"United Arab Emirates"}},"profile":{"tz":"Asia/Dubai","elevM":5,"elevFT":16},"obTimestamp":1417662000,"obDateTime":"2014-12-04T07:00:00+04:00","ob":{"timestamp":1417662000,"dateTimeISO":"2014-12-04T07:00:00+04:00","tempC":18,"tempF":64,"dewpointC":15,"dewpointF":59,"humidity":83,"pressureMB":1019,"pressureIN":30.09,"spressureMB":1018,"spressureIN":30.06,"altimeterMB":null,"altimeterIN":null,"windKTS":5,"windKPH":9,"windMPH":6,"windSpeedKTS":5,"windSpeedKPH":9,"windSpeedMPH":6,"windDirDEG":160,"windDir":"SSE","windGustKTS":null,"windGustKPH":null,"windGustMPH":null,"flightRule":"LIFR","visibilityKM":11.265408,"visibilityMI":7,"weather":"Mostly Sunny","weatherShort":"Mostly Sunny","weatherCoded":"::FW","weatherPrimary":"Mostly Sunny","weatherPrimaryCoded":"::FW","cloudsCoded":"FW","icon":"pcloudy.png","heatindexC":18,"heatindexF":64,"windchillC":18,"windchillF":64,"feelslikeC":18,"feelslikeF":64,"isDay":true,"sunrise":1417661352,"sunriseISO":"2014-12-04T06:49:12+04:00","sunset":1417699701,"sunsetISO":"2014-12-04T17:28:21+04:00","snowDepthCM":null,"snowDepthIN":null,"precipMM":null,"precipIN":null,"solradWM2":null,"sky":19,"light":3},"raw":"OMDB 040300Z 16005KT CAVOK 18/15 Q1019 NOSIG"},{"id":"OMRK","loc":{"long":55.916666666667,"lat":25.616666666667},"place":{"name":"ras al khaimah","state":"","country":"ae","pretty_name":{"city":"Ras Al Khaimah|Ras-Al-Khaima|Al ?amr?n?yah","region":"RK","country":"United Arab Emirates"}},"profile":{"tz":"Asia/Dubai","elevM":31,"elevFT":102},"obTimestamp":1417662000,"obDateTime":"2014-12-04T07:00:00+04:00","ob":{"timestamp":1417662000,"dateTimeISO":"2014-12-04T07:00:00+04:00","tempC":13,"tempF":55,"dewpointC":12,"dewpointF":54,"humidity":94,"pressureMB":1019,"pressureIN":30.09,"spressureMB":1015,"spressureIN":29.97,"altimeterMB":1019,"altimeterIN":30.09,"windKTS":3,"windKPH":6,"windMPH":3,"windSpeedKTS":3,"windSpeedKPH":6,"windSpeedMPH":3,"windDirDEG":230,"windDir":"SW","windGustKTS":null,"windGustKPH":null,"windGustMPH":null,"flightRule":"LIFR","visibilityKM":11.265408,"visibilityMI":7,"weather":"Mostly Sunny","weatherShort":"Mostly Sunny","weatherCoded":"::FW","weatherPrimary":"Mostly Sunny","weatherPrimaryCoded":"::FW","cloudsCoded":"FW","icon":"pcloudy.png","heatindexC":13,"heatindexF":55,"windchillC":13,"windchillF":55,"feelslikeC":13,"feelslikeF":55,"isDay":true,"sunrise":1417661264,"sunriseISO":"2014-12-04T06:47:44+04:00","sunset":1417699525,"sunsetISO":"2014-12-04T17:25:25+04:00","snowDepthCM":null,"snowDepthIN":null,"precipMM":null,"precipIN":null,"solradWM2":null,"sky":19,"light":3},"raw":"OMRK 040300Z 23003KT CAVOK 13/12 Q1019 A3010"},{"id":"OMSJ","loc":{"long":55.516666666667,"lat":25.316666666667},"place":{"name":"sharjah intl arp","state":"","country":"ae","pretty_name":{"city":"Sharjah|Al Marijah","region":"SH","country":"United Arab Emirates"}},"profile":{"tz":"Asia/Dubai","elevM":33,"elevFT":108},"obTimestamp":1417662000,"obDateTime":"2014-12-04T07:00:00+04:00","ob":{"timestamp":1417662000,"dateTimeISO":"2014-12-04T07:00:00+04:00","tempC":17,"tempF":63,"dewpointC":14,"dewpointF":57,"humidity":83,"pressureMB":1019,"pressureIN":30.09,"spressureMB":1015,"spressureIN":29.97,"altimeterMB":null,"altimeterIN":null,"windKTS":6,"windKPH":11,"windMPH":7,"windSpeedKTS":6,"windSpeedKPH":11,"windSpeedMPH":7,"windDirDEG":180,"windDir":"S","windGustKTS":null,"windGustKPH":null,"windGustMPH":null,"flightRule":"LIFR","visibilityKM":null,"visibilityMI":null,"weather":"Mostly Sunny","weatherShort":"Mostly Sunny","weatherCoded":"::FW","weatherPrimary":"Mostly Sunny","weatherPrimaryCoded":"::FW","cloudsCoded":"FW","icon":"pcloudy.png","heatindexC":17,"heatindexF":63,"windchillC":17,"windchillF":63,"feelslikeC":17,"feelslikeF":63,"isDay":true,"sunrise":1417661324,"sunriseISO":"2014-12-04T06:48:44+04:00","sunset":1417699657,"sunsetISO":"2014-12-04T17:27:37+04:00","snowDepthCM":null,"snowDepthIN":null,"precipMM":null,"precipIN":null,"solradWM2":null,"light":3,"sky":19},"raw":"OMSJ 040300Z 18006KT 9999 FEW030 17/14 Q1019"}]}