{"success":true,"error":null,"response":[{"id":"KQGX","loc":{"long":54.533333333333,"lat":24.25},"place":{"name":"al dhafra","state":"","country":"ae","pretty_name":{"city":"Al Dhafra|Al Muqa??arah","region":"AZ","country":"United Arab Emirates"}},"profile":{"tz":"Asia/Dubai","elevM":23,"elevFT":75},"obTimestamp":1417802280,"obDateTime":"2014-12-05T21:58:00+04:00","ob":{"timestamp":1417802280,"dateTimeISO":"2014-12-05T21:58:00+04:00","tempC":19,"tempF":66,"dewpointC":15,"dewpointF":59,"humidity":78,"pressureMB":1019,"pressureIN":30.09,"spressureMB":1016,"spressureIN":30,"altimeterMB":1019,"altimeterIN":30.09,"windKTS":3,"windKPH":6,"windMPH":3,"windSpeedKTS":3,"windSpeedKPH":6,"windSpeedMPH":3,"windDirDEG":330,"windDir":"NNW","windGustKTS":null,"windGustKPH":null,"windGustMPH":null,"flightRule":"LIFR","visibilityKM":null,"visibilityMI":null,"weather":"Clear","weatherShort":"Clear","weatherCoded":"::CL","weatherPrimary":"Clear","weatherPrimaryCoded":"::CL","cloudsCoded":"CL","icon":"sunnyn.png","heatindexC":19,"heatindexF":66,"windchillC":19,"windchillF":66,"feelslikeC":19,"feelslikeF":66,"isDay":false,"sunrise":1417747874,"sunriseISO":"2014-12-05T06:51:14+04:00","sunset":1417786428,"sunsetISO":"2014-12-05T17:33:48+04:00","snowDepthCM":null,"snowDepthIN":null,"precipMM":0,"precipIN":0,"solradWM2":null,"light":0,"tempMax6hrC":27.7,"tempMax6hrF":82,"tempMin6hrC":18.7,"tempMin6hrF":66,"sky":0},"raw":"KQGX 051758Z AUTO 33003KT 9999 CLR 19/15 A3009 RMK AO2 SLPNO T01920146 10277 20187 52005 $"},{"id":"OMFJ","loc":{"long":56.316666666667,"lat":25.1},"place":{"name":"fujairah intl ar","state":"","country":"ae","pretty_name":{"city":"Fujairah|??r","region":"FU","country":"United Arab Emirates"}},"profile":{"tz":"Asia/Dubai","elevM":28,"elevFT":92},"obTimestamp":1417802400,"obDateTime":"2014-12-05T22:00:00+04:00","ob":{"timestamp":1417802400,"dateTimeISO":"2014-12-05T22:00:00+04:00","tempC":21,"tempF":70,"dewpointC":11,"dewpointF":52,"humidity":53,"pressureMB":1018,"pressureIN":30.06,"spressureMB":1015,"spressureIN":29.97,"altimeterMB":1018,"altimeterIN":30.06,"windKTS":4,"windKPH":7,"windMPH":5,"windSpeedKTS":4,"windSpeedKPH":7,"windSpeedMPH":5,"windDirDEG":280,"windDir":"W","windGustKTS":null,"windGustKPH":null,"windGustMPH":null,"flightRule":"LIFR","visibilityKM":6,"visibilityMI":3.73,"weather":"Mostly Clear","weatherShort":"Mostly Clear","weatherCoded":"::FW","weatherPrimary":"Mostly Clear","weatherPrimaryCoded":"::FW","cloudsCoded":"FW","icon":"pcloudyn.png","heatindexC":21,"heatindexF":70,"windchillC":21,"windchillF":70,"feelslikeC":21,"feelslikeF":70,"isDay":false,"sunrise":1417747547,"sunriseISO":"2014-12-05T06:45:47+04:00","sunset":1417785899,"sunsetISO":"2014-12-05T17:24:59+04:00","snowDepthCM":null,"snowDepthIN":null,"precipMM":null,"precipIN":null,"solradWM2":null,"sky":19,"light":0},"raw":"OMFJ 051800Z 28004KT 6000 NSC 21/11 Q1018 A3006"},{"id":"OMAL","loc":{"long":55.6,"lat":24.25},"place":{"name":"al ain intnl arp","state":"","country":"ae","pretty_name":{"city":"Al Ain|Alain|Al Ja?r","region":"AZ","country":"United Arab Emirates"}},"profile":{"tz":"Asia/Dubai","elevM":262,"elevFT":860},"obTimestamp":1417802400,"obDateTime":"2014-12-05T22:00:00+04:00","ob":{"timestamp":1417802400,"dateTimeISO":"2014-12-05T22:00:00+04:00","tempC":20,"tempF":68,"dewpointC":13,"dewpointF":55,"humidity":64,"pressureMB":1019,"pressureIN":30.09,"spressureMB":988,"spressureIN":29.18,"altimeterMB":1019,"altimeterIN":30.09,"windKTS":6,"windKPH":11,"windMPH":7,"windSpeedKTS":6,"windSpeedKPH":11,"windSpeedMPH":7,"windDirDEG":300,"windDir":"WNW","windGustKTS":null,"windGustKPH":null,"windGustMPH":null,"flightRule":"LIFR","visibilityKM":11.265408,"visibilityMI":7,"weather":"Mostly Clear","weatherShort":"Mostly Clear","weatherCoded":"::FW","weatherPrimary":"Mostly Clear","weatherPrimaryCoded":"::FW","cloudsCoded":"FW","icon":"pcloudyn.png","heatindexC":20,"heatindexF":68,"windchillC":20,"windchillF":68,"feelslikeC":20,"feelslikeF":68,"isDay":false,"sunrise":1417747618,"sunriseISO":"2014-12-05T06:46:58+04:00","sunset":1417786172,"sunsetISO":"2014-12-05T17:29:32+04:00","snowDepthCM":null,"snowDepthIN":null,"precipMM":null,"precipIN":null,"solradWM2":null,"sky":19,"light":0},"raw":"OMAL 051800Z 30006KT CAVOK 20/13 Q1018 A3008 NOSIG"},{"id":"OMAD","loc":{"long":54.466666666667,"lat":24.416666666667},"place":{"name":"abu dhabi/bateen","state":"","country":"ae","pretty_name":{"city":"Abu Dhabi|Min?aqat al Ma??r","region":"AZ","country":"United Arab Emirates"}},"profile":{"tz":"Asia/Dubai","elevM":3,"elevFT":10},"obTimestamp":1417802400,"obDateTime":"2014-12-05T22:00:00+04:00","ob":{"timestamp":1417802400,"dateTimeISO":"2014-12-05T22:00:00+04:00","tempC":22,"tempF":72,"dewpointC":17,"dewpointF":63,"humidity":73,"pressureMB":1018,"pressureIN":30.06,"spressureMB":1018,"spressureIN":30.06,"altimeterMB":1018,"altimeterIN":30.06,"windKTS":2,"windKPH":4,"windMPH":2,"windSpeedKTS":2,"windSpeedKPH":4,"windSpeedMPH":2,"windDirDEG":340,"windDir":"NNW","windGustKTS":null,"windGustKPH":null,"windGustMPH":null,"flightRule":"LIFR","visibilityKM":11.265408,"visibilityMI":7,"weather":"Mostly Clear","weatherShort":"Mostly Clear","weatherCoded":"::FW","weatherPrimary":"Mostly Clear","weatherPrimaryCoded":"::FW","cloudsCoded":"FW","icon":"pcloudyn.png","heatindexC":22,"heatindexF":72,"windchillC":22,"windchillF":72,"feelslikeC":22,"feelslikeF":72,"isDay":false,"sunrise":1417747910,"sunriseISO":"2014-12-05T06:51:50+04:00","sunset":1417786425,"sunsetISO":"2014-12-05T17:33:45+04:00","snowDepthCM":null,"snowDepthIN":null,"precipMM":null,"precipIN":null,"solradWM2":null,"sky":19,"light":0},"raw":"OMAD 051800Z 34002KT CAVOK 22/17 Q1018 A3006 NOSIG"},{"id":"OMDW","loc":{"long":55.166666666667,"lat":24.9},"place":{"name":"dubai al maktoum","state":"","country":"ae","pretty_name":{"city":"Al Maktoum International Airport|Discovery Gardens","region":"DU","country":"United Arab Emirates"}},"profile":{"tz":"Asia/Dubai","elevM":25,"elevFT":82},"obTimestamp":1417802400,"obDateTime":"2014-12-05T22:00:00+04:00","ob":{"timestamp":1417802400,"dateTimeISO":"2014-12-05T22:00:00+04:00","tempC":20,"tempF":68,"dewpointC":15,"dewpointF":59,"humidity":73,"pressureMB":1018,"pressureIN":30.06,"spressureMB":1015,"spressureIN":29.97,"altimeterMB":null,"altimeterIN":null,"windKTS":1,"windKPH":2,"windMPH":1,"windSpeedKTS":1,"windSpeedKPH":2,"windSpeedMPH":1,"windDirDEG":0,"windDir":"N","windGustKTS":null,"windGustKPH":null,"windGustMPH":null,"flightRule":"LIFR","visibilityKM":11.265408,"visibilityMI":7,"weather":"Mostly Clear","weatherShort":"Mostly Clear","weatherCoded":"::FW","weatherPrimary":"Mostly Clear","weatherPrimaryCoded":"::FW","cloudsCoded":"FW","icon":"pcloudyn.png","heatindexC":20,"heatindexF":68,"windchillC":20,"windchillF":68,"feelslikeC":20,"feelslikeF":68,"isDay":false,"sunrise":1417747799,"sunriseISO":"2014-12-05T06:49:59+04:00","sunset":1417786199,"sunsetISO":"2014-12-05T17:29:59+04:00","snowDepthCM":null,"snowDepthIN":null,"precipMM":null,"precipIN":null,"solradWM2":null,"sky":19,"light":0},"raw":"OMDW 051800Z VRB01KT CAVOK 20/15 Q1018 NOSIG"},{"id":"OMAA","loc":{"long":54.633333333333,"lat":24.416666666667},"place":{"name":"abu dhabi intl","state":"","country":"ae","pretty_name":{"city":"Abu Dhabi|Mad?nat Khal?fah B","region":"AZ","country":"United Arab Emirates"}},"profile":{"tz":"Asia/Muscat","elevM":27,"elevFT":89},"obTimestamp":1417802400,"obDateTime":"2014-12-05T22:00:00+04:00","ob":{"timestamp":1417802400,"dateTimeISO":"2014-12-05T22:00:00+04:00","tempC":22,"tempF":72,"dewpointC":18,"dewpointF":64,"humidity":78,"pressureMB":1018,"pressureIN":30.06,"spressureMB":1015,"spressureIN":29.97,"altimeterMB":1018,"altimeterIN":30.06,"windKTS":3,"windKPH":6,"windMPH":3,"windSpeedKTS":3,"windSpeedKPH":6,"windSpeedMPH":3,"windDirDEG":300,"windDir":"WNW","windGustKTS":null,"windGustKPH":null,"windGustMPH":null,"flightRule":"LIFR","visibilityKM":11.265408,"visibilityMI":7,"weather":"Mostly Clear","weatherShort":"Mostly Clear","weatherCoded":"::FW","weatherPrimary":"Mostly Clear","weatherPrimaryCoded":"::FW","cloudsCoded":"FW","icon":"pcloudyn.png","heatindexC":22,"heatindexF":72,"windchillC":22,"windchillF":72,"feelslikeC":22,"feelslikeF":72,"isDay":false,"sunrise":1417747870,"sunriseISO":"2014-12-05T06:51:10+04:00","sunset":1417786385,"sunsetISO":"2014-12-05T17:33:05+04:00","snowDepthCM":null,"snowDepthIN":null,"precipMM":null,"precipIN":null,"solradWM2":null,"sky":19,"light":0},"raw":"OMAA 051800Z 30003KT CAVOK 22/18 Q1017 A3005 NOSIG"},{"id":"OMDB","loc":{"long":55.366666666667,"lat":25.25},"place":{"name":"dubai intl airpo","state":"","country":"ae","pretty_name":{"city":"Dubai|B?r Sa‘?d|A? ?aw?r","region":"DU","country":"United Arab Emirates"}},"profile":{"tz":"Asia/Dubai","elevM":5,"elevFT":16},"obTimestamp":1417802400,"obDateTime":"2014-12-05T22:00:00+04:00","ob":{"timestamp":1417802400,"dateTimeISO":"2014-12-05T22:00:00+04:00","tempC":24,"tempF":75,"dewpointC":16,"dewpointF":61,"humidity":61,"pressureMB":1018,"pressureIN":30.06,"spressureMB":1017,"spressureIN":30.03,"altimeterMB":null,"altimeterIN":null,"windKTS":4,"windKPH":7,"windMPH":5,"windSpeedKTS":4,"windSpeedKPH":7,"windSpeedMPH":5,"windDirDEG":50,"windDir":"NE","windGustKTS":null,"windGustKPH":null,"windGustMPH":null,"flightRule":"LIFR","visibilityKM":11.265408,"visibilityMI":7,"weather":"Mostly Clear","weatherShort":"Mostly Clear","weatherCoded":"::FW","weatherPrimary":"Mostly Clear","weatherPrimaryCoded":"::FW","cloudsCoded":"FW","icon":"pcloudyn.png","heatindexC":24,"heatindexF":75,"windchillC":24,"windchillF":75,"feelslikeC":24,"feelslikeF":75,"isDay":false,"sunrise":1417747793,"sunriseISO":"2014-12-05T06:49:53+04:00","sunset":1417786109,"sunsetISO":"2014-12-05T17:28:29+04:00","snowDepthCM":null,"snowDepthIN":null,"precipMM":null,"precipIN":null,"solradWM2":null,"sky":19,"light":0},"raw":"OMDB 051800Z 05004KT 010V110 CAVOK 24/16 Q1018 NOSIG"},{"id":"OMRK","loc":{"long":55.916666666667,"lat":25.616666666667},"place":{"name":"ras al khaimah","state":"","country":"ae","pretty_name":{"city":"Ras Al Khaimah|Ras-Al-Khaima|Al ?amr?n?yah","region":"RK","country":"United Arab Emirates"}},"profile":{"tz":"Asia/Dubai","elevM":31,"elevFT":102},"obTimestamp":1417802400,"obDateTime":"2014-12-05T22:00:00+04:00","ob":{"timestamp":1417802400,"dateTimeISO":"2014-12-05T22:00:00+04:00","tempC":16,"tempF":61,"dewpointC":12,"dewpointF":54,"humidity":77,"pressureMB":1018,"pressureIN":30.06,"spressureMB":1014,"spressureIN":29.94,"altimeterMB":1018,"altimeterIN":30.06,"windKTS":2,"windKPH":4,"windMPH":2,"windSpeedKTS":2,"windSpeedKPH":4,"windSpeedMPH":2,"windDirDEG":250,"windDir":"WSW","windGustKTS":null,"windGustKPH":null,"windGustMPH":null,"flightRule":"LIFR","visibilityKM":11.265408,"visibilityMI":7,"weather":"Mostly Clear","weatherShort":"Mostly Clear","weatherCoded":"::FW","weatherPrimary":"Mostly Clear","weatherPrimaryCoded":"::FW","cloudsCoded":"FW","icon":"pcloudyn.png","heatindexC":16,"heatindexF":61,"windchillC":16,"windchillF":61,"feelslikeC":16,"feelslikeF":61,"isDay":false,"sunrise":1417747706,"sunriseISO":"2014-12-05T06:48:26+04:00","sunset":1417785932,"sunsetISO":"2014-12-05T17:25:32+04:00","snowDepthCM":null,"snowDepthIN":null,"precipMM":null,"precipIN":null,"solradWM2":null,"sky":19,"light":0},"raw":"OMRK 051800Z 25002KT CAVOK 16/12 Q1018 A3007"},{"id":"OMSJ","loc":{"long":55.516666666667,"lat":25.316666666667},"place":{"name":"sharjah intl arp","state":"","country":"ae","pretty_name":{"city":"Sharjah|Al Marijah","region":"SH","country":"United Arab Emirates"}},"profile":{"tz":"Asia/Dubai","elevM":33,"elevFT":108},"obTimestamp":1417802400,"obDateTime":"2014-12-05T22:00:00+04:00","ob":{"timestamp":1417802400,"dateTimeISO":"2014-12-05T22:00:00+04:00","tempC":20,"tempF":68,"dewpointC":14,"dewpointF":57,"humidity":69,"pressureMB":1018,"pressureIN":30.06,"spressureMB":1014,"spressureIN":29.94,"altimeterMB":null,"altimeterIN":null,"windKTS":3,"windKPH":6,"windMPH":3,"windSpeedKTS":3,"windSpeedKPH":6,"windSpeedMPH":3,"windDirDEG":70,"windDir":"ENE","windGustKTS":null,"windGustKPH":null,"windGustMPH":null,"flightRule":"LIFR","visibilityKM":11.265408,"visibilityMI":7,"weather":"Mostly Clear","weatherShort":"Mostly Clear","weatherCoded":"::FW","weatherPrimary":"Mostly Clear","weatherPrimaryCoded":"::FW","cloudsCoded":"FW","icon":"pcloudyn.png","heatindexC":20,"heatindexF":68,"windchillC":20,"windchillF":68,"feelslikeC":20,"feelslikeF":68,"isDay":false,"sunrise":1417747766,"sunriseISO":"2014-12-05T06:49:26+04:00","sunset":1417786064,"sunsetISO":"2014-12-05T17:27:44+04:00","snowDepthCM":null,"snowDepthIN":null,"precipMM":null,"precipIN":null,"solradWM2":null,"sky":19,"light":0},"raw":"OMSJ 051800Z 07003KT 020V100 CAVOK 20/14 Q1018"}]}