{"success":true,"error":null,"response":[{"id":"LATI","loc":{"long":19.716666666667,"lat":41.416666666667},"place":{"name":"tirana","state":"","country":"al","pretty_name":{"city":"Tirana|Yzberish","region":"TR","country":"Albania"}},"profile":{"tz":"Europe/Tirane","elevM":90,"elevFT":295},"obTimestamp":1417805400,"obDateTime":"2014-12-05T19:50:00+01:00","ob":{"timestamp":1417805400,"dateTimeISO":"2014-12-05T19:50:00+01:00","tempC":13,"tempF":55,"dewpointC":12,"dewpointF":54,"humidity":94,"pressureMB":1015,"pressureIN":29.97,"spressureMB":1004,"spressureIN":29.65,"altimeterMB":null,"altimeterIN":null,"windKTS":2,"windKPH":4,"windMPH":2,"windSpeedKTS":2,"windSpeedKPH":4,"windSpeedMPH":2,"windDirDEG":0,"windDir":"N","windGustKTS":null,"windGustKPH":null,"windGustMPH":null,"flightRule":"LIFR","visibilityKM":6,"visibilityMI":3.73,"weather":"Cloudy with Rain","weatherShort":"Rain","weatherCoded":"::R,::OV","weatherPrimary":"Rain","weatherPrimaryCoded":"::R","cloudsCoded":"OV","icon":"rainn.png","heatindexC":13,"heatindexF":55,"windchillC":13,"windchillF":55,"feelslikeC":13,"feelslikeF":55,"isDay":false,"sunrise":1417758724,"sunriseISO":"2014-12-05T06:52:04+01:00","sunset":1417792301,"sunsetISO":"2014-12-05T16:11:41+01:00","snowDepthCM":null,"snowDepthIN":null,"precipMM":null,"precipIN":null,"solradWM2":null,"light":0,"sky":100},"raw":"LATI 051850Z VRB02KT 6000 RA FEW008 SCT020CB BKN035 OVC050 13/12 Q1015 NOSIG"}]}