{"success":true,"error":null,"response":[{"id":"UDSG","loc":{"long":43.866666666667,"lat":40.75},"place":{"name":"shirak","state":"","country":"am","pretty_name":{"city":"Gyumri|Azatan","region":"-","country":"Armenia"}},"profile":{"tz":"Asia/Yerevan","elevM":1524,"elevFT":5000},"obTimestamp":1417804200,"obDateTime":"2014-12-05T22:30:00+04:00","ob":{"timestamp":1417804200,"dateTimeISO":"2014-12-05T22:30:00+04:00","tempC":-1,"tempF":30,"dewpointC":-2,"dewpointF":28,"humidity":93,"pressureMB":1023,"pressureIN":30.21,"spressureMB":848,"spressureIN":25.04,"altimeterMB":null,"altimeterIN":null,"windKTS":0,"windKPH":0,"windMPH":0,"windSpeedKTS":0,"windSpeedKPH":0,"windSpeedMPH":0,"windDirDEG":0,"windDir":"N","windGustKTS":null,"windGustKPH":null,"windGustMPH":null,"flightRule":"MVFR","visibilityKM":3.2,"visibilityMI":1.99,"weather":"Cloudy with Mist and Fog","weatherShort":"Mist and Fog","weatherCoded":"::BR,::OV","weatherPrimary":"Mist and Fog","weatherPrimaryCoded":"::BR","cloudsCoded":"OV","icon":"fogn.png","heatindexC":-1,"heatindexF":30,"windchillC":-1,"windchillF":30,"feelslikeC":-1,"feelslikeF":30,"isDay":false,"sunrise":1417752797,"sunriseISO":"2014-12-05T08:13:17+04:00","sunset":1417786627,"sunsetISO":"2014-12-05T17:37:07+04:00","snowDepthCM":null,"snowDepthIN":null,"precipMM":null,"precipIN":null,"solradWM2":null,"light":0,"sky":100},"raw":"UDSG 051830Z 00000MPS 3200 BR OVC020 M01/M02 Q1023 R02/CLRD70 NOSIG"},{"id":"UDYZ","loc":{"long":44.4,"lat":40.15},"place":{"name":"zvartnots","state":"","country":"am","pretty_name":{"city":"Yerevan|Arbat’","region":"VL","country":"Armenia"}},"profile":{"tz":"Asia/Yerevan","elevM":865,"elevFT":2838},"obTimestamp":1417804200,"obDateTime":"2014-12-05T22:30:00+04:00","ob":{"timestamp":1417804200,"dateTimeISO":"2014-12-05T22:30:00+04:00","tempC":4,"tempF":39,"dewpointC":2,"dewpointF":36,"humidity":87,"pressureMB":1025,"pressureIN":30.27,"spressureMB":922,"spressureIN":27.23,"altimeterMB":null,"altimeterIN":null,"windKTS":0,"windKPH":0,"windMPH":0,"windSpeedKTS":0,"windSpeedKPH":0,"windSpeedMPH":0,"windDirDEG":0,"windDir":"N","windGustKTS":null,"windGustKPH":null,"windGustMPH":null,"flightRule":"LIFR","visibilityKM":6,"visibilityMI":3.73,"weather":"Cloudy","weatherShort":"Cloudy","weatherCoded":"::OV","weatherPrimary":"Cloudy","weatherPrimaryCoded":"::OV","cloudsCoded":"OV","icon":"cloudyn.png","heatindexC":4,"heatindexF":39,"windchillC":4,"windchillF":39,"feelslikeC":4,"feelslikeF":39,"isDay":false,"sunrise":1417752563,"sunriseISO":"2014-12-05T08:09:23+04:00","sunset":1417786605,"sunsetISO":"2014-12-05T17:36:45+04:00","snowDepthCM":null,"snowDepthIN":null,"precipMM":null,"precipIN":null,"solradWM2":null,"light":0,"sky":100},"raw":"UDYZ 051830Z 00000MPS 6000 OVC046 04/02 Q1025 R09/000070 NOSIG"}]}