{"success":true,"error":null,"response":[{"id":"LOIH","loc":{"long":9.7,"lat":47.383333333333},"place":{"name":"hohenems-dornbir","state":"","country":"at","pretty_name":{"city":"Hohenems|Oberklien","region":"8","country":"Austria"}},"profile":{"tz":"Europe/Vienna","elevM":418,"elevFT":1371},"obTimestamp":1417791600,"obDateTime":"2014-12-05T16:00:00+01:00","ob":{"timestamp":1417791600,"dateTimeISO":"2014-12-05T16:00:00+01:00","tempC":5,"tempF":41,"dewpointC":4,"dewpointF":39,"humidity":93,"pressureMB":1017,"pressureIN":30.03,"spressureMB":966,"spressureIN":28.53,"altimeterMB":null,"altimeterIN":null,"windKTS":0,"windKPH":0,"windMPH":0,"windSpeedKTS":0,"windSpeedKPH":0,"windSpeedMPH":0,"windDirDEG":0,"windDir":"N","windGustKTS":null,"windGustKPH":null,"windGustMPH":null,"flightRule":"LIFR","visibilityKM":null,"visibilityMI":null,"weather":"Mostly Sunny","weatherShort":"Mostly Sunny","weatherCoded":"::FW","weatherPrimary":"Mostly Sunny","weatherPrimaryCoded":"::FW","cloudsCoded":"FW","icon":"pcloudy.png","heatindexC":5,"heatindexF":41,"windchillC":5,"windchillF":41,"feelslikeC":5,"feelslikeF":41,"isDay":true,"sunrise":1417762355,"sunriseISO":"2014-12-05T07:52:35+01:00","sunset":1417793479,"sunsetISO":"2014-12-05T16:31:19+01:00","snowDepthCM":null,"snowDepthIN":null,"precipMM":null,"precipIN":null,"solradWM2":null,"sky":19,"light":10},"raw":"LOIH 051500Z 00000KT 15KM OVC006ST 05/04 Q1017 RMK OVC"},{"id":"LOAV","loc":{"long":16.266666666667,"lat":47.966666666667},"place":{"name":"voeslau-kottingb","state":"","country":"at","pretty_name":{"city":"Lugplatz|Oyenhausen","region":"3","country":"Austria"}},"profile":{"tz":"Europe/Vienna","elevM":233,"elevFT":764},"obTimestamp":1417791600,"obDateTime":"2014-12-05T16:00:00+01:00","ob":{"timestamp":1417791600,"dateTimeISO":"2014-12-05T16:00:00+01:00","tempC":5,"tempF":41,"dewpointC":4,"dewpointF":39,"humidity":93,"pressureMB":1018,"pressureIN":30.06,"spressureMB":989,"spressureIN":29.21,"altimeterMB":null,"altimeterIN":null,"windKTS":6,"windKPH":11,"windMPH":7,"windSpeedKTS":6,"windSpeedKPH":11,"windSpeedMPH":7,"windDirDEG":120,"windDir":"ESE","windGustKTS":null,"windGustKPH":null,"windGustMPH":null,"flightRule":"LIFR","visibilityKM":2,"visibilityMI":1.24,"weather":"Mostly Sunny with Light Rain","weatherShort":"Light Rain","weatherCoded":":L:R,::BR,::FW","weatherPrimary":"Light Rain","weatherPrimaryCoded":":L:R","cloudsCoded":"FW","icon":"rain.png","heatindexC":5,"heatindexF":41,"windchillC":5,"windchillF":41,"feelslikeC":5,"feelslikeF":41,"isDay":true,"sunrise":1417760915,"sunriseISO":"2014-12-05T07:28:35+01:00","sunset":1417791766,"sunsetISO":"2014-12-05T16:02:46+01:00","snowDepthCM":null,"snowDepthIN":null,"precipMM":null,"precipIN":null,"solradWM2":null,"sky":19,"light":1},"raw":"LOAV 051500Z 12006KT 2000 -RA BR FEW005ST SCT020ST BKN100AC 05/04 Q1018 RMK OVC"},{"id":"LOWZ","loc":{"long":12.783333333333,"lat":47.3},"place":{"name":"zell am see","state":"","country":"at","pretty_name":{"city":"Zell Am See|Zellamsee|Bruckberg","region":"5","country":"Austria"}},"profile":{"tz":"Europe/Vienna","elevM":754,"elevFT":2474},"obTimestamp":1417791600,"obDateTime":"2014-12-05T16:00:00+01:00","ob":{"timestamp":1417791600,"dateTimeISO":"2014-12-05T16:00:00+01:00","tempC":3,"tempF":37,"dewpointC":2,"dewpointF":36,"humidity":93,"pressureMB":1014,"pressureIN":29.94,"spressureMB":924,"spressureIN":27.29,"altimeterMB":null,"altimeterIN":null,"windKTS":3,"windKPH":6,"windMPH":3,"windSpeedKTS":3,"windSpeedKPH":6,"windSpeedMPH":3,"windDirDEG":80,"windDir":"E","windGustKTS":null,"windGustKPH":null,"windGustMPH":null,"flightRule":"LIFR","visibilityKM":2,"visibilityMI":1.24,"weather":"Mostly Sunny with Mist and Fog","weatherShort":"Mist and Fog","weatherCoded":"::BR,::FW","weatherPrimary":"Mist and Fog","weatherPrimaryCoded":"::BR","cloudsCoded":"FW","icon":"fog.png","heatindexC":3,"heatindexF":37,"windchillC":2,"windchillF":35,"feelslikeC":2,"feelslikeF":35,"isDay":true,"sunrise":1417761596,"sunriseISO":"2014-12-05T07:39:56+01:00","sunset":1417792759,"sunsetISO":"2014-12-05T16:19:19+01:00","snowDepthCM":null,"snowDepthIN":null,"precipMM":null,"precipIN":null,"solradWM2":null,"sky":19,"light":6},"raw":"LOWZ 051500Z 08003KT 2000 BR OVC003ST 03/02 Q1014 RMK OVC"},{"id":"LOXZ","loc":{"long":14.75,"lat":47.2},"place":{"name":"zeltweg (mil)","state":"","country":"at","pretty_name":{"city":"Zeltweg|Schцnberg","region":"6","country":"Austria"}},"profile":{"tz":"Europe/Vienna","elevM":682,"elevFT":2238},"obTimestamp":1417801800,"obDateTime":"2014-12-05T18:50:00+01:00","ob":{"timestamp":1417801800,"dateTimeISO":"2014-12-05T18:50:00+01:00","tempC":4,"tempF":39,"dewpointC":3,"dewpointF":37,"humidity":93,"pressureMB":1016,"pressureIN":30,"spressureMB":935,"spressureIN":27.61,"altimeterMB":null,"altimeterIN":null,"windKTS":1,"windKPH":2,"windMPH":1,"windSpeedKTS":1,"windSpeedKPH":2,"windSpeedMPH":1,"windDirDEG":0,"windDir":"N","windGustKTS":null,"windGustKPH":null,"windGustMPH":null,"flightRule":"LIFR","visibilityKM":8,"visibilityMI":4.97,"weather":"Mostly Clear","weatherShort":"Mostly Clear","weatherCoded":"::FW","weatherPrimary":"Mostly Clear","weatherPrimaryCoded":"::FW","cloudsCoded":"FW","icon":"pcloudyn.png","heatindexC":4,"heatindexF":39,"windchillC":4,"windchillF":39,"feelslikeC":4,"feelslikeF":39,"isDay":false,"sunrise":1417761100,"sunriseISO":"2014-12-05T07:31:40+01:00","sunset":1417792310,"sunsetISO":"2014-12-05T16:11:50+01:00","snowDepthCM":null,"snowDepthIN":null,"precipMM":null,"precipIN":null,"solradWM2":null,"sky":19,"light":0},"raw":"LOXZ 051750Z VRB01KT 8000 FEW010ST OVC012ST 04/03 Q1016 RMK OVC"},{"id":"LOWG","loc":{"long":15.416666666667,"lat":47},"place":{"name":"graz (mil/civ)","state":"","country":"at","pretty_name":{"city":"Graz|Lebernfeld","region":"6","country":"Austria"}},"profile":{"tz":"Europe/Vienna","elevM":347,"elevFT":1138},"obTimestamp":1417803600,"obDateTime":"2014-12-05T19:20:00+01:00","ob":{"timestamp":1417803600,"dateTimeISO":"2014-12-05T19:20:00+01:00","tempC":4,"tempF":39,"dewpointC":4,"dewpointF":39,"humidity":100,"pressureMB":1017,"pressureIN":30.03,"spressureMB":975,"spressureIN":28.79,"altimeterMB":null,"altimeterIN":null,"windKTS":2,"windKPH":4,"windMPH":2,"windSpeedKTS":2,"windSpeedKPH":4,"windSpeedMPH":2,"windDirDEG":120,"windDir":"ESE","windGustKTS":null,"windGustKPH":null,"windGustMPH":null,"flightRule":"MVFR","visibilityKM":7,"visibilityMI":4.35,"weather":"Mostly Cloudy","weatherShort":"Mostly Cloudy","weatherCoded":"::BK","weatherPrimary":"Mostly Cloudy","weatherPrimaryCoded":"::BK","cloudsCoded":"BK","icon":"mcloudyn.png","heatindexC":4,"heatindexF":39,"windchillC":4,"windchillF":39,"feelslikeC":4,"feelslikeF":39,"isDay":false,"sunrise":1417760894,"sunriseISO":"2014-12-05T07:28:14+01:00","sunset":1417792196,"sunsetISO":"2014-12-05T16:09:56+01:00","snowDepthCM":null,"snowDepthIN":null,"precipMM":null,"precipIN":null,"solradWM2":null,"light":0,"sky":81},"raw":"LOWG 051820Z 12002KT 7000 FEW009 BKN012 04/04 Q1017 R17/29//95 NOSIG"},{"id":"LOWW","loc":{"long":16.566666666667,"lat":48.116666666667},"place":{"name":"vienna/schwechat","state":"","country":"at","pretty_name":{"city":"Wien|Fischamend Markt","region":"3","country":"Austria"}},"profile":{"tz":"Europe/Vienna","elevM":190,"elevFT":623},"obTimestamp":1417803600,"obDateTime":"2014-12-05T19:20:00+01:00","ob":{"timestamp":1417803600,"dateTimeISO":"2014-12-05T19:20:00+01:00","tempC":5,"tempF":41,"dewpointC":5,"dewpointF":41,"humidity":100,"pressureMB":1018,"pressureIN":30.06,"spressureMB":995,"spressureIN":29.38,"altimeterMB":null,"altimeterIN":null,"windKTS":6,"windKPH":11,"windMPH":7,"windSpeedKTS":6,"windSpeedKPH":11,"windSpeedMPH":7,"windDirDEG":130,"windDir":"SE","windGustKTS":null,"windGustKPH":null,"windGustMPH":null,"flightRule":"MVFR","visibilityKM":8,"visibilityMI":4.97,"weather":"Mostly Cloudy with Light Rain","weatherShort":"Light Rain","weatherCoded":":L:R,::BK","weatherPrimary":"Light Rain","weatherPrimaryCoded":":L:R","cloudsCoded":"BK","icon":"rainn.png","heatindexC":5,"heatindexF":41,"windchillC":5,"windchillF":41,"feelslikeC":5,"feelslikeF":41,"isDay":false,"sunrise":1417760879,"sunriseISO":"2014-12-05T07:27:59+01:00","sunset":1417791658,"sunsetISO":"2014-12-05T16:00:58+01:00","snowDepthCM":null,"snowDepthIN":null,"precipMM":null,"precipIN":null,"solradWM2":null,"light":0,"sky":81},"raw":"LOWW 051820Z 13006KT 8000 -RA FEW009 BKN010 05/05 Q1018 NOSIG"},{"id":"LOWK","loc":{"long":14.316666666667,"lat":46.65},"place":{"name":"klagenfurt(civ/m","state":"","country":"at","pretty_name":{"city":"Klagenfurt|Nessendorf","region":"2","country":"Austria"}},"profile":{"tz":"Europe/Vienna","elevM":441,"elevFT":1447},"obTimestamp":1417803600,"obDateTime":"2014-12-05T19:20:00+01:00","ob":{"timestamp":1417803600,"dateTimeISO":"2014-12-05T19:20:00+01:00","tempC":5,"tempF":41,"dewpointC":3,"dewpointF":37,"humidity":87,"pressureMB":1017,"pressureIN":30.03,"spressureMB":964,"spressureIN":28.47,"altimeterMB":null,"altimeterIN":null,"windKTS":3,"windKPH":6,"windMPH":3,"windSpeedKTS":3,"windSpeedKPH":6,"windSpeedMPH":3,"windDirDEG":290,"windDir":"WNW","windGustKTS":null,"windGustKPH":null,"windGustMPH":null,"flightRule":"MVFR","visibilityKM":null,"visibilityMI":null,"weather":"Mostly Cloudy","weatherShort":"Mostly Cloudy","weatherCoded":"::BK","weatherPrimary":"Mostly Cloudy","weatherPrimaryCoded":"::BK","cloudsCoded":"BK","icon":"mcloudyn.png","heatindexC":5,"heatindexF":41,"windchillC":5,"windchillF":41,"feelslikeC":5,"feelslikeF":41,"isDay":false,"sunrise":1417761079,"sunriseISO":"2014-12-05T07:31:19+01:00","sunset":1417792539,"sunsetISO":"2014-12-05T16:15:39+01:00","snowDepthCM":null,"snowDepthIN":null,"precipMM":null,"precipIN":null,"solradWM2":null,"light":0,"sky":81},"raw":"LOWK 051820Z 29003KT 9999 FEW012 BKN017 05/03 Q1017 TEMPO BKN014"},{"id":"LOWI","loc":{"long":11.333333333333,"lat":47.266666666667},"place":{"name":"innsbruck airpor","state":"","country":"at","pretty_name":{"city":"Innsbruck|Neu Gцtzens","region":"7","country":"Austria"}},"profile":{"tz":"Europe/Vienna","elevM":581,"elevFT":1906},"obTimestamp":1417803600,"obDateTime":"2014-12-05T19:20:00+01:00","ob":{"timestamp":1417803600,"dateTimeISO":"2014-12-05T19:20:00+01:00","tempC":4,"tempF":39,"dewpointC":3,"dewpointF":37,"humidity":93,"pressureMB":1016,"pressureIN":30,"spressureMB":946,"spressureIN":27.94,"altimeterMB":null,"altimeterIN":null,"windKTS":3,"windKPH":6,"windMPH":3,"windSpeedKTS":3,"windSpeedKPH":6,"windSpeedMPH":3,"windDirDEG":80,"windDir":"E","windGustKTS":null,"windGustKPH":null,"windGustMPH":null,"flightRule":"IFR","visibilityKM":null,"visibilityMI":null,"weather":"Cloudy","weatherShort":"Cloudy","weatherCoded":"::OV","weatherPrimary":"Cloudy","weatherPrimaryCoded":"::OV","cloudsCoded":"OV","icon":"cloudyn.png","heatindexC":4,"heatindexF":39,"windchillC":3,"windchillF":37,"feelslikeC":3,"feelslikeF":37,"isDay":false,"sunrise":1417761936,"sunriseISO":"2014-12-05T07:45:36+01:00","sunset":1417793114,"sunsetISO":"2014-12-05T16:25:14+01:00","snowDepthCM":null,"snowDepthIN":null,"precipMM":null,"precipIN":null,"solradWM2":null,"light":0,"sky":100},"raw":"LOWI 051820Z 08003KT 040V120 9999 FEW006 OVC008 04/03 Q1016 NOSIG"},{"id":"LOWS","loc":{"long":13.016666666667,"lat":47.783333333333},"place":{"name":"salzburg airport","state":"","country":"at","pretty_name":{"city":"Salzburg |Loig","region":"5","country":"Austria"}},"profile":{"tz":"Europe/Vienna","elevM":450,"elevFT":1476},"obTimestamp":1417803600,"obDateTime":"2014-12-05T19:20:00+01:00","ob":{"timestamp":1417803600,"dateTimeISO":"2014-12-05T19:20:00+01:00","tempC":3,"tempF":37,"dewpointC":3,"dewpointF":37,"humidity":100,"pressureMB":1017,"pressureIN":30.03,"spressureMB":962,"spressureIN":28.41,"altimeterMB":null,"altimeterIN":null,"windKTS":3,"windKPH":6,"windMPH":3,"windSpeedKTS":3,"windSpeedKPH":6,"windSpeedMPH":3,"windDirDEG":280,"windDir":"W","windGustKTS":null,"windGustKPH":null,"windGustMPH":null,"flightRule":"IFR","visibilityKM":null,"visibilityMI":null,"weather":"Cloudy","weatherShort":"Cloudy","weatherCoded":"::OV","weatherPrimary":"Cloudy","weatherPrimaryCoded":"::OV","cloudsCoded":"OV","icon":"cloudyn.png","heatindexC":3,"heatindexF":37,"windchillC":2,"windchillF":35,"feelslikeC":2,"feelslikeF":35,"isDay":false,"sunrise":1417761652,"sunriseISO":"2014-12-05T07:40:52+01:00","sunset":1417792590,"sunsetISO":"2014-12-05T16:16:30+01:00","snowDepthCM":null,"snowDepthIN":null,"precipMM":null,"precipIN":null,"solradWM2":null,"light":0,"sky":100},"raw":"LOWS 051820Z 28003KT 9999 FEW004 OVC007 03/03 Q1017 TEMPO BKN006"},{"id":"LOWL","loc":{"long":14.183333333333,"lat":48.216666666667},"place":{"name":"linz (civ/mil)","state":"","country":"at","pretty_name":{"city":"Linz|Hцrsching","region":"4","country":"Austria"}},"profile":{"tz":"Europe/Vienna","elevM":313,"elevFT":1027},"obTimestamp":1417803600,"obDateTime":"2014-12-05T19:20:00+01:00","ob":{"timestamp":1417803600,"dateTimeISO":"2014-12-05T19:20:00+01:00","tempC":4,"tempF":39,"dewpointC":3,"dewpointF":37,"humidity":93,"pressureMB":1017,"pressureIN":30.03,"spressureMB":979,"spressureIN":28.91,"altimeterMB":null,"altimeterIN":null,"windKTS":2,"windKPH":4,"windMPH":2,"windSpeedKTS":2,"windSpeedKPH":4,"windSpeedMPH":2,"windDirDEG":130,"windDir":"SE","windGustKTS":null,"windGustKPH":null,"windGustMPH":null,"flightRule":"IFR","visibilityKM":6,"visibilityMI":3.73,"weather":"Mostly Cloudy","weatherShort":"Mostly Cloudy","weatherCoded":"::BK","weatherPrimary":"Mostly Cloudy","weatherPrimaryCoded":"::BK","cloudsCoded":"BK","icon":"mcloudyn.png","heatindexC":4,"heatindexF":39,"windchillC":4,"windchillF":39,"feelslikeC":4,"feelslikeF":39,"isDay":false,"sunrise":1417761476,"sunriseISO":"2014-12-05T07:37:56+01:00","sunset":1417792206,"sunsetISO":"2014-12-05T16:10:06+01:00","snowDepthCM":null,"snowDepthIN":null,"precipMM":null,"precipIN":null,"solradWM2":null,"light":0,"sky":81},"raw":"LOWL 051820Z 13002KT 6000 FEW005 BKN006 04/03 Q1017 TEMPO FEW006 BKN010"}]}