{"success":true,"error":null,"response":[{"id":"TNCA","loc":{"long":-70,"lat":12.5},"place":{"name":"queen beatrix","state":"","country":"aw","pretty_name":{"city":"Oranjestad|Simeon Antonio","region":"-","country":"Netherlands Antilles"}},"profile":{"tz":"America/Aruba","elevM":18,"elevFT":59},"obTimestamp":1417802400,"obDateTime":"2014-12-05T14:00:00-04:00","ob":{"timestamp":1417802400,"dateTimeISO":"2014-12-05T14:00:00-04:00","tempC":31,"tempF":88,"dewpointC":24,"dewpointF":75,"humidity":66,"pressureMB":1010,"pressureIN":29.83,"spressureMB":1008,"spressureIN":29.77,"altimeterMB":1010,"altimeterIN":29.83,"windKTS":12,"windKPH":22,"windMPH":14,"windSpeedKTS":12,"windSpeedKPH":22,"windSpeedMPH":14,"windDirDEG":70,"windDir":"ENE","windGustKTS":null,"windGustKPH":null,"windGustMPH":null,"flightRule":"MVFR","visibilityKM":null,"visibilityMI":null,"weather":"Mostly Cloudy","weatherShort":"Mostly Cloudy","weatherCoded":"::BK","weatherPrimary":"Mostly Cloudy","weatherPrimaryCoded":"::BK","cloudsCoded":"BK","icon":"mcloudy.png","heatindexC":37,"heatindexF":98,"windchillC":31,"windchillF":88,"feelslikeC":37,"feelslikeF":98,"isDay":true,"sunrise":1417776492,"sunriseISO":"2014-12-05T06:48:12-04:00","sunset":1417817620,"sunsetISO":"2014-12-05T18:13:40-04:00","snowDepthCM":null,"snowDepthIN":null,"precipMM":null,"precipIN":null,"solradWM2":null,"light":64,"sky":81},"raw":"TNCA 051800Z 07012KT 9999 BKN018 31/24 Q1009 A2982 NOSIG"}]}