{"success":true,"error":null,"response":[{"id":"UBBQ","loc":{"long":47.716666666667,"lat":40.816666666667},"place":{"name":"qabala","state":"","country":"az","pretty_name":{"city":null,"region":"-","country":"Azerbaijan"}},"profile":{"tz":"Asia/Baku","elevM":338,"elevFT":1109},"obTimestamp":1417802400,"obDateTime":"2014-12-05T22:00:00+04:00","ob":{"timestamp":1417802400,"dateTimeISO":"2014-12-05T22:00:00+04:00","tempC":3,"tempF":37,"dewpointC":0,"dewpointF":32,"humidity":81,"pressureMB":1022,"pressureIN":30.18,"spressureMB":980,"spressureIN":28.94,"altimeterMB":null,"altimeterIN":null,"windKTS":2,"windKPH":4,"windMPH":2,"windSpeedKTS":2,"windSpeedKPH":4,"windSpeedMPH":2,"windDirDEG":70,"windDir":"ENE","windGustKTS":null,"windGustKPH":null,"windGustMPH":null,"flightRule":"LIFR","visibilityKM":null,"visibilityMI":null,"weather":"Cloudy with Light Rain","weatherShort":"Light Rain","weatherCoded":":L:R,::OV","weatherPrimary":"Light Rain","weatherPrimaryCoded":":L:R","cloudsCoded":"OV","icon":"rainn.png","heatindexC":3,"heatindexF":37,"windchillC":2,"windchillF":36,"feelslikeC":2,"feelslikeF":36,"isDay":false,"sunrise":1417751884,"sunriseISO":"2014-12-05T07:58:04+04:00","sunset":1417785691,"sunsetISO":"2014-12-05T17:21:31+04:00","snowDepthCM":null,"snowDepthIN":null,"precipMM":null,"precipIN":null,"solradWM2":null,"light":0,"sky":100},"raw":"UBBQ 051800Z 07002KT 9999 -RA OVC100 03/00 Q1022 R16/////// NOSIG RMK MT OBSC"},{"id":"UBBL","loc":{"long":48.816666666667,"lat":38.75},"place":{"name":"lenkoran","state":"","country":"az","pretty_name":{"city":"Lenkoran|?ilavar","region":"LA","country":"Azerbaijan"}},"profile":{"tz":"Asia/Baku","elevM":10,"elevFT":33},"obTimestamp":1417802400,"obDateTime":"2014-12-05T22:00:00+04:00","ob":{"timestamp":1417802400,"dateTimeISO":"2014-12-05T22:00:00+04:00","tempC":3,"tempF":37,"dewpointC":2,"dewpointF":36,"humidity":93,"pressureMB":1024,"pressureIN":30.24,"spressureMB":1023,"spressureIN":30.21,"altimeterMB":null,"altimeterIN":null,"windKTS":2,"windKPH":4,"windMPH":2,"windSpeedKTS":2,"windSpeedKPH":4,"windSpeedMPH":2,"windDirDEG":0,"windDir":"N","windGustKTS":null,"windGustKPH":null,"windGustMPH":null,"flightRule":"LIFR","visibilityKM":null,"visibilityMI":null,"weather":"Mostly Cloudy","weatherShort":"Mostly Cloudy","weatherCoded":"::BK","weatherPrimary":"Mostly Cloudy","weatherPrimaryCoded":"::BK","cloudsCoded":"BK","icon":"mcloudyn.png","heatindexC":3,"heatindexF":37,"windchillC":2,"windchillF":36,"feelslikeC":2,"feelslikeF":36,"isDay":false,"sunrise":1417751263,"sunriseISO":"2014-12-05T07:47:43+04:00","sunset":1417785784,"sunsetISO":"2014-12-05T17:23:04+04:00","snowDepthCM":null,"snowDepthIN":null,"precipMM":null,"precipIN":null,"solradWM2":null,"light":0,"sky":81},"raw":"UBBL 051800Z VRB02KT 9999 BKN100 03/02 Q1024 R33/CLRD70 NOSIG RMK MT OP"},{"id":"UBBY","loc":{"long":46.666666666667,"lat":41.566666666667},"place":{"name":"zakataly","state":"","country":"az","pretty_name":{"city":"Zakataly|Zagatala|Bazar","region":"BAL","country":"Azerbaijan"}},"profile":{"tz":"Asia/Baku","elevM":390,"elevFT":1280},"obTimestamp":1417802400,"obDateTime":"2014-12-05T22:00:00+04:00","ob":{"timestamp":1417802400,"dateTimeISO":"2014-12-05T22:00:00+04:00","tempC":3,"tempF":37,"dewpointC":0,"dewpointF":32,"humidity":81,"pressureMB":1025,"pressureIN":30.27,"spressureMB":977,"spressureIN":28.85,"altimeterMB":null,"altimeterIN":null,"windKTS":3,"windKPH":6,"windMPH":3,"windSpeedKTS":3,"windSpeedKPH":6,"windSpeedMPH":3,"windDirDEG":100,"windDir":"E","windGustKTS":null,"windGustKPH":null,"windGustMPH":null,"flightRule":"LIFR","visibilityKM":null,"visibilityMI":null,"weather":"Mostly Cloudy","weatherShort":"Mostly Cloudy","weatherCoded":"::BK","weatherPrimary":"Mostly Cloudy","weatherPrimaryCoded":"::BK","cloudsCoded":"BK","icon":"mcloudyn.png","heatindexC":3,"heatindexF":37,"windchillC":2,"windchillF":35,"feelslikeC":2,"feelslikeF":35,"isDay":false,"sunrise":1417752272,"sunriseISO":"2014-12-05T08:04:32+04:00","sunset":1417785807,"sunsetISO":"2014-12-05T17:23:27+04:00","snowDepthCM":null,"snowDepthIN":null,"precipMM":null,"precipIN":null,"solradWM2":null,"light":0,"sky":81},"raw":"UBBY 051800Z 10003KT 9999 BKN100 03/M00 Q1025 R33/////// NOSIG RMK MT OP"},{"id":"UBBB","loc":{"long":50.066666666667,"lat":40.45},"place":{"name":"baku/bine arpt","state":"","country":"az","pretty_name":{"city":"Baku|Bin?","region":"-","country":"Azerbaijan"}},"profile":{"tz":"Asia/Baku","elevM":-6,"elevFT":-20},"obTimestamp":1417804200,"obDateTime":"2014-12-05T22:30:00+04:00","ob":{"timestamp":1417804200,"dateTimeISO":"2014-12-05T22:30:00+04:00","tempC":6,"tempF":43,"dewpointC":3,"dewpointF":37,"humidity":81,"pressureMB":1024,"pressureIN":30.24,"spressureMB":1025,"spressureIN":30.27,"altimeterMB":null,"altimeterIN":null,"windKTS":18,"windKPH":33,"windMPH":21,"windSpeedKTS":18,"windSpeedKPH":33,"windSpeedMPH":21,"windDirDEG":330,"windDir":"NNW","windGustKTS":null,"windGustKPH":null,"windGustMPH":null,"flightRule":"LIFR","visibilityKM":null,"visibilityMI":null,"weather":"Cloudy","weatherShort":"Cloudy","weatherCoded":"::OV","weatherPrimary":"Cloudy","weatherPrimaryCoded":"::OV","cloudsCoded":"OV","icon":"cloudyn.png","heatindexC":6,"heatindexF":43,"windchillC":6,"windchillF":43,"feelslikeC":6,"feelslikeF":43,"isDay":false,"sunrise":1417751255,"sunriseISO":"2014-12-05T07:47:35+04:00","sunset":1417785192,"sunsetISO":"2014-12-05T17:13:12+04:00","snowDepthCM":null,"snowDepthIN":null,"precipMM":null,"precipIN":null,"solradWM2":null,"light":0,"sky":100},"raw":"UBBB 051830Z 33018KT 9999 SCT015 OVC100 06/03 Q1024 88CLRD70 NOSIG"},{"id":"UBBN","loc":{"long":45.45,"lat":39.183333333333},"place":{"name":"nakhchivan","state":"","country":"az","pretty_name":{"city":"Nakchivan|Nakhchivan|Hac?var","region":"NX","country":"Azerbaijan"}},"profile":{"tz":"Asia/Baku","elevM":873,"elevFT":2864},"obTimestamp":1417804200,"obDateTime":"2014-12-05T22:30:00+04:00","ob":{"timestamp":1417804200,"dateTimeISO":"2014-12-05T22:30:00+04:00","tempC":4,"tempF":39,"dewpointC":1,"dewpointF":34,"humidity":81,"pressureMB":1024,"pressureIN":30.24,"spressureMB":921,"spressureIN":27.2,"altimeterMB":null,"altimeterIN":null,"windKTS":4,"windKPH":7,"windMPH":5,"windSpeedKTS":4,"windSpeedKPH":7,"windSpeedMPH":5,"windDirDEG":260,"windDir":"W","windGustKTS":null,"windGustKPH":null,"windGustMPH":null,"flightRule":"LIFR","visibilityKM":null,"visibilityMI":null,"weather":"Cloudy","weatherShort":"Cloudy","weatherCoded":"::OV","weatherPrimary":"Cloudy","weatherPrimaryCoded":"::OV","cloudsCoded":"OV","icon":"cloudyn.png","heatindexC":4,"heatindexF":39,"windchillC":2,"windchillF":35,"feelslikeC":2,"feelslikeF":35,"isDay":false,"sunrise":1417752144,"sunriseISO":"2014-12-05T08:02:24+04:00","sunset":1417786519,"sunsetISO":"2014-12-05T17:35:19+04:00","snowDepthCM":null,"snowDepthIN":null,"precipMM":null,"precipIN":null,"solradWM2":null,"light":0,"sky":100},"raw":"UBBN 051830Z 26004KT 9999 SCT040 OVC083 04/01 Q1024 R14R/CLRD60 NOSIG RMK MT OP QFE692"},{"id":"UBBG","loc":{"long":46.316666666667,"lat":40.733333333333},"place":{"name":"gyandzha","state":"","country":"az","pretty_name":{"city":"Gyandzha|Ganja|Qu?qara","region":"-","country":"Azerbaijan"}},"profile":{"tz":"Asia/Baku","elevM":330,"elevFT":1083},"obTimestamp":1417804200,"obDateTime":"2014-12-05T22:30:00+04:00","ob":{"timestamp":1417804200,"dateTimeISO":"2014-12-05T22:30:00+04:00","tempC":5,"tempF":41,"dewpointC":2,"dewpointF":36,"humidity":81,"pressureMB":1021,"pressureIN":30.15,"spressureMB":981,"spressureIN":28.97,"altimeterMB":null,"altimeterIN":null,"windKTS":4,"windKPH":7,"windMPH":5,"windSpeedKTS":4,"windSpeedKPH":7,"windSpeedMPH":5,"windDirDEG":130,"windDir":"SE","windGustKTS":null,"windGustKPH":null,"windGustMPH":null,"flightRule":"LIFR","visibilityKM":6,"visibilityMI":3.73,"weather":"Cloudy","weatherShort":"Cloudy","weatherCoded":"::OV","weatherPrimary":"Cloudy","weatherPrimaryCoded":"::OV","cloudsCoded":"OV","icon":"cloudyn.png","heatindexC":5,"heatindexF":41,"windchillC":5,"windchillF":41,"feelslikeC":5,"feelslikeF":41,"isDay":false,"sunrise":1417752206,"sunriseISO":"2014-12-05T08:03:26+04:00","sunset":1417786042,"sunsetISO":"2014-12-05T17:27:22+04:00","snowDepthCM":null,"snowDepthIN":null,"precipMM":null,"precipIN":null,"solradWM2":null,"light":0,"sky":100},"raw":"UBBG 051830Z 13004KT 6000 OVC066 05/02 Q1021 R30/CLRD70 NOSIG"}]}