{"success":true,"error":null,"response":[{"id":"LQMO","loc":{"long":17.833333333333,"lat":43.283333333333},"place":{"name":"mostar airport","state":"","country":"ba","pretty_name":{"city":"Mostar","region":"-","country":"Serbia"}},"profile":{"tz":"Europe/Sarajevo","elevM":48,"elevFT":157},"obTimestamp":1417802400,"obDateTime":"2014-12-05T19:00:00+01:00","ob":{"timestamp":1417802400,"dateTimeISO":"2014-12-05T19:00:00+01:00","tempC":12,"tempF":54,"dewpointC":11,"dewpointF":52,"humidity":94,"pressureMB":1013,"pressureIN":29.91,"spressureMB":1007,"spressureIN":29.74,"altimeterMB":null,"altimeterIN":null,"windKTS":2,"windKPH":4,"windMPH":2,"windSpeedKTS":2,"windSpeedKPH":4,"windSpeedMPH":2,"windDirDEG":0,"windDir":"N","windGustKTS":null,"windGustKPH":null,"windGustMPH":null,"flightRule":"LIFR","visibilityKM":null,"visibilityMI":null,"weather":"Mostly Cloudy","weatherShort":"Mostly Cloudy","weatherCoded":"::BK","weatherPrimary":"Mostly Cloudy","weatherPrimaryCoded":"::BK","cloudsCoded":"BK","icon":"mcloudyn.png","heatindexC":12,"heatindexF":54,"windchillC":12,"windchillF":54,"feelslikeC":12,"feelslikeF":54,"isDay":false,"sunrise":1417759529,"sunriseISO":"2014-12-05T07:05:29+01:00","sunset":1417792400,"sunsetISO":"2014-12-05T16:13:20+01:00","snowDepthCM":null,"snowDepthIN":null,"precipMM":null,"precipIN":null,"solradWM2":null,"light":0,"sky":81},"raw":"LQMO 051800Z VRB02KT 9999 SCT053 BKN075 12/11 Q1013"}]}