{"success":true,"error":null,"response":[{"id":"TBPB","loc":{"long":-59.483333333333,"lat":13.066666666667},"place":{"name":"grantley adams","state":"","country":"bb","pretty_name":{"city":"Grantley Adams|Paragon","region":"C","country":"Barbados"}},"profile":{"tz":"America/Barbados","elevM":52,"elevFT":171},"obTimestamp":1417802400,"obDateTime":"2014-12-05T14:00:00-04:00","ob":{"timestamp":1417802400,"dateTimeISO":"2014-12-05T14:00:00-04:00","tempC":29,"tempF":84,"dewpointC":24,"dewpointF":75,"humidity":74,"pressureMB":1011,"pressureIN":29.85,"spressureMB":1005,"spressureIN":29.68,"altimeterMB":null,"altimeterIN":null,"windKTS":9,"windKPH":17,"windMPH":10,"windSpeedKTS":9,"windSpeedKPH":17,"windSpeedMPH":10,"windDirDEG":120,"windDir":"ESE","windGustKTS":null,"windGustKPH":null,"windGustMPH":null,"flightRule":"LIFR","visibilityKM":null,"visibilityMI":null,"weather":"Partly Cloudy","weatherShort":"Partly Cloudy","weatherCoded":"::SC","weatherPrimary":"Partly Cloudy","weatherPrimaryCoded":"::SC","cloudsCoded":"SC","icon":"pcloudy.png","heatindexC":33,"heatindexF":92,"windchillC":29,"windchillF":84,"feelslikeC":33,"feelslikeF":92,"isDay":true,"sunrise":1417774026,"sunriseISO":"2014-12-05T06:07:06-04:00","sunset":1417815036,"sunsetISO":"2014-12-05T17:30:36-04:00","snowDepthCM":null,"snowDepthIN":null,"precipMM":null,"precipIN":null,"solradWM2":null,"light":57,"sky":44},"raw":"TBPB 051800Z 12009KT 9999 SCT018 SCT300 29/24 Q1011 NOSIG"}]}