{"success":true,"error":null,"response":[{"id":"VGEG","loc":{"long":91.816666666667,"lat":22.266666666667},"place":{"name":"chittagong (cv/m","state":"","country":"bd","pretty_name":{"city":"Chittagong|K?m?l Mah?janer H?t","region":"BAR","country":"Bangladesh"}},"profile":{"tz":"Asia/Dhaka","elevM":6,"elevFT":20},"obTimestamp":1417798200,"obDateTime":"2014-12-05T22:50:00+06:00","ob":{"timestamp":1417798200,"dateTimeISO":"2014-12-05T22:50:00+06:00","tempC":21,"tempF":70,"dewpointC":18,"dewpointF":64,"humidity":83,"pressureMB":1013,"pressureIN":29.91,"spressureMB":1012,"spressureIN":29.88,"altimeterMB":null,"altimeterIN":null,"windKTS":0,"windKPH":0,"windMPH":0,"windSpeedKTS":0,"windSpeedKPH":0,"windSpeedMPH":0,"windDirDEG":0,"windDir":"N","windGustKTS":null,"windGustKPH":null,"windGustMPH":null,"flightRule":"LIFR","visibilityKM":5,"visibilityMI":3.11,"weather":"Mostly Clear with Hazy","weatherShort":"Hazy","weatherCoded":"::H,::FW","weatherPrimary":"Hazy","weatherPrimaryCoded":"::H","cloudsCoded":"FW","icon":"hazyn.png","heatindexC":21,"heatindexF":70,"windchillC":21,"windchillF":70,"feelslikeC":21,"feelslikeF":70,"isDay":false,"sunrise":1417738686,"sunriseISO":"2014-12-05T06:18:06+06:00","sunset":1417777710,"sunsetISO":"2014-12-05T17:08:30+06:00","snowDepthCM":null,"snowDepthIN":null,"precipMM":null,"precipIN":null,"solradWM2":null,"sky":19,"light":0},"raw":"VGEG 051650Z 00000KT 5000 HZ NSC 21/18 Q1013 NOSIG"},{"id":"VGHS","loc":{"long":90.4,"lat":23.85},"place":{"name":"dhaka","state":"","country":"bd","pretty_name":{"city":"Dhaka|Solpur","region":"32","country":"Bangladesh"}},"profile":{"tz":"Asia/Dhaka","elevM":10,"elevFT":33},"obTimestamp":1417803600,"obDateTime":"2014-12-06T00:20:00+06:00","ob":{"timestamp":1417803600,"dateTimeISO":"2014-12-06T00:20:00+06:00","tempC":21,"tempF":70,"dewpointC":18,"dewpointF":64,"humidity":83,"pressureMB":1013,"pressureIN":29.91,"spressureMB":1012,"spressureIN":29.88,"altimeterMB":null,"altimeterIN":null,"windKTS":0,"windKPH":0,"windMPH":0,"windSpeedKTS":0,"windSpeedKPH":0,"windSpeedMPH":0,"windDirDEG":0,"windDir":"N","windGustKTS":null,"windGustKPH":null,"windGustMPH":null,"flightRule":"LIFR","visibilityKM":3,"visibilityMI":1.86,"weather":"Mostly Clear with Mist and Fog","weatherShort":"Mist and Fog","weatherCoded":"::BR,::FW","weatherPrimary":"Mist and Fog","weatherPrimaryCoded":"::BR","cloudsCoded":"FW","icon":"fogn.png","heatindexC":21,"heatindexF":70,"windchillC":21,"windchillF":70,"feelslikeC":21,"feelslikeF":70,"isDay":false,"sunrise":1417825651,"sunriseISO":"2014-12-06T06:27:31+06:00","sunset":1417864276,"sunsetISO":"2014-12-06T17:11:16+06:00","snowDepthCM":null,"snowDepthIN":null,"precipMM":null,"precipIN":null,"solradWM2":null,"sky":19,"light":0},"raw":"VGHS 051820Z 00000KT 3000 BR NSC 21/18 Q1013 TEMPO S/VIS 2500M"}]}