{"success":true,"error":null,"response":[{"id":"DFOO","loc":{"long":-4.3166666666667,"lat":11.166666666667},"place":{"name":"bobo-dioulasso","state":"","country":"bf","pretty_name":{"city":"Bodo-Dioulasso|Bobo Dioulasso|Bobo-Dioulasso","region":"-","country":"Burkina Faso"}},"profile":{"tz":"Africa/Ouagadougou","elevM":460,"elevFT":1509},"obTimestamp":1417802400,"obDateTime":"2014-12-05T18:00:00+00:00","ob":{"timestamp":1417802400,"dateTimeISO":"2014-12-05T18:00:00+00:00","tempC":32,"tempF":90,"dewpointC":9,"dewpointF":48,"humidity":24,"pressureMB":1012,"pressureIN":29.88,"spressureMB":961,"spressureIN":28.38,"altimeterMB":null,"altimeterIN":null,"windKTS":4,"windKPH":7,"windMPH":5,"windSpeedKTS":4,"windSpeedKPH":7,"windSpeedMPH":5,"windDirDEG":20,"windDir":"NNE","windGustKTS":null,"windGustKPH":null,"windGustMPH":null,"flightRule":"LIFR","visibilityKM":8,"visibilityMI":4.97,"weather":"Mostly Clear","weatherShort":"Mostly Clear","weatherCoded":"::FW","weatherPrimary":"Mostly Clear","weatherPrimaryCoded":"::FW","cloudsCoded":"FW","icon":"pcloudyn.png","heatindexC":32,"heatindexF":90,"windchillC":32,"windchillF":90,"feelslikeC":32,"feelslikeF":90,"isDay":false,"sunrise":1417760580,"sunriseISO":"2014-12-05T06:23:00+00:00","sunset":1417801987,"sunsetISO":"2014-12-05T17:53:07+00:00","snowDepthCM":null,"snowDepthIN":null,"precipMM":null,"precipIN":null,"solradWM2":null,"sky":19,"light":0},"raw":"DFOO 051800Z 02004KT 8000 NSC 32/09 Q1012"},{"id":"DFFD","loc":{"long":-1.5166666666667,"lat":12.333333333333},"place":{"name":"ouagadougou (mil","state":"","country":"bf","pretty_name":{"city":"Ouagadougou|Zone pilote de Sissen","region":"-","country":"Burkina Faso"}},"profile":{"tz":"Africa/Ouagadougou","elevM":306,"elevFT":1004},"obTimestamp":1417802400,"obDateTime":"2014-12-05T18:00:00+00:00","ob":{"timestamp":1417802400,"dateTimeISO":"2014-12-05T18:00:00+00:00","tempC":30,"tempF":86,"dewpointC":1,"dewpointF":34,"humidity":15,"pressureMB":1012,"pressureIN":29.88,"spressureMB":978,"spressureIN":28.88,"altimeterMB":null,"altimeterIN":null,"windKTS":5,"windKPH":9,"windMPH":6,"windSpeedKTS":5,"windSpeedKPH":9,"windSpeedMPH":6,"windDirDEG":70,"windDir":"ENE","windGustKTS":null,"windGustKPH":null,"windGustMPH":null,"flightRule":"LIFR","visibilityKM":6,"visibilityMI":3.73,"weather":"Mostly Clear","weatherShort":"Mostly Clear","weatherCoded":"::FW","weatherPrimary":"Mostly Clear","weatherPrimaryCoded":"::FW","cloudsCoded":"FW","icon":"pcloudyn.png","heatindexC":30,"heatindexF":86,"windchillC":30,"windchillF":86,"feelslikeC":30,"feelslikeF":86,"isDay":false,"sunrise":1417760028,"sunriseISO":"2014-12-05T06:13:48+00:00","sunset":1417801195,"sunsetISO":"2014-12-05T17:39:55+00:00","snowDepthCM":null,"snowDepthIN":null,"precipMM":null,"precipIN":null,"solradWM2":null,"sky":19,"light":0},"raw":"DFFD 051800Z 07005KT 6000 NSC 30/01 Q1012 NOSIG"}]}