{"success":true,"error":null,"response":[{"id":"LBPD","loc":{"long":24.8,"lat":42.133333333333},"place":{"name":"plovdiv","state":"","country":"bg","pretty_name":{"city":"Plovdiv|Ostra Mogila","region":"16","country":"Bulgaria"}},"profile":{"tz":"Europe/Sofia","elevM":185,"elevFT":607},"obTimestamp":1417802400,"obDateTime":"2014-12-05T20:00:00+02:00","ob":{"timestamp":1417802400,"dateTimeISO":"2014-12-05T20:00:00+02:00","tempC":7,"tempF":45,"dewpointC":7,"dewpointF":45,"humidity":100,"pressureMB":1023,"pressureIN":30.21,"spressureMB":1000,"spressureIN":29.53,"altimeterMB":null,"altimeterIN":null,"windKTS":6,"windKPH":11,"windMPH":7,"windSpeedKTS":6,"windSpeedKPH":11,"windSpeedMPH":7,"windDirDEG":110,"windDir":"ESE","windGustKTS":null,"windGustKPH":null,"windGustMPH":null,"flightRule":"IFR","visibilityKM":null,"visibilityMI":null,"weather":"Cloudy","weatherShort":"Cloudy","weatherCoded":"::OV","weatherPrimary":"Cloudy","weatherPrimaryCoded":"::OV","cloudsCoded":"OV","icon":"cloudyn.png","heatindexC":7,"heatindexF":45,"windchillC":7,"windchillF":45,"feelslikeC":7,"feelslikeF":45,"isDay":false,"sunrise":1417757634,"sunriseISO":"2014-12-05T07:33:54+02:00","sunset":1417790949,"sunsetISO":"2014-12-05T16:49:09+02:00","snowDepthCM":null,"snowDepthIN":null,"precipMM":null,"precipIN":null,"solradWM2":null,"light":0,"sky":100},"raw":"LBPD 051800Z 11003MPS 9999 BKN006 OVC023 07/07 Q1023 NOSIG"},{"id":"LBSF","loc":{"long":23.383333333333,"lat":42.65},"place":{"name":"sofia (observato","state":"","country":"bg","pretty_name":{"city":"Sofia|German|Busmantsi","region":"22","country":"Bulgaria"}},"profile":{"tz":"Europe/Sofia","elevM":595,"elevFT":1952},"obTimestamp":1417804200,"obDateTime":"2014-12-05T20:30:00+02:00","ob":{"timestamp":1417804200,"dateTimeISO":"2014-12-05T20:30:00+02:00","tempC":8,"tempF":46,"dewpointC":5,"dewpointF":41,"humidity":82,"pressureMB":1020,"pressureIN":30.12,"spressureMB":949,"spressureIN":28.02,"altimeterMB":null,"altimeterIN":null,"windKTS":16,"windKPH":29,"windMPH":18,"windSpeedKTS":16,"windSpeedKPH":29,"windSpeedMPH":18,"windDirDEG":100,"windDir":"E","windGustKTS":null,"windGustKPH":null,"windGustMPH":null,"flightRule":"MVFR","visibilityKM":null,"visibilityMI":null,"weather":"Cloudy","weatherShort":"Cloudy","weatherCoded":"::OV","weatherPrimary":"Cloudy","weatherPrimaryCoded":"::OV","cloudsCoded":"OV","icon":"cloudyn.png","heatindexC":8,"heatindexF":46,"windchillC":8,"windchillF":46,"feelslikeC":8,"feelslikeF":46,"isDay":false,"sunrise":1417758072,"sunriseISO":"2014-12-05T07:41:12+02:00","sunset":1417791191,"sunsetISO":"2014-12-05T16:53:11+02:00","snowDepthCM":null,"snowDepthIN":null,"precipMM":null,"precipIN":null,"solradWM2":null,"light":0,"sky":100},"raw":"LBSF 051830Z 10008MPS 9999 SCT015 OVC022 08/05 Q1020 NOSIG"},{"id":"LBWN","loc":{"long":27.816666666667,"lat":43.216666666667},"place":{"name":"varna","state":"","country":"bg","pretty_name":{"city":"Varna|Sv. Konstantin i Elena","region":"3","country":"Bulgaria"}},"profile":{"tz":"Europe/Sofia","elevM":43,"elevFT":141},"obTimestamp":1417804200,"obDateTime":"2014-12-05T20:30:00+02:00","ob":{"timestamp":1417804200,"dateTimeISO":"2014-12-05T20:30:00+02:00","tempC":7,"tempF":45,"dewpointC":6,"dewpointF":43,"humidity":93,"pressureMB":1024,"pressureIN":30.24,"spressureMB":1019,"spressureIN":30.09,"altimeterMB":null,"altimeterIN":null,"windKTS":6,"windKPH":11,"windMPH":7,"windSpeedKTS":6,"windSpeedKPH":11,"windSpeedMPH":7,"windDirDEG":50,"windDir":"NE","windGustKTS":null,"windGustKPH":null,"windGustMPH":null,"flightRule":"MVFR","visibilityKM":null,"visibilityMI":null,"weather":"Cloudy","weatherShort":"Cloudy","weatherCoded":"::OV","weatherPrimary":"Cloudy","weatherPrimaryCoded":"::OV","cloudsCoded":"OV","icon":"cloudyn.png","heatindexC":7,"heatindexF":45,"windchillC":7,"windchillF":45,"feelslikeC":7,"feelslikeF":45,"isDay":false,"sunrise":1417757116,"sunriseISO":"2014-12-05T07:25:16+02:00","sunset":1417790018,"sunsetISO":"2014-12-05T16:33:38+02:00","snowDepthCM":null,"snowDepthIN":null,"precipMM":null,"precipIN":null,"solradWM2":null,"light":0,"sky":100},"raw":"LBWN 051830Z 05003MPS 020V090 9999 FEW008 OVC017 07/06 Q1024 NOSIG"},{"id":"LBBG","loc":{"long":27.516666666667,"lat":42.566666666667},"place":{"name":"burgas","state":"","country":"bg","pretty_name":{"city":"Burgas|Kvartal Kraymorie","region":"2","country":"Bulgaria"}},"profile":{"tz":"Europe/Sofia","elevM":28,"elevFT":92},"obTimestamp":1417804200,"obDateTime":"2014-12-05T20:30:00+02:00","ob":{"timestamp":1417804200,"dateTimeISO":"2014-12-05T20:30:00+02:00","tempC":7,"tempF":45,"dewpointC":7,"dewpointF":45,"humidity":100,"pressureMB":1023,"pressureIN":30.21,"spressureMB":1020,"spressureIN":30.12,"altimeterMB":null,"altimeterIN":null,"windKTS":4,"windKPH":7,"windMPH":4,"windSpeedKTS":4,"windSpeedKPH":7,"windSpeedMPH":4,"windDirDEG":0,"windDir":"N","windGustKTS":null,"windGustKPH":null,"windGustMPH":null,"flightRule":"MVFR","visibilityKM":2.5,"visibilityMI":1.55,"weather":"Cloudy with Light Drizzle","weatherShort":"Light Drizzle","weatherCoded":":L:L,::BR,::OV","weatherPrimary":"Light Drizzle","weatherPrimaryCoded":":L:L","cloudsCoded":"OV","icon":"drizzlen.png","heatindexC":7,"heatindexF":45,"windchillC":7,"windchillF":45,"feelslikeC":7,"feelslikeF":45,"isDay":false,"sunrise":1417757063,"sunriseISO":"2014-12-05T07:24:23+02:00","sunset":1417790215,"sunsetISO":"2014-12-05T16:36:55+02:00","snowDepthCM":null,"snowDepthIN":null,"precipMM":null,"precipIN":null,"solradWM2":null,"light":0,"sky":100},"raw":"LBBG 051830Z VRB02MPS 2500 -DZ BR SCT006 OVC011 07/07 Q1023 R99/29//95 NOSIG"}]}