{"success":true,"error":null,"response":[{"id":"OBBI","loc":{"long":50.633333333333,"lat":26.266666666667},"place":{"name":"bahrain intl arp","state":"","country":"bh","pretty_name":{"city":"Bahrain|Qal?l?","region":"MUH","country":"Bahrain"}},"profile":{"tz":"Asia/Bahrain","elevM":2,"elevFT":7},"obTimestamp":1417802400,"obDateTime":"2014-12-05T21:00:00+03:00","ob":{"timestamp":1417802400,"dateTimeISO":"2014-12-05T21:00:00+03:00","tempC":21,"tempF":70,"dewpointC":16,"dewpointF":61,"humidity":73,"pressureMB":1019,"pressureIN":30.09,"spressureMB":1019,"spressureIN":30.09,"altimeterMB":null,"altimeterIN":null,"windKTS":8,"windKPH":15,"windMPH":9,"windSpeedKTS":8,"windSpeedKPH":15,"windSpeedMPH":9,"windDirDEG":310,"windDir":"NW","windGustKTS":null,"windGustKPH":null,"windGustMPH":null,"flightRule":"LIFR","visibilityKM":11.265408,"visibilityMI":7,"weather":"Mostly Clear","weatherShort":"Mostly Clear","weatherCoded":"::FW","weatherPrimary":"Mostly Clear","weatherPrimaryCoded":"::FW","cloudsCoded":"FW","icon":"pcloudyn.png","heatindexC":21,"heatindexF":70,"windchillC":21,"windchillF":70,"feelslikeC":21,"feelslikeF":70,"isDay":false,"sunrise":1417749056,"sunriseISO":"2014-12-05T06:10:56+03:00","sunset":1417787121,"sunsetISO":"2014-12-05T16:45:21+03:00","snowDepthCM":null,"snowDepthIN":null,"precipMM":null,"precipIN":null,"solradWM2":null,"sky":19,"light":0},"raw":"OBBI 051800Z 31008KT CAVOK 21/16 Q1019 NOSIG"}]}