{"success":true,"error":null,"response":[{"id":"TXKF","loc":{"long":-64.683333333333,"lat":32.366666666667},"place":{"name":"bermuda nas","state":"","country":"bm","pretty_name":{"city":"Bermuda NAS|L.F. Wade International Airport|Melrose","region":"-","country":"Bermuda"}},"profile":{"tz":"Atlantic/Bermuda","elevM":6,"elevFT":20},"obTimestamp":1417802100,"obDateTime":"2014-12-05T13:55:00-04:00","ob":{"timestamp":1417802100,"dateTimeISO":"2014-12-05T13:55:00-04:00","tempC":23,"tempF":73,"dewpointC":18,"dewpointF":64,"humidity":74,"pressureMB":1022,"pressureIN":30.18,"spressureMB":1021,"spressureIN":30.15,"altimeterMB":null,"altimeterIN":null,"windKTS":12,"windKPH":22,"windMPH":14,"windSpeedKTS":12,"windSpeedKPH":22,"windSpeedMPH":14,"windDirDEG":60,"windDir":"ENE","windGustKTS":null,"windGustKPH":null,"windGustMPH":null,"flightRule":"LIFR","visibilityKM":null,"visibilityMI":null,"weather":"Mostly Cloudy","weatherShort":"Mostly Cloudy","weatherCoded":"::BK","weatherPrimary":"Mostly Cloudy","weatherPrimaryCoded":"::BK","cloudsCoded":"BK","icon":"mcloudy.png","heatindexC":23,"heatindexF":73,"windchillC":23,"windchillF":73,"feelslikeC":23,"feelslikeF":73,"isDay":true,"sunrise":1417777560,"sunriseISO":"2014-12-05T07:06:00-04:00","sunset":1417813999,"sunsetISO":"2014-12-05T17:13:19-04:00","snowDepthCM":null,"snowDepthIN":null,"precipMM":null,"precipIN":null,"solradWM2":null,"light":58,"sky":81},"raw":"TXKF 051755Z 06012KT 9999 FEW025 BKN110 BKN300 23/18 Q1022 RMK WND EST"}]}