{"success":true,"error":null,"response":[{"id":"MYGF","loc":{"long":-78.7,"lat":26.55},"place":{"name":"freeport intl a","state":"","country":"bs","pretty_name":{"city":"Freeport|Pine Ridge","region":"-","country":"Bahamas"}},"profile":{"tz":"America/Nassau","elevM":2,"elevFT":7},"obTimestamp":1417802400,"obDateTime":"2014-12-05T13:00:00-05:00","ob":{"timestamp":1417802400,"dateTimeISO":"2014-12-05T13:00:00-05:00","tempC":27,"tempF":81,"dewpointC":23,"dewpointF":73,"humidity":79,"pressureMB":1021,"pressureIN":30.15,"spressureMB":1021,"spressureIN":30.15,"altimeterMB":1021,"altimeterIN":30.15,"windKTS":11,"windKPH":20,"windMPH":13,"windSpeedKTS":11,"windSpeedKPH":20,"windSpeedMPH":13,"windDirDEG":80,"windDir":"E","windGustKTS":null,"windGustKPH":null,"windGustMPH":null,"flightRule":"LIFR","visibilityKM":null,"visibilityMI":null,"weather":"Partly Cloudy with Showers Nearby","weatherShort":"Showers Nearby","weatherCoded":"VC::RW,::SC","weatherPrimary":"Showers Nearby","weatherPrimaryCoded":"VC::RW","cloudsCoded":"SC","icon":"pcloudyrw.png","heatindexC":30,"heatindexF":86,"windchillC":27,"windchillF":81,"feelslikeC":30,"feelslikeF":86,"isDay":true,"sunrise":1417780160,"sunriseISO":"2014-12-05T06:49:20-05:00","sunset":1417818131,"sunsetISO":"2014-12-05T17:22:11-05:00","snowDepthCM":null,"snowDepthIN":null,"precipMM":null,"precipIN":null,"solradWM2":null,"light":66,"sky":44},"raw":"MYGF 051800Z 08011KT 9999 VCSH SCT015TCU SCT018 27/23 A3014 RMK TUC/VCSH W -NE"},{"id":"MBPV","loc":{"long":-72.266666666667,"lat":21.766666666667},"place":{"name":"providenciales","state":"","country":"bs","pretty_name":{"city":"Providenciales|Five Cays Settlement","region":"-","country":"Turks and Caicos Islands"}},"profile":{"tz":"America/Grand_Turk","elevM":5,"elevFT":16},"obTimestamp":1417802400,"obDateTime":"2014-12-05T13:00:00-05:00","ob":{"timestamp":1417802400,"dateTimeISO":"2014-12-05T13:00:00-05:00","tempC":28,"tempF":82,"dewpointC":21,"dewpointF":70,"humidity":66,"pressureMB":1015,"pressureIN":29.97,"spressureMB":1014,"spressureIN":29.94,"altimeterMB":null,"altimeterIN":null,"windKTS":15,"windKPH":28,"windMPH":17,"windSpeedKTS":15,"windSpeedKPH":28,"windSpeedMPH":17,"windDirDEG":20,"windDir":"NNE","windGustKTS":null,"windGustKPH":null,"windGustMPH":null,"flightRule":"LIFR","visibilityKM":null,"visibilityMI":null,"weather":"Partly Cloudy","weatherShort":"Partly Cloudy","weatherCoded":"::SC","weatherPrimary":"Partly Cloudy","weatherPrimaryCoded":"::SC","cloudsCoded":"SC","icon":"pcloudy.png","heatindexC":30,"heatindexF":86,"windchillC":28,"windchillF":82,"feelslikeC":30,"feelslikeF":86,"isDay":true,"sunrise":1417778044,"sunriseISO":"2014-12-05T06:14:04-05:00","sunset":1417817158,"sunsetISO":"2014-12-05T17:05:58-05:00","snowDepthCM":null,"snowDepthIN":null,"precipMM":null,"precipIN":null,"solradWM2":null,"light":64,"sky":44},"raw":"MBPV 051800Z 02015KT 9999 SCT015 28/21 Q1015"},{"id":"MYNN","loc":{"long":-77.466666666667,"lat":25.033333333333},"place":{"name":"nassau intl","state":"","country":"bs","pretty_name":{"city":"Nassau|Macbride","region":"-","country":"Bahamas"}},"profile":{"tz":"America/Nassau","elevM":3,"elevFT":10},"obTimestamp":1417802400,"obDateTime":"2014-12-05T13:00:00-05:00","ob":{"timestamp":1417802400,"dateTimeISO":"2014-12-05T13:00:00-05:00","tempC":27,"tempF":81,"dewpointC":23,"dewpointF":73,"humidity":79,"pressureMB":1020,"pressureIN":30.12,"spressureMB":1020,"spressureIN":30.12,"altimeterMB":1020,"altimeterIN":30.12,"windKTS":10,"windKPH":19,"windMPH":12,"windSpeedKTS":10,"windSpeedKPH":19,"windSpeedMPH":12,"windDirDEG":90,"windDir":"E","windGustKTS":null,"windGustKPH":null,"windGustMPH":null,"flightRule":"LIFR","visibilityKM":null,"visibilityMI":null,"weather":"Partly Cloudy","weatherShort":"Partly Cloudy","weatherCoded":"::SC","weatherPrimary":"Partly Cloudy","weatherPrimaryCoded":"::SC","cloudsCoded":"SC","icon":"pcloudy.png","heatindexC":30,"heatindexF":86,"windchillC":27,"windchillF":81,"feelslikeC":30,"feelslikeF":86,"isDay":true,"sunrise":1417779678,"sunriseISO":"2014-12-05T06:41:18-05:00","sunset":1417818021,"sunsetISO":"2014-12-05T17:20:21-05:00","snowDepthCM":null,"snowDepthIN":null,"precipMM":null,"precipIN":null,"solradWM2":null,"light":66,"sky":44},"raw":"MYNN 051800Z 09010KT 9999 SCT018 27/23 A3013"}]}