{"success":true,"error":null,"response":[{"id":"FBMN","loc":{"long":23.416666666667,"lat":-19.966666666667},"place":{"name":"maun","state":"","country":"bw","pretty_name":{"city":"Maun","region":"NG","country":"Botswana"}},"profile":{"tz":"Africa/Gaborone","elevM":900,"elevFT":2953},"obTimestamp":1417802400,"obDateTime":"2014-12-05T20:00:00+02:00","ob":{"timestamp":1417802400,"dateTimeISO":"2014-12-05T20:00:00+02:00","tempC":29,"tempF":84,"dewpointC":14,"dewpointF":57,"humidity":40,"pressureMB":1017,"pressureIN":30.03,"spressureMB":919,"spressureIN":27.14,"altimeterMB":null,"altimeterIN":null,"windKTS":7,"windKPH":13,"windMPH":8,"windSpeedKTS":7,"windSpeedKPH":13,"windSpeedMPH":8,"windDirDEG":50,"windDir":"NE","windGustKTS":null,"windGustKPH":null,"windGustMPH":null,"flightRule":"LIFR","visibilityKM":null,"visibilityMI":null,"weather":"Partly Cloudy","weatherShort":"Partly Cloudy","weatherCoded":"::SC","weatherPrimary":"Partly Cloudy","weatherPrimaryCoded":"::SC","cloudsCoded":"SC","icon":"pcloudyn.png","heatindexC":29,"heatindexF":84,"windchillC":29,"windchillF":84,"feelslikeC":29,"feelslikeF":84,"isDay":false,"sunrise":1417750714,"sunriseISO":"2014-12-05T05:38:34+02:00","sunset":1417798533,"sunsetISO":"2014-12-05T18:55:33+02:00","snowDepthCM":null,"snowDepthIN":null,"precipMM":null,"precipIN":null,"solradWM2":null,"light":0,"sky":44},"raw":"FBMN 051800Z 05007KT 9999 FEW030 FEW035CB SCT070 29/14 Q1017"},{"id":"FBFT","loc":{"long":27.483333333333,"lat":-21.166666666667},"place":{"name":"francistown","state":"","country":"bw","pretty_name":{"city":"Francistown|Manduyan","region":"NE","country":"Botswana"}},"profile":{"tz":"Africa/Gaborone","elevM":1000,"elevFT":3281},"obTimestamp":1417802400,"obDateTime":"2014-12-05T20:00:00+02:00","ob":{"timestamp":1417802400,"dateTimeISO":"2014-12-05T20:00:00+02:00","tempC":23,"tempF":73,"dewpointC":7,"dewpointF":45,"humidity":36,"pressureMB":1015,"pressureIN":29.97,"spressureMB":906,"spressureIN":26.75,"altimeterMB":null,"altimeterIN":null,"windKTS":2,"windKPH":4,"windMPH":2,"windSpeedKTS":2,"windSpeedKPH":4,"windSpeedMPH":2,"windDirDEG":0,"windDir":"N","windGustKTS":null,"windGustKPH":null,"windGustMPH":null,"flightRule":"LIFR","visibilityKM":11.265408,"visibilityMI":7,"weather":"Mostly Clear","weatherShort":"Mostly Clear","weatherCoded":"::FW","weatherPrimary":"Mostly Clear","weatherPrimaryCoded":"::FW","cloudsCoded":"FW","icon":"pcloudyn.png","heatindexC":23,"heatindexF":73,"windchillC":23,"windchillF":73,"feelslikeC":23,"feelslikeF":73,"isDay":false,"sunrise":1417749598,"sunriseISO":"2014-12-05T05:19:58+02:00","sunset":1417797696,"sunsetISO":"2014-12-05T18:41:36+02:00","snowDepthCM":null,"snowDepthIN":null,"precipMM":null,"precipIN":null,"solradWM2":null,"sky":19,"light":0},"raw":"FBFT 051800Z VRB02KT CAVOK 23/07 Q1015"},{"id":"FBKE","loc":{"long":25.166666666667,"lat":-17.816666666667},"place":{"name":"kasane","state":"","country":"bw","pretty_name":{"city":"Kasane","region":"NW","country":"Botswana"}},"profile":{"tz":"Africa/Gaborone","elevM":1000,"elevFT":3281},"obTimestamp":1417802400,"obDateTime":"2014-12-05T20:00:00+02:00","ob":{"timestamp":1417802400,"dateTimeISO":"2014-12-05T20:00:00+02:00","tempC":25,"tempF":77,"dewpointC":15,"dewpointF":59,"humidity":54,"pressureMB":1017,"pressureIN":30.03,"spressureMB":908,"spressureIN":26.81,"altimeterMB":null,"altimeterIN":null,"windKTS":6,"windKPH":11,"windMPH":7,"windSpeedKTS":6,"windSpeedKPH":11,"windSpeedMPH":7,"windDirDEG":240,"windDir":"WSW","windGustKTS":null,"windGustKPH":null,"windGustMPH":null,"flightRule":"LIFR","visibilityKM":null,"visibilityMI":null,"weather":"Mostly Cloudy","weatherShort":"Mostly Cloudy","weatherCoded":"::BK","weatherPrimary":"Mostly Cloudy","weatherPrimaryCoded":"::BK","cloudsCoded":"BK","icon":"mcloudyn.png","heatindexC":25,"heatindexF":77,"windchillC":25,"windchillF":77,"feelslikeC":25,"feelslikeF":77,"isDay":false,"sunrise":1417750538,"sunriseISO":"2014-12-05T05:35:38+02:00","sunset":1417797868,"sunsetISO":"2014-12-05T18:44:28+02:00","snowDepthCM":null,"snowDepthIN":null,"precipMM":null,"precipIN":null,"solradWM2":null,"light":0,"sky":81},"raw":"FBKE 051800Z 24006KT 9999 FEW030 FEW035CB BKN065 25/15 Q1017"},{"id":"FBSK","loc":{"long":25.916666666667,"lat":-24.55},"place":{"name":"sir seretse kham","state":"","country":"bw","pretty_name":{"city":"Gaborone|Kgaphamadi","region":"SE","country":"Botswana"}},"profile":{"tz":"Africa/Gaborone","elevM":1005,"elevFT":3297},"obTimestamp":1417802400,"obDateTime":"2014-12-05T20:00:00+02:00","ob":{"timestamp":1417802400,"dateTimeISO":"2014-12-05T20:00:00+02:00","tempC":32,"tempF":90,"dewpointC":3,"dewpointF":37,"humidity":16,"pressureMB":1015,"pressureIN":29.97,"spressureMB":908,"spressureIN":26.81,"altimeterMB":null,"altimeterIN":null,"windKTS":6,"windKPH":11,"windMPH":7,"windSpeedKTS":6,"windSpeedKPH":11,"windSpeedMPH":7,"windDirDEG":170,"windDir":"S","windGustKTS":null,"windGustKPH":null,"windGustMPH":null,"flightRule":"LIFR","visibilityKM":11.265408,"visibilityMI":7,"weather":"Mostly Clear","weatherShort":"Mostly Clear","weatherCoded":"::FW","weatherPrimary":"Mostly Clear","weatherPrimaryCoded":"::FW","cloudsCoded":"FW","icon":"pcloudyn.png","heatindexC":32,"heatindexF":90,"windchillC":32,"windchillF":90,"feelslikeC":32,"feelslikeF":90,"isDay":false,"sunrise":1417749566,"sunriseISO":"2014-12-05T05:19:26+02:00","sunset":1417798481,"sunsetISO":"2014-12-05T18:54:41+02:00","snowDepthCM":null,"snowDepthIN":null,"precipMM":null,"precipIN":null,"solradWM2":null,"sky":19,"light":0},"raw":"FBSK 051800Z 17006KT CAVOK 32/03 Q1015 NOSIG"},{"id":"FBSP","loc":{"long":27.816666666667,"lat":-22.05},"place":{"name":"selebi phikwe","state":"","country":"bw","pretty_name":{"city":"Selebi Phikwe|Selibe-Phikwe|Selebi-Phikwe","region":"CE","country":"Botswana"}},"profile":{"tz":"Africa/Gaborone","elevM":892,"elevFT":2927},"obTimestamp":1417802400,"obDateTime":"2014-12-05T20:00:00+02:00","ob":{"timestamp":1417802400,"dateTimeISO":"2014-12-05T20:00:00+02:00","tempC":33,"tempF":91,"dewpointC":13,"dewpointF":55,"humidity":30,"pressureMB":1015,"pressureIN":29.97,"spressureMB":920,"spressureIN":27.17,"altimeterMB":null,"altimeterIN":null,"windKTS":9,"windKPH":17,"windMPH":10,"windSpeedKTS":9,"windSpeedKPH":17,"windSpeedMPH":10,"windDirDEG":90,"windDir":"E","windGustKTS":null,"windGustKPH":null,"windGustMPH":null,"flightRule":"LIFR","visibilityKM":11.265408,"visibilityMI":7,"weather":"Mostly Clear","weatherShort":"Mostly Clear","weatherCoded":"::FW","weatherPrimary":"Mostly Clear","weatherPrimaryCoded":"::FW","cloudsCoded":"FW","icon":"pcloudyn.png","heatindexC":33,"heatindexF":91,"windchillC":33,"windchillF":91,"feelslikeC":33,"feelslikeF":91,"isDay":false,"sunrise":1417749414,"sunriseISO":"2014-12-05T05:16:54+02:00","sunset":1417797720,"sunsetISO":"2014-12-05T18:42:00+02:00","snowDepthCM":null,"snowDepthIN":null,"precipMM":null,"precipIN":null,"solradWM2":null,"sky":19,"light":0},"raw":"FBSP 051800Z 09009KT CAVOK 33/13 Q1015"}]}