{"success":true,"error":null,"response":[{"id":"UMMG","loc":{"long":24.05,"lat":53.6},"place":{"name":"grodno","state":"","country":"by","pretty_name":{"city":"Grodno|Obukhovo","region":"-","country":"Belarus"}},"profile":{"tz":"Europe/Minsk","elevM":135,"elevFT":443},"obTimestamp":1417786200,"obDateTime":"2014-12-05T16:30:00+03:00","ob":{"timestamp":1417786200,"dateTimeISO":"2014-12-05T16:30:00+03:00","tempC":-3,"tempF":27,"dewpointC":-5,"dewpointF":23,"humidity":86,"pressureMB":1026,"pressureIN":30.3,"spressureMB":1009,"spressureIN":29.8,"altimeterMB":null,"altimeterIN":null,"windKTS":16,"windKPH":29,"windMPH":18,"windSpeedKTS":16,"windSpeedKPH":29,"windSpeedMPH":18,"windDirDEG":150,"windDir":"SSE","windGustKTS":8,"windGustKPH":15,"windGustMPH":9,"flightRule":"IFR","visibilityKM":null,"visibilityMI":null,"weather":"Cloudy","weatherShort":"Cloudy","weatherCoded":"::OV","weatherPrimary":"Cloudy","weatherPrimaryCoded":"::OV","cloudsCoded":"OV","icon":"cloudy.png","heatindexC":-3,"heatindexF":27,"windchillC":-10,"windchillF":14,"feelslikeC":-10,"feelslikeF":14,"isDay":true,"sunrise":1417760595,"sunriseISO":"2014-12-05T09:23:15+03:00","sunset":1417788345,"sunsetISO":"2014-12-05T17:05:45+03:00","snowDepthCM":null,"snowDepthIN":null,"precipMM":null,"precipIN":null,"solradWM2":null,"light":11,"windGustSpeedKTS":8,"windGustSpeedKPH":15,"windGustSpeedMPH":9,"sky":100},"raw":"UMMG 051330Z 15005G08MPS 9999 OVC005 M03/M05 Q1026 R17/491531 NOSIG RMK QBB160"},{"id":"UMBB","loc":{"long":23.9,"lat":52.116666666667},"place":{"name":"brest","state":"","country":"by","pretty_name":{"city":"Brest|Berлzovka","region":"-","country":"Belarus"}},"profile":{"tz":"Europe/Minsk","elevM":143,"elevFT":469},"obTimestamp":1417786200,"obDateTime":"2014-12-05T16:30:00+03:00","ob":{"timestamp":1417786200,"dateTimeISO":"2014-12-05T16:30:00+03:00","tempC":-1,"tempF":30,"dewpointC":-2,"dewpointF":28,"humidity":93,"pressureMB":1025,"pressureIN":30.27,"spressureMB":1007,"spressureIN":29.74,"altimeterMB":null,"altimeterIN":null,"windKTS":14,"windKPH":25,"windMPH":16,"windSpeedKTS":14,"windSpeedKPH":25,"windSpeedMPH":16,"windDirDEG":130,"windDir":"SE","windGustKTS":7,"windGustKPH":13,"windGustMPH":8,"flightRule":"LIFR","visibilityKM":2.8,"visibilityMI":1.74,"weather":"Cloudy with Mist and Fog","weatherShort":"Mist and Fog","weatherCoded":"::BR,::OV","weatherPrimary":"Mist and Fog","weatherPrimaryCoded":"::BR","cloudsCoded":"OV","icon":"fog.png","heatindexC":-1,"heatindexF":30,"windchillC":-7,"windchillF":19,"feelslikeC":-7,"feelslikeF":19,"isDay":true,"sunrise":1417760174,"sunriseISO":"2014-12-05T09:16:14+03:00","sunset":1417788838,"sunsetISO":"2014-12-05T17:13:58+03:00","snowDepthCM":null,"snowDepthIN":null,"precipMM":null,"precipIN":null,"solradWM2":null,"light":13,"windGustSpeedKTS":7,"windGustSpeedKPH":13,"windGustSpeedMPH":8,"sky":100},"raw":"UMBB 051330Z 13004G07MPS 2800 BR OVC003 M01/M02 Q1025 R11/CLRD// NOSIG RMK QBB110"},{"id":"UMII","loc":{"long":30.35,"lat":55.133333333333},"place":{"name":"vitebsk","state":"","country":"by","pretty_name":{"city":"Vitebsk|Kashino","region":"-","country":"Belarus"}},"profile":{"tz":"Europe/Minsk","elevM":208,"elevFT":682},"obTimestamp":1417798800,"obDateTime":"2014-12-05T20:00:00+03:00","ob":{"timestamp":1417798800,"dateTimeISO":"2014-12-05T20:00:00+03:00","tempC":-5,"tempF":23,"dewpointC":-5,"dewpointF":23,"humidity":100,"pressureMB":1029,"pressureIN":30.39,"spressureMB":1002,"spressureIN":29.59,"altimeterMB":null,"altimeterIN":null,"windKTS":10,"windKPH":18,"windMPH":11,"windSpeedKTS":10,"windSpeedKPH":18,"windSpeedMPH":11,"windDirDEG":160,"windDir":"SSE","windGustKTS":null,"windGustKPH":null,"windGustMPH":null,"flightRule":"LIFR","visibilityKM":2.1,"visibilityMI":1.3,"weather":"Cloudy with Mist and Fog","weatherShort":"Mist and Fog","weatherCoded":"::BR,::OV","weatherPrimary":"Mist and Fog","weatherPrimaryCoded":"::BR","cloudsCoded":"OV","icon":"fogn.png","heatindexC":-5,"heatindexF":23,"windchillC":-11,"windchillF":12,"feelslikeC":-11,"feelslikeF":12,"isDay":false,"sunrise":1417759600,"sunriseISO":"2014-12-05T09:06:40+03:00","sunset":1417786316,"sunsetISO":"2014-12-05T16:31:56+03:00","snowDepthCM":null,"snowDepthIN":null,"precipMM":null,"precipIN":null,"solradWM2":null,"light":0,"sky":100},"raw":"UMII 051700Z 16005MPS 2100 BR OVC002 M05/M05 Q1029 R23/490333 NOSIG RMK QBB080"},{"id":"UMMM","loc":{"long":27.516666666667,"lat":53.866666666667},"place":{"name":"minsk-in-min","state":"","country":"by","pretty_name":{"city":"Minsk|Slepnya","region":"-","country":"Belarus"}},"profile":{"tz":"Europe/Minsk","elevM":234,"elevFT":768},"obTimestamp":1417800600,"obDateTime":"2014-12-05T20:30:00+03:00","ob":{"timestamp":1417800600,"dateTimeISO":"2014-12-05T20:30:00+03:00","tempC":-4,"tempF":25,"dewpointC":-4,"dewpointF":25,"humidity":100,"pressureMB":1027,"pressureIN":30.33,"spressureMB":997,"spressureIN":29.44,"altimeterMB":null,"altimeterIN":null,"windKTS":16,"windKPH":29,"windMPH":18,"windSpeedKTS":16,"windSpeedKPH":29,"windSpeedMPH":18,"windDirDEG":150,"windDir":"SSE","windGustKTS":8,"windGustKPH":15,"windGustMPH":9,"flightRule":"IFR","visibilityKM":null,"visibilityMI":null,"weather":"Cloudy","weatherShort":"Cloudy","weatherCoded":"::OV","weatherPrimary":"Cloudy","weatherPrimaryCoded":"::OV","cloudsCoded":"OV","icon":"cloudyn.png","heatindexC":-4,"heatindexF":25,"windchillC":-12,"windchillF":11,"feelslikeC":-12,"feelslikeF":11,"isDay":false,"sunrise":1417759849,"sunriseISO":"2014-12-05T09:10:49+03:00","sunset":1417787427,"sunsetISO":"2014-12-05T16:50:27+03:00","snowDepthCM":null,"snowDepthIN":null,"precipMM":null,"precipIN":null,"solradWM2":null,"light":0,"windGustSpeedKTS":8,"windGustSpeedKPH":15,"windGustSpeedMPH":9,"sky":100},"raw":"UMMM 051730Z 15005G08MPS 9999 OVC006 M04/M04 Q1027 R12/650340 NOSIG RMK QFE750 QBB180"},{"id":"UMGG","loc":{"long":31.016666666667,"lat":52.533333333333},"place":{"name":"gomel","state":"","country":"by","pretty_name":{"city":"Gomel|Homiel|Lyubenskiy","region":"-","country":"Belarus"}},"profile":{"tz":"Europe/Minsk","elevM":144,"elevFT":472},"obTimestamp":1417802400,"obDateTime":"2014-12-05T21:00:00+03:00","ob":{"timestamp":1417802400,"dateTimeISO":"2014-12-05T21:00:00+03:00","tempC":-5,"tempF":23,"dewpointC":-5,"dewpointF":23,"humidity":100,"pressureMB":1032,"pressureIN":30.48,"spressureMB":1013,"spressureIN":29.91,"altimeterMB":null,"altimeterIN":null,"windKTS":8,"windKPH":14,"windMPH":9,"windSpeedKTS":8,"windSpeedKPH":14,"windSpeedMPH":9,"windDirDEG":120,"windDir":"ESE","windGustKTS":null,"windGustKPH":null,"windGustMPH":null,"flightRule":"LIFR","visibilityKM":0.45,"visibilityMI":0.28,"weather":"Mostly Cloudy with Freezing Fog","weatherShort":"Freezing Fog","weatherCoded":"::ZF,::BK","weatherPrimary":"Freezing Fog","weatherPrimaryCoded":"::ZF","cloudsCoded":"BK","icon":"fogn.png","heatindexC":-5,"heatindexF":23,"windchillC":-11,"windchillF":13,"feelslikeC":-11,"feelslikeF":13,"isDay":false,"sunrise":1417758589,"sunriseISO":"2014-12-05T08:49:49+03:00","sunset":1417787007,"sunsetISO":"2014-12-05T16:43:27+03:00","snowDepthCM":null,"snowDepthIN":null,"precipMM":null,"precipIN":null,"solradWM2":null,"light":0,"sky":81},"raw":"UMGG 051800Z 12004MPS 0450 R10/1200 FZFG VV001 M05/M05 Q1032 R10/590540 NOSIG RMK QBB050"},{"id":"UMMS","loc":{"long":28.033333333333,"lat":53.883333333333},"place":{"name":"minsk","state":"","country":"by","pretty_name":{"city":"Minsk|Chirvonyy Luzhok","region":"-","country":"Belarus"}},"profile":{"tz":"Europe/Minsk","elevM":205,"elevFT":673},"obTimestamp":1417804200,"obDateTime":"2014-12-05T21:30:00+03:00","ob":{"timestamp":1417804200,"dateTimeISO":"2014-12-05T21:30:00+03:00","tempC":-5,"tempF":23,"dewpointC":-5,"dewpointF":23,"humidity":100,"pressureMB":1028,"pressureIN":30.36,"spressureMB":1002,"spressureIN":29.59,"altimeterMB":null,"altimeterIN":null,"windKTS":8,"windKPH":14,"windMPH":9,"windSpeedKTS":8,"windSpeedKPH":14,"windSpeedMPH":9,"windDirDEG":160,"windDir":"SSE","windGustKTS":null,"windGustKPH":null,"windGustMPH":null,"flightRule":"LIFR","visibilityKM":8,"visibilityMI":4.97,"weather":"Cloudy","weatherShort":"Cloudy","weatherCoded":"::OV","weatherPrimary":"Cloudy","weatherPrimaryCoded":"::OV","cloudsCoded":"OV","icon":"cloudyn.png","heatindexC":-5,"heatindexF":23,"windchillC":-11,"windchillF":13,"feelslikeC":-11,"feelslikeF":13,"isDay":false,"sunrise":1417759730,"sunriseISO":"2014-12-05T09:08:50+03:00","sunset":1417787298,"sunsetISO":"2014-12-05T16:48:18+03:00","snowDepthCM":null,"snowDepthIN":null,"precipMM":null,"precipIN":null,"solradWM2":null,"light":0,"sky":100},"raw":"UMMS 051830Z 16004MPS 8000 OVC004 M05/M05 Q1028 R13/420555 NOSIG RMK QBB130"}]}