{"success":true,"error":null,"response":[{"id":"MZBZ","loc":{"long":-88.3,"lat":17.516666666667},"place":{"name":"belize intl","state":"","country":"bz","pretty_name":{"city":"Belize City|Ladyville","region":"BZ","country":"Belize"}},"profile":{"tz":"America/Belize","elevM":5,"elevFT":16},"obTimestamp":1417802400,"obDateTime":"2014-12-05T12:00:00-06:00","ob":{"timestamp":1417802400,"dateTimeISO":"2014-12-05T12:00:00-06:00","tempC":27,"tempF":81,"dewpointC":24,"dewpointF":75,"humidity":84,"pressureMB":1017,"pressureIN":30.03,"spressureMB":1016,"spressureIN":30,"altimeterMB":null,"altimeterIN":null,"windKTS":5,"windKPH":9,"windMPH":6,"windSpeedKTS":5,"windSpeedKPH":9,"windSpeedMPH":6,"windDirDEG":40,"windDir":"NE","windGustKTS":null,"windGustKPH":null,"windGustMPH":null,"flightRule":"LIFR","visibilityKM":null,"visibilityMI":null,"weather":"Partly Cloudy","weatherShort":"Partly Cloudy","weatherCoded":"::SC","weatherPrimary":"Partly Cloudy","weatherPrimaryCoded":"::SC","cloudsCoded":"SC","icon":"pcloudy.png","heatindexC":31,"heatindexF":87,"windchillC":27,"windchillF":81,"feelslikeC":31,"feelslikeF":87,"isDay":true,"sunrise":1417781421,"sunriseISO":"2014-12-05T06:10:21-06:00","sunset":1417821482,"sunsetISO":"2014-12-05T17:18:02-06:00","snowDepthCM":null,"snowDepthIN":null,"precipMM":null,"precipIN":null,"solradWM2":null,"light":69,"sky":44},"raw":"MZBZ 051800Z 04005KT 9999 SCT015 27/24 A3003 Q1017 RESHRA NOSIG"}]}