{"success":true,"error":null,"response":[{"id":"FEFF","loc":{"long":18.516666666667,"lat":4.4},"place":{"name":"bangui/m'poko (m","state":"","country":"cf","pretty_name":{"city":"Bangui|Kolongo","region":"MP","country":"Central African Republic"}},"profile":{"tz":"Africa/Bangui","elevM":366,"elevFT":1201},"obTimestamp":1417802400,"obDateTime":"2014-12-05T19:00:00+01:00","ob":{"timestamp":1417802400,"dateTimeISO":"2014-12-05T19:00:00+01:00","tempC":27,"tempF":81,"dewpointC":24,"dewpointF":75,"humidity":84,"pressureMB":1009,"pressureIN":29.8,"spressureMB":968,"spressureIN":28.59,"altimeterMB":null,"altimeterIN":null,"windKTS":2,"windKPH":4,"windMPH":2,"windSpeedKTS":2,"windSpeedKPH":4,"windSpeedMPH":2,"windDirDEG":0,"windDir":"N","windGustKTS":null,"windGustKPH":null,"windGustMPH":null,"flightRule":"LIFR","visibilityKM":7,"visibilityMI":4.35,"weather":"Mostly Clear","weatherShort":"Mostly Clear","weatherCoded":"::FW","weatherPrimary":"Mostly Clear","weatherPrimaryCoded":"::FW","cloudsCoded":"FW","icon":"pcloudyn.png","heatindexC":31,"heatindexF":87,"windchillC":27,"windchillF":81,"feelslikeC":31,"feelslikeF":87,"isDay":false,"sunrise":1417754415,"sunriseISO":"2014-12-05T05:40:15+01:00","sunset":1417797186,"sunsetISO":"2014-12-05T17:33:06+01:00","snowDepthCM":null,"snowDepthIN":null,"precipMM":null,"precipIN":null,"solradWM2":null,"sky":19,"light":0},"raw":"FEFF 051800Z VRB02KT 7000 NSC 27/24 Q1009 NOSIG"}]}