{"success":true,"error":null,"response":[{"id":"FKKN","loc":{"long":13.566666666667,"lat":7.3333333333333},"place":{"name":"ngaoundere","state":"","country":"cm","pretty_name":{"city":"N'gaoundere|Ngaoundere|Mbi Djoro","region":"AD","country":"Cameroon"}},"profile":{"tz":"Africa/Douala","elevM":1104,"elevFT":3622},"obTimestamp":1417798800,"obDateTime":"2014-12-05T18:00:00+01:00","ob":{"timestamp":1417798800,"dateTimeISO":"2014-12-05T18:00:00+01:00","tempC":25,"tempF":77,"dewpointC":13,"dewpointF":55,"humidity":47,"pressureMB":1016,"pressureIN":30,"spressureMB":897,"spressureIN":26.49,"altimeterMB":null,"altimeterIN":null,"windKTS":2,"windKPH":4,"windMPH":2,"windSpeedKTS":2,"windSpeedKPH":4,"windSpeedMPH":2,"windDirDEG":360,"windDir":"N","windGustKTS":null,"windGustKPH":null,"windGustMPH":null,"flightRule":"LIFR","visibilityKM":11.265408,"visibilityMI":7,"weather":"Mostly Clear","weatherShort":"Mostly Clear","weatherCoded":"::FW","weatherPrimary":"Mostly Clear","weatherPrimaryCoded":"::FW","cloudsCoded":"FW","icon":"pcloudyn.png","heatindexC":25,"heatindexF":77,"windchillC":25,"windchillF":77,"feelslikeC":25,"feelslikeF":77,"isDay":false,"sunrise":1417755897,"sunriseISO":"2014-12-05T06:04:57+01:00","sunset":1417798082,"sunsetISO":"2014-12-05T17:48:02+01:00","snowDepthCM":null,"snowDepthIN":null,"precipMM":null,"precipIN":null,"solradWM2":null,"sky":19,"light":0},"raw":"FKKN 051700Z 36002KT CAVOK 25/13 Q1016"},{"id":"FKYS","loc":{"long":11.516666666667,"lat":3.8166666666667},"place":{"name":"yaounde","state":"","country":"cm","pretty_name":{"city":"Yaounde|Mvolyй","region":"CEN","country":"Cameroon"}},"profile":{"tz":"Africa/Douala","elevM":760,"elevFT":2493},"obTimestamp":1417802400,"obDateTime":"2014-12-05T19:00:00+01:00","ob":{"timestamp":1417802400,"dateTimeISO":"2014-12-05T19:00:00+01:00","tempC":24,"tempF":75,"dewpointC":22,"dewpointF":72,"humidity":89,"pressureMB":1014,"pressureIN":29.94,"spressureMB":930,"spressureIN":27.46,"altimeterMB":null,"altimeterIN":null,"windKTS":2,"windKPH":4,"windMPH":2,"windSpeedKTS":2,"windSpeedKPH":4,"windSpeedMPH":2,"windDirDEG":0,"windDir":"N","windGustKTS":null,"windGustKPH":null,"windGustMPH":null,"flightRule":"LIFR","visibilityKM":6,"visibilityMI":3.73,"weather":"Mostly Clear","weatherShort":"Mostly Clear","weatherCoded":"::FW","weatherPrimary":"Mostly Clear","weatherPrimaryCoded":"::FW","cloudsCoded":"FW","icon":"pcloudyn.png","heatindexC":24,"heatindexF":75,"windchillC":24,"windchillF":75,"feelslikeC":24,"feelslikeF":75,"isDay":false,"sunrise":1417756038,"sunriseISO":"2014-12-05T06:07:18+01:00","sunset":1417798924,"sunsetISO":"2014-12-05T18:02:04+01:00","snowDepthCM":null,"snowDepthIN":null,"precipMM":null,"precipIN":null,"solradWM2":null,"light":0,"sky":19},"raw":"FKYS 051800Z VRB02KT 6000 FEW013 FEW020CB 24/22 Q1014 NOSIG"},{"id":"FKKD","loc":{"long":9.7166666666667,"lat":4},"place":{"name":"douala (civ/mil)","state":"","country":"cm","pretty_name":{"city":"Douala|Mboussa Senguй","region":"LIT","country":"Cameroon"}},"profile":{"tz":"Africa/Douala","elevM":9,"elevFT":30},"obTimestamp":1417802400,"obDateTime":"2014-12-05T19:00:00+01:00","ob":{"timestamp":1417802400,"dateTimeISO":"2014-12-05T19:00:00+01:00","tempC":28,"tempF":82,"dewpointC":25,"dewpointF":77,"humidity":84,"pressureMB":1010,"pressureIN":29.83,"spressureMB":1009,"spressureIN":29.8,"altimeterMB":null,"altimeterIN":null,"windKTS":4,"windKPH":7,"windMPH":5,"windSpeedKTS":4,"windSpeedKPH":7,"windSpeedMPH":5,"windDirDEG":240,"windDir":"WSW","windGustKTS":null,"windGustKPH":null,"windGustMPH":null,"flightRule":"MVFR","visibilityKM":null,"visibilityMI":null,"weather":"Mostly Cloudy with Thunderstorms","weatherShort":"Scattered Storms","weatherCoded":"::T,::BK","weatherPrimary":"Scattered Storms","weatherPrimaryCoded":"::T","cloudsCoded":"BK","icon":"tstormn.png","heatindexC":32,"heatindexF":90,"windchillC":28,"windchillF":82,"feelslikeC":32,"feelslikeF":90,"isDay":false,"sunrise":1417756488,"sunriseISO":"2014-12-05T06:14:48+01:00","sunset":1417799338,"sunsetISO":"2014-12-05T18:08:58+01:00","snowDepthCM":null,"snowDepthIN":null,"precipMM":null,"precipIN":null,"solradWM2":null,"light":0,"sky":81},"raw":"FKKD 051800Z 24004KT 9999 TS BKN013 FEW016CB 28/25 Q1010 BECMG NSW"},{"id":"FKKR","loc":{"long":13.366666666667,"lat":9.3166666666667},"place":{"name":"garoua","state":"","country":"cm","pretty_name":{"city":"Garoua|Laпndй","region":"NO","country":"Cameroon"}},"profile":{"tz":"Africa/Douala","elevM":244,"elevFT":801},"obTimestamp":1417802400,"obDateTime":"2014-12-05T19:00:00+01:00","ob":{"timestamp":1417802400,"dateTimeISO":"2014-12-05T19:00:00+01:00","tempC":32,"tempF":90,"dewpointC":5,"dewpointF":41,"humidity":18,"pressureMB":1010,"pressureIN":29.83,"spressureMB":983,"spressureIN":29.03,"altimeterMB":null,"altimeterIN":null,"windKTS":3,"windKPH":6,"windMPH":3,"windSpeedKTS":3,"windSpeedKPH":6,"windSpeedMPH":3,"windDirDEG":340,"windDir":"NNW","windGustKTS":null,"windGustKPH":null,"windGustMPH":null,"flightRule":"LIFR","visibilityKM":11.265408,"visibilityMI":7,"weather":"Mostly Clear","weatherShort":"Mostly Clear","weatherCoded":"::FW","weatherPrimary":"Mostly Clear","weatherPrimaryCoded":"::FW","cloudsCoded":"FW","icon":"pcloudyn.png","heatindexC":32,"heatindexF":90,"windchillC":32,"windchillF":90,"feelslikeC":32,"feelslikeF":90,"isDay":false,"sunrise":1417756144,"sunriseISO":"2014-12-05T06:09:04+01:00","sunset":1417797930,"sunsetISO":"2014-12-05T17:45:30+01:00","snowDepthCM":null,"snowDepthIN":null,"precipMM":null,"precipIN":null,"solradWM2":null,"sky":19,"light":0},"raw":"FKKR 051800Z 34003KT 320V040 CAVOK 32/05 Q1010 NOSIG"}]}