{"success":true,"error":null,"response":[{"id":"KBDL","loc":{"long":-72.683333333333,"lat":41.933333333333},"place":{"name":"windsor locks","state":"ct","country":"us","pretty_name":{"city":"Windsor Locks|Bull Run Corner","region":"CT","country":"United States"}},"profile":{"tz":"America/New_York","elevM":60,"elevFT":197},"obTimestamp":1417755060,"obDateTime":"2014-12-04T23:51:00-05:00","ob":{"timestamp":1417755060,"dateTimeISO":"2014-12-04T23:51:00-05:00","tempC":-3,"tempF":27,"dewpointC":-7,"dewpointF":19,"humidity":74,"pressureMB":1035,"pressureIN":30.56,"spressureMB":1027,"spressureIN":30.33,"altimeterMB":1034,"altimeterIN":30.53,"windKTS":0,"windKPH":0,"windMPH":0,"windSpeedKTS":0,"windSpeedKPH":0,"windSpeedMPH":0,"windDirDEG":0,"windDir":"N","windGustKTS":null,"windGustKPH":null,"windGustMPH":null,"flightRule":"LIFR","visibilityKM":16.09344,"visibilityMI":10,"weather":"Clear","weatherShort":"Clear","weatherCoded":"::CL","weatherPrimary":"Clear","weatherPrimaryCoded":"::CL","cloudsCoded":"CL","icon":"sunnyn.png","heatindexC":-3,"heatindexF":27,"windchillC":-3,"windchillF":27,"feelslikeC":-3,"feelslikeF":27,"isDay":false,"sunrise":1417694567,"sunriseISO":"2014-12-04T07:02:47-05:00","sunset":1417727986,"sunsetISO":"2014-12-04T16:19:46-05:00","snowDepthCM":null,"snowDepthIN":null,"precipMM":0,"precipIN":0,"solradWM2":null,"light":0,"sky":0},"raw":"KBDL 050451Z 00000KT 10SM CLR M03/M07 A3053 RMK AO2 SLP340 T10281067 400671039"},{"id":"KIJD","loc":{"long":-72.183333333333,"lat":41.75},"place":{"name":"willimantic","state":"ct","country":"us","pretty_name":{"city":"Willimantic|Mansfield Hollow","region":"CT","country":"United States"}},"profile":{"tz":"America/New_York","elevM":75,"elevFT":246},"obTimestamp":1417755120,"obDateTime":"2014-12-04T23:52:00-05:00","ob":{"timestamp":1417755120,"dateTimeISO":"2014-12-04T23:52:00-05:00","tempC":-4,"tempF":25,"dewpointC":-7,"dewpointF":19,"humidity":80,"pressureMB":1035,"pressureIN":30.56,"spressureMB":1025,"spressureIN":30.27,"altimeterMB":1034,"altimeterIN":30.53,"windKTS":0,"windKPH":0,"windMPH":0,"windSpeedKTS":0,"windSpeedKPH":0,"windSpeedMPH":0,"windDirDEG":0,"windDir":"N","windGustKTS":null,"windGustKPH":null,"windGustMPH":null,"flightRule":"LIFR","visibilityKM":16.09344,"visibilityMI":10,"weather":"Clear","weatherShort":"Clear","weatherCoded":"::CL","weatherPrimary":"Clear","weatherPrimaryCoded":"::CL","cloudsCoded":"CL","icon":"sunnyn.png","heatindexC":-4,"heatindexF":25,"windchillC":-4,"windchillF":25,"feelslikeC":-4,"feelslikeF":25,"isDay":false,"sunrise":1417694413,"sunriseISO":"2014-12-04T07:00:13-05:00","sunset":1417727900,"sunsetISO":"2014-12-04T16:18:20-05:00","snowDepthCM":null,"snowDepthIN":null,"precipMM":0,"precipIN":0,"solradWM2":null,"light":0,"sky":0},"raw":"KIJD 050452Z AUTO 00000KT 10SM CLR M04/M07 A3054 RMK AO2 SLP345 T10391067 400671039"},{"id":"KBDR","loc":{"long":-73.133333333333,"lat":41.166666666667},"place":{"name":"bridgeport","state":"ct","country":"us","pretty_name":{"city":"Bridgeport|Lordship","region":"CT","country":"United States"}},"profile":{"tz":"America/New_York","elevM":7,"elevFT":23},"obTimestamp":1417755120,"obDateTime":"2014-12-04T23:52:00-05:00","ob":{"timestamp":1417755120,"dateTimeISO":"2014-12-04T23:52:00-05:00","tempC":1,"tempF":34,"dewpointC":-6,"dewpointF":21,"humidity":60,"pressureMB":1034,"pressureIN":30.53,"spressureMB":1033,"spressureIN":30.5,"altimeterMB":1034,"altimeterIN":30.53,"windKTS":7,"windKPH":13,"windMPH":8,"windSpeedKTS":7,"windSpeedKPH":13,"windSpeedMPH":8,"windDirDEG":40,"windDir":"NE","windGustKTS":null,"windGustKPH":null,"windGustMPH":null,"flightRule":"LIFR","visibilityKM":16.09344,"visibilityMI":10,"weather":"Partly Cloudy","weatherShort":"Partly Cloudy","weatherCoded":"::SC","weatherPrimary":"Partly Cloudy","weatherPrimaryCoded":"::SC","cloudsCoded":"SC","icon":"pcloudyn.png","heatindexC":1,"heatindexF":34,"windchillC":-3,"windchillF":27,"feelslikeC":-3,"feelslikeF":27,"isDay":false,"sunrise":1417694535,"sunriseISO":"2014-12-04T07:02:15-05:00","sunset":1417728234,"sunsetISO":"2014-12-04T16:23:54-05:00","snowDepthCM":null,"snowDepthIN":null,"precipMM":0,"precipIN":0,"solradWM2":null,"light":0,"sky":44},"raw":"KBDR 050452Z AUTO 04007KT 10SM SCT120 01/M06 A3054 RMK AO2 SLP341 T00111056 400890011"},{"id":"KHVN","loc":{"long":-72.866666666667,"lat":41.266666666667},"place":{"name":"new haven/tweed","state":"ct","country":"us","pretty_name":{"city":"New Haven|Morris Cove","region":"CT","country":"United States"}},"profile":{"tz":"America/New_York","elevM":4,"elevFT":13},"obTimestamp":1417755180,"obDateTime":"2014-12-04T23:53:00-05:00","ob":{"timestamp":1417755180,"dateTimeISO":"2014-12-04T23:53:00-05:00","tempC":-1,"tempF":30,"dewpointC":-7,"dewpointF":19,"humidity":64,"pressureMB":1035,"pressureIN":30.56,"spressureMB":1034,"spressureIN":30.53,"altimeterMB":1034,"altimeterIN":30.53,"windKTS":4,"windKPH":7,"windMPH":5,"windSpeedKTS":4,"windSpeedKPH":7,"windSpeedMPH":5,"windDirDEG":360,"windDir":"N","windGustKTS":null,"windGustKPH":null,"windGustMPH":null,"flightRule":"LIFR","visibilityKM":16.09344,"visibilityMI":10,"weather":"Clear","weatherShort":"Clear","weatherCoded":"::CL","weatherPrimary":"Clear","weatherPrimaryCoded":"::CL","cloudsCoded":"CL","icon":"sunnyn.png","heatindexC":-1,"heatindexF":30,"windchillC":-4,"windchillF":25,"feelslikeC":-4,"feelslikeF":25,"isDay":false,"sunrise":1417694489,"sunriseISO":"2014-12-04T07:01:29-05:00","sunset":1417728152,"sunsetISO":"2014-12-04T16:22:32-05:00","snowDepthCM":null,"snowDepthIN":null,"precipMM":0,"precipIN":0,"solradWM2":null,"light":0,"sky":0},"raw":"KHVN 050453Z AUTO 36004KT 10SM CLR M01/M07 A3054 RMK AO2 SLP340 T10061072 400891006"},{"id":"KHFD","loc":{"long":-72.65,"lat":41.733333333333},"place":{"name":"hartford/brainar","state":"ct","country":"us","pretty_name":{"city":"Hartford|Colonial Mobile Home Park","region":"CT","country":"United States"}},"profile":{"tz":"America/New_York","elevM":4,"elevFT":13},"obTimestamp":1417755180,"obDateTime":"2014-12-04T23:53:00-05:00","ob":{"timestamp":1417755180,"dateTimeISO":"2014-12-04T23:53:00-05:00","tempC":-2,"tempF":28,"dewpointC":-7,"dewpointF":19,"humidity":69,"pressureMB":1036,"pressureIN":30.59,"spressureMB":1035,"spressureIN":30.56,"altimeterMB":1035,"altimeterIN":30.56,"windKTS":6,"windKPH":11,"windMPH":7,"windSpeedKTS":6,"windSpeedKPH":11,"windSpeedMPH":7,"windDirDEG":140,"windDir":"SE","windGustKTS":null,"windGustKPH":null,"windGustMPH":null,"flightRule":"LIFR","visibilityKM":16.09344,"visibilityMI":10,"weather":"Clear","weatherShort":"Clear","weatherCoded":"::CL","weatherPrimary":"Clear","weatherPrimaryCoded":"::CL","cloudsCoded":"CL","icon":"sunnyn.png","heatindexC":-2,"heatindexF":28,"windchillC":-6,"windchillF":21,"feelslikeC":-6,"feelslikeF":21,"isDay":false,"sunrise":1417694522,"sunriseISO":"2014-12-04T07:02:02-05:00","sunset":1417728015,"sunsetISO":"2014-12-04T16:20:15-05:00","snowDepthCM":null,"snowDepthIN":null,"precipMM":0,"precipIN":0,"solradWM2":null,"light":0,"sky":0},"raw":"KHFD 050453Z AUTO 14006KT 10SM CLR M02/M07 A3055 RMK AO2 SLP344 T10221067 400611028"},{"id":"KMMK","loc":{"long":-72.833333333333,"lat":41.516666666667},"place":{"name":"meriden","state":"ct","country":"us","pretty_name":{"city":"Meriden|South Meriden","region":"CT","country":"United States"}},"profile":{"tz":"America/New_York","elevM":31,"elevFT":102},"obTimestamp":1417755180,"obDateTime":"2014-12-04T23:53:00-05:00","ob":{"timestamp":1417755180,"dateTimeISO":"2014-12-04T23:53:00-05:00","tempC":-3,"tempF":27,"dewpointC":-6,"dewpointF":21,"humidity":80,"pressureMB":1034,"pressureIN":30.53,"spressureMB":1030,"spressureIN":30.42,"altimeterMB":1034,"altimeterIN":30.53,"windKTS":0,"windKPH":0,"windMPH":0,"windSpeedKTS":0,"windSpeedKPH":0,"windSpeedMPH":0,"windDirDEG":0,"windDir":"N","windGustKTS":null,"windGustKPH":null,"windGustMPH":null,"flightRule":"LIFR","visibilityKM":16.09344,"visibilityMI":10,"weather":"Clear","weatherShort":"Clear","weatherCoded":"::CL","weatherPrimary":"Clear","weatherPrimaryCoded":"::CL","cloudsCoded":"CL","icon":"sunnyn.png","heatindexC":-3,"heatindexF":27,"windchillC":-3,"windchillF":27,"feelslikeC":-3,"feelslikeF":27,"isDay":false,"sunrise":1417694526,"sunriseISO":"2014-12-04T07:02:06-05:00","sunset":1417728098,"sunsetISO":"2014-12-04T16:21:38-05:00","snowDepthCM":null,"snowDepthIN":null,"precipMM":0,"precipIN":0,"solradWM2":null,"light":0,"sky":0},"raw":"KMMK 050453Z AUTO 00000KT 10SM CLR M03/M06 A3054 RMK AO2 SLP344 T10331061 400671044 TSNO"},{"id":"KDXR","loc":{"long":-73.483333333333,"lat":41.366666666667},"place":{"name":"danbury","state":"ct","country":"us","pretty_name":{"city":"Danbury|Miry Brook","region":"CT","country":"United States"}},"profile":{"tz":"America/New_York","elevM":139,"elevFT":456},"obTimestamp":1417755180,"obDateTime":"2014-12-04T23:53:00-05:00","ob":{"timestamp":1417755180,"dateTimeISO":"2014-12-04T23:53:00-05:00","tempC":-3,"tempF":27,"dewpointC":-7,"dewpointF":19,"humidity":74,"pressureMB":1035,"pressureIN":30.56,"spressureMB":1017,"spressureIN":30.03,"altimeterMB":1034,"altimeterIN":30.53,"windKTS":0,"windKPH":0,"windMPH":0,"windSpeedKTS":0,"windSpeedKPH":0,"windSpeedMPH":0,"windDirDEG":0,"windDir":"N","windGustKTS":null,"windGustKPH":null,"windGustMPH":null,"flightRule":"LIFR","visibilityKM":14.484096,"visibilityMI":9,"weather":"Clear","weatherShort":"Clear","weatherCoded":"::CL","weatherPrimary":"Clear","weatherPrimaryCoded":"::CL","cloudsCoded":"CL","icon":"sunnyn.png","heatindexC":-3,"heatindexF":27,"windchillC":-3,"windchillF":27,"feelslikeC":-3,"feelslikeF":27,"isDay":false,"sunrise":1417694655,"sunriseISO":"2014-12-04T07:04:15-05:00","sunset":1417728282,"sunsetISO":"2014-12-04T16:24:42-05:00","snowDepthCM":null,"snowDepthIN":null,"precipMM":0,"precipIN":0,"solradWM2":null,"light":0,"sky":0},"raw":"KDXR 050453Z AUTO 00000KT 9SM CLR M03/M07 A3053 RMK AO2 SLP341 T10331072 400611044"},{"id":"KOXC","loc":{"long":-73.133333333333,"lat":41.466666666667},"place":{"name":"oxford/waterbury","state":"ct","country":"us","pretty_name":{"city":"Oxford|Southford","region":"CT","country":"United States"}},"profile":{"tz":"America/New_York","elevM":222,"elevFT":728},"obTimestamp":1417755300,"obDateTime":"2014-12-04T23:55:00-05:00","ob":{"timestamp":1417755300,"dateTimeISO":"2014-12-04T23:55:00-05:00","tempC":-2,"tempF":28,"dewpointC":-9,"dewpointF":16,"humidity":59,"pressureMB":1034,"pressureIN":30.53,"spressureMB":1006,"spressureIN":29.71,"altimeterMB":1033,"altimeterIN":30.5,"windKTS":0,"windKPH":0,"windMPH":0,"windSpeedKTS":0,"windSpeedKPH":0,"windSpeedMPH":0,"windDirDEG":0,"windDir":"N","windGustKTS":null,"windGustKPH":null,"windGustMPH":null,"flightRule":"LIFR","visibilityKM":16.09344,"visibilityMI":10,"weather":"Clear","weatherShort":"Clear","weatherCoded":"::CL","weatherPrimary":"Clear","weatherPrimaryCoded":"::CL","cloudsCoded":"CL","icon":"sunnyn.png","heatindexC":-2,"heatindexF":28,"windchillC":-2,"windchillF":28,"feelslikeC":-2,"feelslikeF":28,"isDay":false,"sunrise":1417694589,"sunriseISO":"2014-12-04T07:03:09-05:00","sunset":1417728180,"sunsetISO":"2014-12-04T16:23:00-05:00","snowDepthCM":null,"snowDepthIN":null,"precipMM":0,"precipIN":0,"solradWM2":null,"light":0,"sky":0},"raw":"KOXC 050455Z 00000KT 10SM CLR M02/M09 A3051 RMK AO1"},{"id":"KSNC","loc":{"long":-72.5,"lat":41.383333333333},"place":{"name":"chester","state":"ct","country":"us","pretty_name":{"city":"Chester|Cedar Lake","region":"CT","country":"United States"}},"profile":{"tz":"America/New_York","elevM":127,"elevFT":417},"obTimestamp":1417755300,"obDateTime":"2014-12-04T23:55:00-05:00","ob":{"timestamp":1417755300,"dateTimeISO":"2014-12-04T23:55:00-05:00","tempC":0,"tempF":32,"dewpointC":-6,"dewpointF":21,"humidity":64,"pressureMB":1035,"pressureIN":30.56,"spressureMB":1019,"spressureIN":30.09,"altimeterMB":1034,"altimeterIN":30.53,"windKTS":4,"windKPH":7,"windMPH":5,"windSpeedKTS":4,"windSpeedKPH":7,"windSpeedMPH":5,"windDirDEG":30,"windDir":"NNE","windGustKTS":null,"windGustKPH":null,"windGustMPH":null,"flightRule":"LIFR","visibilityKM":16.09344,"visibilityMI":10,"weather":"Clear","weatherShort":"Clear","weatherCoded":"::CL","weatherPrimary":"Clear","weatherPrimaryCoded":"::CL","cloudsCoded":"CL","icon":"sunnyn.png","heatindexC":0,"heatindexF":32,"windchillC":-3,"windchillF":27,"feelslikeC":-3,"feelslikeF":27,"isDay":false,"sunrise":1417694422,"sunriseISO":"2014-12-04T07:00:22-05:00","sunset":1417728043,"sunsetISO":"2014-12-04T16:20:43-05:00","snowDepthCM":null,"snowDepthIN":null,"precipMM":0,"precipIN":0,"solradWM2":null,"light":0,"sky":0},"raw":"KSNC 050455Z AUTO 03004KT 10SM CLR 00/M06 A3052 RMK AO2"},{"id":"KGON","loc":{"long":-72.05,"lat":41.333333333333},"place":{"name":"groton/new londo","state":"ct","country":"us","pretty_name":{"city":"Groton|Midway","region":"CT","country":"United States"}},"profile":{"tz":"America/New_York","elevM":3,"elevFT":10},"obTimestamp":1417755360,"obDateTime":"2014-12-04T23:56:00-05:00","ob":{"timestamp":1417755360,"dateTimeISO":"2014-12-04T23:56:00-05:00","tempC":-2,"tempF":28,"dewpointC":-6,"dewpointF":21,"humidity":74,"pressureMB":1034,"pressureIN":30.53,"spressureMB":1034,"spressureIN":30.53,"altimeterMB":1034,"altimeterIN":30.53,"windKTS":4,"windKPH":7,"windMPH":5,"windSpeedKTS":4,"windSpeedKPH":7,"windSpeedMPH":5,"windDirDEG":360,"windDir":"N","windGustKTS":null,"windGustKPH":null,"windGustMPH":null,"flightRule":"LIFR","visibilityKM":12.874752,"visibilityMI":8,"weather":"Clear","weatherShort":"Clear","weatherCoded":"::CL","weatherPrimary":"Clear","weatherPrimaryCoded":"::CL","cloudsCoded":"CL","icon":"sunnyn.png","heatindexC":-2,"heatindexF":28,"windchillC":-6,"windchillF":22,"feelslikeC":-6,"feelslikeF":22,"isDay":false,"sunrise":1417694305,"sunriseISO":"2014-12-04T06:58:25-05:00","sunset":1417727944,"sunsetISO":"2014-12-04T16:19:04-05:00","snowDepthCM":null,"snowDepthIN":null,"precipMM":0,"precipIN":0,"solradWM2":null,"light":0,"sky":0},"raw":"KGON 050456Z AUTO 36004KT 8SM CLR M02/M06 A3053 RMK AO2 SLP339 T10171061 400721017"}]}