{"success":true,"error":null,"response":[{"id":"KBDL","loc":{"long":-72.683333333333,"lat":41.933333333333},"place":{"name":"windsor locks","state":"ct","country":"us","pretty_name":{"city":"Windsor Locks|Bull Run Corner","region":"CT","country":"United States"}},"profile":{"tz":"America/New_York","elevM":60,"elevFT":197},"obTimestamp":1419299460,"obDateTime":"2014-12-22T20:51:00-05:00","ob":{"timestamp":1419299460,"dateTimeISO":"2014-12-22T20:51:00-05:00","tempC":4,"tempF":39,"dewpointC":1,"dewpointF":34,"humidity":81,"pressureMB":1026,"pressureIN":30.3,"spressureMB":1018,"spressureIN":30.06,"altimeterMB":1025,"altimeterIN":30.27,"windKTS":4,"windKPH":7,"windMPH":5,"windSpeedKTS":4,"windSpeedKPH":7,"windSpeedMPH":5,"windDirDEG":360,"windDir":"N","windGustKTS":null,"windGustKPH":null,"windGustMPH":null,"flightRule":"MVFR","visibilityKM":16.09344,"visibilityMI":10,"weather":"Cloudy","weatherShort":"Cloudy","weatherCoded":"::OV","weatherPrimary":"Cloudy","weatherPrimaryCoded":"::OV","cloudsCoded":"OV","icon":"cloudyn.png","heatindexC":4,"heatindexF":39,"windchillC":2,"windchillF":35,"feelslikeC":2,"feelslikeF":35,"isDay":false,"sunrise":1419250557,"sunriseISO":"2014-12-22T07:15:57-05:00","sunset":1419283410,"sunsetISO":"2014-12-22T16:23:30-05:00","snowDepthCM":null,"snowDepthIN":null,"precipMM":0,"precipIN":0,"solradWM2":null,"light":0,"sky":100},"raw":"KBDL 230151Z 36004KT 10SM OVC014 04/01 A3027 RMK AO2 SLP252 T00440011"},{"id":"KBDR","loc":{"long":-73.133333333333,"lat":41.166666666667},"place":{"name":"bridgeport","state":"ct","country":"us","pretty_name":{"city":"Bridgeport|Lordship","region":"CT","country":"United States"}},"profile":{"tz":"America/New_York","elevM":7,"elevFT":23},"obTimestamp":1419299520,"obDateTime":"2014-12-22T20:52:00-05:00","ob":{"timestamp":1419299520,"dateTimeISO":"2014-12-22T20:52:00-05:00","tempC":7,"tempF":45,"dewpointC":4,"dewpointF":39,"humidity":81,"pressureMB":1024,"pressureIN":30.24,"spressureMB":1023,"spressureIN":30.21,"altimeterMB":1024,"altimeterIN":30.24,"windKTS":9,"windKPH":17,"windMPH":10,"windSpeedKTS":9,"windSpeedKPH":17,"windSpeedMPH":10,"windDirDEG":70,"windDir":"ENE","windGustKTS":null,"windGustKPH":null,"windGustMPH":null,"flightRule":"MVFR","visibilityKM":16.09344,"visibilityMI":10,"weather":"Cloudy","weatherShort":"Cloudy","weatherCoded":"::OV","weatherPrimary":"Cloudy","weatherPrimaryCoded":"::OV","cloudsCoded":"OV","icon":"cloudyn.png","heatindexC":7,"heatindexF":45,"windchillC":7,"windchillF":45,"feelslikeC":7,"feelslikeF":45,"isDay":false,"sunrise":1419250516,"sunriseISO":"2014-12-22T07:15:16-05:00","sunset":1419283667,"sunsetISO":"2014-12-22T16:27:47-05:00","snowDepthCM":null,"snowDepthIN":null,"precipMM":0,"precipIN":0,"solradWM2":null,"light":0,"sky":100},"raw":"KBDR 230152Z AUTO 07009KT 10SM SCT014 OVC028 07/04 A3024 RMK AO2 SLP239 T00670044 TSNO"},{"id":"KHFD","loc":{"long":-72.65,"lat":41.733333333333},"place":{"name":"hartford/brainar","state":"ct","country":"us","pretty_name":{"city":"Hartford|Colonial Mobile Home Park","region":"CT","country":"United States"}},"profile":{"tz":"America/New_York","elevM":4,"elevFT":13},"obTimestamp":1419299580,"obDateTime":"2014-12-22T20:53:00-05:00","ob":{"timestamp":1419299580,"dateTimeISO":"2014-12-22T20:53:00-05:00","tempC":5,"tempF":41,"dewpointC":2,"dewpointF":36,"humidity":81,"pressureMB":1026,"pressureIN":30.3,"spressureMB":1025,"spressureIN":30.27,"altimeterMB":1025,"altimeterIN":30.27,"windKTS":5,"windKPH":9,"windMPH":6,"windSpeedKTS":5,"windSpeedKPH":9,"windSpeedMPH":6,"windDirDEG":0,"windDir":"N","windGustKTS":null,"windGustKPH":null,"windGustMPH":null,"flightRule":"MVFR","visibilityKM":16.09344,"visibilityMI":10,"weather":"Cloudy","weatherShort":"Cloudy","weatherCoded":"::OV","weatherPrimary":"Cloudy","weatherPrimaryCoded":"::OV","cloudsCoded":"OV","icon":"cloudyn.png","heatindexC":5,"heatindexF":41,"windchillC":5,"windchillF":41,"feelslikeC":5,"feelslikeF":41,"isDay":false,"sunrise":1419250510,"sunriseISO":"2014-12-22T07:15:10-05:00","sunset":1419283441,"sunsetISO":"2014-12-22T16:24:01-05:00","snowDepthCM":null,"snowDepthIN":null,"precipMM":0,"precipIN":0,"solradWM2":null,"light":0,"sky":100},"raw":"KHFD 230153Z VRB05KT 10SM OVC014 05/02 A3028 RMK AO2 SLP252 T00500022"},{"id":"KMMK","loc":{"long":-72.833333333333,"lat":41.516666666667},"place":{"name":"meriden","state":"ct","country":"us","pretty_name":{"city":"Meriden|South Meriden","region":"CT","country":"United States"}},"profile":{"tz":"America/New_York","elevM":31,"elevFT":102},"obTimestamp":1419299580,"obDateTime":"2014-12-22T20:53:00-05:00","ob":{"timestamp":1419299580,"dateTimeISO":"2014-12-22T20:53:00-05:00","tempC":6,"tempF":43,"dewpointC":3,"dewpointF":37,"humidity":81,"pressureMB":1025,"pressureIN":30.27,"spressureMB":1021,"spressureIN":30.15,"altimeterMB":1025,"altimeterIN":30.27,"windKTS":4,"windKPH":7,"windMPH":5,"windSpeedKTS":4,"windSpeedKPH":7,"windSpeedMPH":5,"windDirDEG":0,"windDir":"N","windGustKTS":null,"windGustKPH":null,"windGustMPH":null,"flightRule":"MVFR","visibilityKM":16.09344,"visibilityMI":10,"weather":"Cloudy","weatherShort":"Cloudy","weatherCoded":"::OV","weatherPrimary":"Cloudy","weatherPrimaryCoded":"::OV","cloudsCoded":"OV","icon":"cloudyn.png","heatindexC":6,"heatindexF":43,"windchillC":6,"windchillF":43,"feelslikeC":6,"feelslikeF":43,"isDay":false,"sunrise":1419250512,"sunriseISO":"2014-12-22T07:15:12-05:00","sunset":1419283527,"sunsetISO":"2014-12-22T16:25:27-05:00","snowDepthCM":null,"snowDepthIN":null,"precipMM":0,"precipIN":0,"solradWM2":null,"light":0,"sky":100},"raw":"KMMK 230153Z AUTO VRB04KT 10SM OVC014 06/03 A3026 RMK AO2 SLP248 T00610028 TSNO"},{"id":"KDXR","loc":{"long":-73.483333333333,"lat":41.366666666667},"place":{"name":"danbury","state":"ct","country":"us","pretty_name":{"city":"Danbury|Miry Brook","region":"CT","country":"United States"}},"profile":{"tz":"America/New_York","elevM":139,"elevFT":456},"obTimestamp":1419299580,"obDateTime":"2014-12-22T20:53:00-05:00","ob":{"timestamp":1419299580,"dateTimeISO":"2014-12-22T20:53:00-05:00","tempC":4,"tempF":39,"dewpointC":2,"dewpointF":36,"humidity":87,"pressureMB":1024,"pressureIN":30.24,"spressureMB":1007,"spressureIN":29.74,"altimeterMB":1024,"altimeterIN":30.24,"windKTS":3,"windKPH":6,"windMPH":3,"windSpeedKTS":3,"windSpeedKPH":6,"windSpeedMPH":3,"windDirDEG":50,"windDir":"NE","windGustKTS":null,"windGustKPH":null,"windGustMPH":null,"flightRule":"IFR","visibilityKM":4.828032,"visibilityMI":3,"weather":"Cloudy with Mist and Fog","weatherShort":"Mist and Fog","weatherCoded":"::BR,::OV","weatherPrimary":"Mist and Fog","weatherPrimaryCoded":"::BR","cloudsCoded":"OV","icon":"fogn.png","heatindexC":4,"heatindexF":39,"windchillC":3,"windchillF":37,"feelslikeC":3,"feelslikeF":37,"isDay":false,"sunrise":1419250639,"sunriseISO":"2014-12-22T07:17:19-05:00","sunset":1419283712,"sunsetISO":"2014-12-22T16:28:32-05:00","snowDepthCM":null,"snowDepthIN":null,"precipMM":0,"precipIN":0,"solradWM2":null,"light":0,"sky":100},"raw":"KDXR 230153Z 05003KT 3SM BR OVC006 04/02 A3024 RMK AO2 CIG 005V010 SLP243 T00390017"},{"id":"KGON","loc":{"long":-72.05,"lat":41.333333333333},"place":{"name":"groton/new londo","state":"ct","country":"us","pretty_name":{"city":"Groton|Midway","region":"CT","country":"United States"}},"profile":{"tz":"America/New_York","elevM":3,"elevFT":10},"obTimestamp":1419299760,"obDateTime":"2014-12-22T20:56:00-05:00","ob":{"timestamp":1419299760,"dateTimeISO":"2014-12-22T20:56:00-05:00","tempC":7,"tempF":45,"dewpointC":4,"dewpointF":39,"humidity":81,"pressureMB":1025,"pressureIN":30.27,"spressureMB":1025,"spressureIN":30.27,"altimeterMB":1025,"altimeterIN":30.27,"windKTS":11,"windKPH":20,"windMPH":13,"windSpeedKTS":11,"windSpeedKPH":20,"windSpeedMPH":13,"windDirDEG":80,"windDir":"E","windGustKTS":null,"windGustKPH":null,"windGustMPH":null,"flightRule":"MVFR","visibilityKM":11.265408,"visibilityMI":7,"weather":"Cloudy","weatherShort":"Cloudy","weatherCoded":"::OV","weatherPrimary":"Cloudy","weatherPrimaryCoded":"::OV","cloudsCoded":"OV","icon":"cloudyn.png","heatindexC":7,"heatindexF":45,"windchillC":7,"windchillF":45,"feelslikeC":7,"feelslikeF":45,"isDay":false,"sunrise":1419250288,"sunriseISO":"2014-12-22T07:11:28-05:00","sunset":1419283375,"sunsetISO":"2014-12-22T16:22:55-05:00","snowDepthCM":null,"snowDepthIN":null,"precipMM":0,"precipIN":0,"solradWM2":null,"light":0,"sky":100},"raw":"KGON 230156Z 08011KT 7SM FEW016 BKN026 OVC034 07/04 A3026 RMK AO2 SLP247 T00670044"},{"id":"KIJD","loc":{"long":-72.183333333333,"lat":41.75},"place":{"name":"willimantic","state":"ct","country":"us","pretty_name":{"city":"Willimantic|Mansfield Hollow","region":"CT","country":"United States"}},"profile":{"tz":"America/New_York","elevM":75,"elevFT":246},"obTimestamp":1419301500,"obDateTime":"2014-12-22T21:25:00-05:00","ob":{"timestamp":1419301500,"dateTimeISO":"2014-12-22T21:25:00-05:00","tempC":5,"tempF":41,"dewpointC":3,"dewpointF":37,"humidity":87,"pressureMB":1026,"pressureIN":30.3,"spressureMB":1017,"spressureIN":30.03,"altimeterMB":1026,"altimeterIN":30.3,"windKTS":3,"windKPH":6,"windMPH":3,"windSpeedKTS":3,"windSpeedKPH":6,"windSpeedMPH":3,"windDirDEG":360,"windDir":"N","windGustKTS":null,"windGustKPH":null,"windGustMPH":null,"flightRule":"MVFR","visibilityKM":16.09344,"visibilityMI":10,"weather":"Cloudy","weatherShort":"Cloudy","weatherCoded":"::OV","weatherPrimary":"Cloudy","weatherPrimaryCoded":"::OV","cloudsCoded":"OV","icon":"cloudyn.png","heatindexC":5,"heatindexF":41,"windchillC":5,"windchillF":41,"feelslikeC":5,"feelslikeF":41,"isDay":false,"sunrise":1419250401,"sunriseISO":"2014-12-22T07:13:21-05:00","sunset":1419283326,"sunsetISO":"2014-12-22T16:22:06-05:00","snowDepthCM":null,"snowDepthIN":null,"precipMM":0,"precipIN":0,"solradWM2":null,"light":0,"sky":100},"raw":"KIJD 230225Z AUTO 36003KT 10SM FEW012 BKN018 OVC040 05/03 A3029 RMK AO2 T00500028"},{"id":"KHVN","loc":{"long":-72.866666666667,"lat":41.266666666667},"place":{"name":"new haven/tweed","state":"ct","country":"us","pretty_name":{"city":"New Haven|Morris Cove","region":"CT","country":"United States"}},"profile":{"tz":"America/New_York","elevM":4,"elevFT":13},"obTimestamp":1419301980,"obDateTime":"2014-12-22T21:33:00-05:00","ob":{"timestamp":1419301980,"dateTimeISO":"2014-12-22T21:33:00-05:00","tempC":8,"tempF":46,"dewpointC":4,"dewpointF":39,"humidity":76,"pressureMB":1024,"pressureIN":30.24,"spressureMB":1024,"spressureIN":30.24,"altimeterMB":1024,"altimeterIN":30.24,"windKTS":8,"windKPH":15,"windMPH":9,"windSpeedKTS":8,"windSpeedKPH":15,"windSpeedMPH":9,"windDirDEG":70,"windDir":"ENE","windGustKTS":null,"windGustKPH":null,"windGustMPH":null,"flightRule":"MVFR","visibilityKM":16.09344,"visibilityMI":10,"weather":"Cloudy","weatherShort":"Cloudy","weatherCoded":"::OV","weatherPrimary":"Cloudy","weatherPrimaryCoded":"::OV","cloudsCoded":"OV","icon":"cloudyn.png","heatindexC":8,"heatindexF":46,"windchillC":8,"windchillF":46,"feelslikeC":8,"feelslikeF":46,"isDay":false,"sunrise":1419250471,"sunriseISO":"2014-12-22T07:14:31-05:00","sunset":1419283584,"sunsetISO":"2014-12-22T16:26:24-05:00","snowDepthCM":null,"snowDepthIN":null,"precipMM":0,"precipIN":0,"solradWM2":null,"light":0,"sky":100},"raw":"KHVN 230233Z 07008KT 10SM FEW013 OVC022 08/04 A3023 RMK AO2 T00830039"},{"id":"KOXC","loc":{"long":-73.133333333333,"lat":41.466666666667},"place":{"name":"oxford/waterbury","state":"ct","country":"us","pretty_name":{"city":"Oxford|Southford","region":"CT","country":"United States"}},"profile":{"tz":"America/New_York","elevM":222,"elevFT":728},"obTimestamp":1419302100,"obDateTime":"2014-12-22T21:35:00-05:00","ob":{"timestamp":1419302100,"dateTimeISO":"2014-12-22T21:35:00-05:00","tempC":4,"tempF":39,"dewpointC":1,"dewpointF":34,"humidity":81,"pressureMB":1024,"pressureIN":30.24,"spressureMB":996,"spressureIN":29.41,"altimeterMB":1023,"altimeterIN":30.21,"windKTS":8,"windKPH":15,"windMPH":9,"windSpeedKTS":8,"windSpeedKPH":15,"windSpeedMPH":9,"windDirDEG":70,"windDir":"ENE","windGustKTS":null,"windGustKPH":null,"windGustMPH":null,"flightRule":"IFR","visibilityKM":16.09344,"visibilityMI":10,"weather":"Cloudy","weatherShort":"Cloudy","weatherCoded":"::OV","weatherPrimary":"Cloudy","weatherPrimaryCoded":"::OV","cloudsCoded":"OV","icon":"cloudyn.png","heatindexC":4,"heatindexF":39,"windchillC":1,"windchillF":33,"feelslikeC":1,"feelslikeF":33,"isDay":false,"sunrise":1419250574,"sunriseISO":"2014-12-22T07:16:14-05:00","sunset":1419283609,"sunsetISO":"2014-12-22T16:26:49-05:00","snowDepthCM":null,"snowDepthIN":null,"precipMM":0,"precipIN":0,"solradWM2":null,"light":0,"sky":100},"raw":"KOXC 230235Z 07008KT 10SM OVC008 04/01 A3022 RMK AO1"},{"id":"KSNC","loc":{"long":-72.5,"lat":41.383333333333},"place":{"name":"chester","state":"ct","country":"us","pretty_name":{"city":"Chester|Cedar Lake","region":"CT","country":"United States"}},"profile":{"tz":"America/New_York","elevM":127,"elevFT":417},"obTimestamp":1419302100,"obDateTime":"2014-12-22T21:35:00-05:00","ob":{"timestamp":1419302100,"dateTimeISO":"2014-12-22T21:35:00-05:00","tempC":5,"tempF":41,"dewpointC":4,"dewpointF":39,"humidity":93,"pressureMB":1025,"pressureIN":30.27,"spressureMB":1009,"spressureIN":29.8,"altimeterMB":1024,"altimeterIN":30.24,"windKTS":6,"windKPH":11,"windMPH":7,"windSpeedKTS":6,"windSpeedKPH":11,"windSpeedMPH":7,"windDirDEG":70,"windDir":"ENE","windGustKTS":null,"windGustKPH":null,"windGustMPH":null,"flightRule":"IFR","visibilityKM":6.437376,"visibilityMI":4,"weather":"Cloudy with Mist and Fog","weatherShort":"Mist and Fog","weatherCoded":"::BR,::OV","weatherPrimary":"Mist and Fog","weatherPrimaryCoded":"::BR","cloudsCoded":"OV","icon":"fogn.png","heatindexC":5,"heatindexF":41,"windchillC":5,"windchillF":41,"feelslikeC":5,"feelslikeF":41,"isDay":false,"sunrise":1419250406,"sunriseISO":"2014-12-22T07:13:26-05:00","sunset":1419283473,"sunsetISO":"2014-12-22T16:24:33-05:00","snowDepthCM":null,"snowDepthIN":null,"precipMM":0,"precipIN":0,"solradWM2":null,"light":0,"sky":100},"raw":"KSNC 230235Z AUTO 07006KT 4SM BR OVC009 05/04 A3024 RMK AO2"}]}