{"success":true,"error":null,"response":[{"id":"KBDL","loc":{"long":-72.683333333333,"lat":41.933333333333},"place":{"name":"windsor locks","state":"ct","country":"us","pretty_name":{"city":"Windsor Locks|Bull Run Corner","region":"CT","country":"United States"}},"profile":{"tz":"America/New_York","elevM":60,"elevFT":197},"obTimestamp":1417661460,"obDateTime":"2014-12-03T21:51:00-05:00","ob":{"timestamp":1417661460,"dateTimeISO":"2014-12-03T21:51:00-05:00","tempC":4,"tempF":39,"dewpointC":-1,"dewpointF":30,"humidity":70,"pressureMB":1020,"pressureIN":30.12,"spressureMB":1012,"spressureIN":29.88,"altimeterMB":1019,"altimeterIN":30.09,"windKTS":7,"windKPH":13,"windMPH":8,"windSpeedKTS":7,"windSpeedKPH":13,"windSpeedMPH":8,"windDirDEG":330,"windDir":"NNW","windGustKTS":null,"windGustKPH":null,"windGustMPH":null,"flightRule":"LIFR","visibilityKM":16.09344,"visibilityMI":10,"weather":"Mostly Clear","weatherShort":"Mostly Clear","weatherCoded":"::FW","weatherPrimary":"Mostly Clear","weatherPrimaryCoded":"::FW","cloudsCoded":"FW","icon":"pcloudyn.png","heatindexC":4,"heatindexF":39,"windchillC":1,"windchillF":33,"feelslikeC":1,"feelslikeF":33,"isDay":false,"sunrise":1417608108,"sunriseISO":"2014-12-03T07:01:48-05:00","sunset":1417641596,"sunsetISO":"2014-12-03T16:19:56-05:00","snowDepthCM":null,"snowDepthIN":null,"precipMM":0,"precipIN":0,"solradWM2":null,"light":0,"sky":19},"raw":"KBDL 040251Z 33007KT 10SM FEW025 FEW035 FEW055 04/M01 A3010 RMK AO2 SLP193 60000 T00441011 53043"},{"id":"KIJD","loc":{"long":-72.183333333333,"lat":41.75},"place":{"name":"willimantic","state":"ct","country":"us","pretty_name":{"city":"Willimantic|Mansfield Hollow","region":"CT","country":"United States"}},"profile":{"tz":"America/New_York","elevM":75,"elevFT":246},"obTimestamp":1417661520,"obDateTime":"2014-12-03T21:52:00-05:00","ob":{"timestamp":1417661520,"dateTimeISO":"2014-12-03T21:52:00-05:00","tempC":6,"tempF":43,"dewpointC":0,"dewpointF":32,"humidity":66,"pressureMB":1019,"pressureIN":30.09,"spressureMB":1010,"spressureIN":29.83,"altimeterMB":1019,"altimeterIN":30.09,"windKTS":12,"windKPH":22,"windMPH":14,"windSpeedKTS":12,"windSpeedKPH":22,"windSpeedMPH":14,"windDirDEG":300,"windDir":"WNW","windGustKTS":19,"windGustKPH":35,"windGustMPH":22,"flightRule":"LIFR","visibilityKM":16.09344,"visibilityMI":10,"weather":"Mostly Clear","weatherShort":"Mostly Clear","weatherCoded":"::FW","weatherPrimary":"Mostly Clear","weatherPrimaryCoded":"::FW","cloudsCoded":"FW","icon":"pcloudyn.png","heatindexC":6,"heatindexF":43,"windchillC":6,"windchillF":43,"feelslikeC":6,"feelslikeF":43,"isDay":false,"sunrise":1417607954,"sunriseISO":"2014-12-03T06:59:14-05:00","sunset":1417641509,"sunsetISO":"2014-12-03T16:18:29-05:00","snowDepthCM":null,"snowDepthIN":null,"precipMM":0,"precipIN":0,"solradWM2":null,"light":0,"windGustSpeedKTS":19,"windGustSpeedKPH":35,"windGustSpeedMPH":22,"sky":19},"raw":"KIJD 040252Z AUTO 30012G19KT 10SM FEW037 06/00 A3008 RMK AO2 SLP188 T00610000 53038"},{"id":"KBDR","loc":{"long":-73.133333333333,"lat":41.166666666667},"place":{"name":"bridgeport","state":"ct","country":"us","pretty_name":{"city":"Bridgeport|Lordship","region":"CT","country":"United States"}},"profile":{"tz":"America/New_York","elevM":7,"elevFT":23},"obTimestamp":1417661520,"obDateTime":"2014-12-03T21:52:00-05:00","ob":{"timestamp":1417661520,"dateTimeISO":"2014-12-03T21:52:00-05:00","tempC":6,"tempF":43,"dewpointC":-1,"dewpointF":30,"humidity":61,"pressureMB":1020,"pressureIN":30.12,"spressureMB":1019,"spressureIN":30.09,"altimeterMB":1020,"altimeterIN":30.12,"windKTS":8,"windKPH":15,"windMPH":9,"windSpeedKTS":8,"windSpeedKPH":15,"windSpeedMPH":9,"windDirDEG":270,"windDir":"W","windGustKTS":null,"windGustKPH":null,"windGustMPH":null,"flightRule":"LIFR","visibilityKM":16.09344,"visibilityMI":10,"weather":"Clear","weatherShort":"Clear","weatherCoded":"::CL","weatherPrimary":"Clear","weatherPrimaryCoded":"::CL","cloudsCoded":"CL","icon":"sunnyn.png","heatindexC":6,"heatindexF":43,"windchillC":6,"windchillF":43,"feelslikeC":6,"feelslikeF":43,"isDay":false,"sunrise":1417608077,"sunriseISO":"2014-12-03T07:01:17-05:00","sunset":1417641843,"sunsetISO":"2014-12-03T16:24:03-05:00","snowDepthCM":null,"snowDepthIN":null,"precipMM":0,"precipIN":0,"solradWM2":null,"light":0,"sky":0},"raw":"KBDR 040252Z 27008KT 10SM CLR 06/M01 A3012 RMK AO2 SLP201 T00611006 53027"},{"id":"KHVN","loc":{"long":-72.866666666667,"lat":41.266666666667},"place":{"name":"new haven/tweed","state":"ct","country":"us","pretty_name":{"city":"New Haven|Morris Cove","region":"CT","country":"United States"}},"profile":{"tz":"America/New_York","elevM":4,"elevFT":13},"obTimestamp":1417661580,"obDateTime":"2014-12-03T21:53:00-05:00","ob":{"timestamp":1417661580,"dateTimeISO":"2014-12-03T21:53:00-05:00","tempC":8,"tempF":46,"dewpointC":0,"dewpointF":32,"humidity":57,"pressureMB":1020,"pressureIN":30.12,"spressureMB":1020,"spressureIN":30.12,"altimeterMB":1020,"altimeterIN":30.12,"windKTS":8,"windKPH":15,"windMPH":9,"windSpeedKTS":8,"windSpeedKPH":15,"windSpeedMPH":9,"windDirDEG":280,"windDir":"W","windGustKTS":17,"windGustKPH":31,"windGustMPH":20,"flightRule":"LIFR","visibilityKM":16.09344,"visibilityMI":10,"weather":"Clear","weatherShort":"Clear","weatherCoded":"::CL","weatherPrimary":"Clear","weatherPrimaryCoded":"::CL","cloudsCoded":"CL","icon":"sunnyn.png","heatindexC":8,"heatindexF":46,"windchillC":8,"windchillF":46,"feelslikeC":8,"feelslikeF":46,"isDay":false,"sunrise":1417608031,"sunriseISO":"2014-12-03T07:00:31-05:00","sunset":1417641761,"sunsetISO":"2014-12-03T16:22:41-05:00","snowDepthCM":null,"snowDepthIN":null,"precipMM":0,"precipIN":0,"solradWM2":null,"light":0,"windGustSpeedKTS":17,"windGustSpeedKPH":31,"windGustSpeedMPH":20,"sky":0},"raw":"KHVN 040253Z AUTO 28008G17KT 10SM CLR 08/00 A3011 RMK AO2 SLP197 T00830000 53027"},{"id":"KHFD","loc":{"long":-72.65,"lat":41.733333333333},"place":{"name":"hartford/brainar","state":"ct","country":"us","pretty_name":{"city":"Hartford|Colonial Mobile Home Park","region":"CT","country":"United States"}},"profile":{"tz":"America/New_York","elevM":4,"elevFT":13},"obTimestamp":1417661580,"obDateTime":"2014-12-03T21:53:00-05:00","ob":{"timestamp":1417661580,"dateTimeISO":"2014-12-03T21:53:00-05:00","tempC":6,"tempF":43,"dewpointC":1,"dewpointF":34,"humidity":71,"pressureMB":1020,"pressureIN":30.12,"spressureMB":1020,"spressureIN":30.12,"altimeterMB":1020,"altimeterIN":30.12,"windKTS":5,"windKPH":9,"windMPH":6,"windSpeedKTS":5,"windSpeedKPH":9,"windSpeedMPH":6,"windDirDEG":0,"windDir":"N","windGustKTS":null,"windGustKPH":null,"windGustMPH":null,"flightRule":"LIFR","visibilityKM":16.09344,"visibilityMI":10,"weather":"Mostly Clear","weatherShort":"Mostly Clear","weatherCoded":"::FW","weatherPrimary":"Mostly Clear","weatherPrimaryCoded":"::FW","cloudsCoded":"FW","icon":"pcloudyn.png","heatindexC":6,"heatindexF":43,"windchillC":6,"windchillF":43,"feelslikeC":6,"feelslikeF":43,"isDay":false,"sunrise":1417608063,"sunriseISO":"2014-12-03T07:01:03-05:00","sunset":1417641625,"sunsetISO":"2014-12-03T16:20:25-05:00","snowDepthCM":null,"snowDepthIN":null,"precipMM":0,"precipIN":0,"solradWM2":null,"light":0,"sky":19},"raw":"KHFD 040253Z VRB05KT 10SM FEW032 06/01 A3011 RMK AO2 SLP194 T00560006 53038"},{"id":"KMMK","loc":{"long":-72.833333333333,"lat":41.516666666667},"place":{"name":"meriden","state":"ct","country":"us","pretty_name":{"city":"Meriden|South Meriden","region":"CT","country":"United States"}},"profile":{"tz":"America/New_York","elevM":31,"elevFT":102},"obTimestamp":1417661580,"obDateTime":"2014-12-03T21:53:00-05:00","ob":{"timestamp":1417661580,"dateTimeISO":"2014-12-03T21:53:00-05:00","tempC":6,"tempF":43,"dewpointC":0,"dewpointF":32,"humidity":66,"pressureMB":1020,"pressureIN":30.12,"spressureMB":1016,"spressureIN":30,"altimeterMB":1020,"altimeterIN":30.12,"windKTS":4,"windKPH":7,"windMPH":5,"windSpeedKTS":4,"windSpeedKPH":7,"windSpeedMPH":5,"windDirDEG":310,"windDir":"NW","windGustKTS":null,"windGustKPH":null,"windGustMPH":null,"flightRule":"LIFR","visibilityKM":16.09344,"visibilityMI":10,"weather":"Clear","weatherShort":"Clear","weatherCoded":"::CL","weatherPrimary":"Clear","weatherPrimaryCoded":"::CL","cloudsCoded":"CL","icon":"sunnyn.png","heatindexC":6,"heatindexF":43,"windchillC":6,"windchillF":43,"feelslikeC":6,"feelslikeF":43,"isDay":false,"sunrise":1417608068,"sunriseISO":"2014-12-03T07:01:08-05:00","sunset":1417641708,"sunsetISO":"2014-12-03T16:21:48-05:00","snowDepthCM":null,"snowDepthIN":null,"precipMM":0,"precipIN":0,"solradWM2":null,"light":0,"sky":0},"raw":"KMMK 040253Z AUTO 31004KT 10SM CLR 06/00 A3011 RMK AO2 SLP196 T00560000 53030 TSNO"},{"id":"KDXR","loc":{"long":-73.483333333333,"lat":41.366666666667},"place":{"name":"danbury","state":"ct","country":"us","pretty_name":{"city":"Danbury|Miry Brook","region":"CT","country":"United States"}},"profile":{"tz":"America/New_York","elevM":139,"elevFT":456},"obTimestamp":1417661580,"obDateTime":"2014-12-03T21:53:00-05:00","ob":{"timestamp":1417661580,"dateTimeISO":"2014-12-03T21:53:00-05:00","tempC":4,"tempF":39,"dewpointC":-3,"dewpointF":27,"humidity":61,"pressureMB":1020,"pressureIN":30.12,"spressureMB":1003,"spressureIN":29.62,"altimeterMB":1020,"altimeterIN":30.12,"windKTS":9,"windKPH":17,"windMPH":10,"windSpeedKTS":9,"windSpeedKPH":17,"windSpeedMPH":10,"windDirDEG":280,"windDir":"W","windGustKTS":15,"windGustKPH":28,"windGustMPH":17,"flightRule":"LIFR","visibilityKM":16.09344,"visibilityMI":10,"weather":"Clear","weatherShort":"Clear","weatherCoded":"::CL","weatherPrimary":"Clear","weatherPrimaryCoded":"::CL","cloudsCoded":"CL","icon":"sunnyn.png","heatindexC":4,"heatindexF":39,"windchillC":0,"windchillF":32,"feelslikeC":0,"feelslikeF":32,"isDay":false,"sunrise":1417608197,"sunriseISO":"2014-12-03T07:03:17-05:00","sunset":1417641891,"sunsetISO":"2014-12-03T16:24:51-05:00","snowDepthCM":null,"snowDepthIN":null,"precipMM":0,"precipIN":0,"solradWM2":null,"light":0,"windGustSpeedKTS":15,"windGustSpeedKPH":28,"windGustSpeedMPH":17,"sky":0},"raw":"KDXR 040253Z AUTO 28009G15KT 10SM CLR 04/M03 A3013 RMK AO2 SLP206 T00441028 51034"},{"id":"KGON","loc":{"long":-72.05,"lat":41.333333333333},"place":{"name":"groton/new londo","state":"ct","country":"us","pretty_name":{"city":"Groton|Midway","region":"CT","country":"United States"}},"profile":{"tz":"America/New_York","elevM":3,"elevFT":10},"obTimestamp":1417661760,"obDateTime":"2014-12-03T21:56:00-05:00","ob":{"timestamp":1417661760,"dateTimeISO":"2014-12-03T21:56:00-05:00","tempC":6,"tempF":43,"dewpointC":2,"dewpointF":36,"humidity":76,"pressureMB":1019,"pressureIN":30.09,"spressureMB":1019,"spressureIN":30.09,"altimeterMB":1019,"altimeterIN":30.09,"windKTS":7,"windKPH":13,"windMPH":8,"windSpeedKTS":7,"windSpeedKPH":13,"windSpeedMPH":8,"windDirDEG":290,"windDir":"WNW","windGustKTS":null,"windGustKPH":null,"windGustMPH":null,"flightRule":"LIFR","visibilityKM":12.874752,"visibilityMI":8,"weather":"Partly Cloudy","weatherShort":"Partly Cloudy","weatherCoded":"::SC","weatherPrimary":"Partly Cloudy","weatherPrimaryCoded":"::SC","cloudsCoded":"SC","icon":"pcloudyn.png","heatindexC":6,"heatindexF":43,"windchillC":6,"windchillF":43,"feelslikeC":6,"feelslikeF":43,"isDay":false,"sunrise":1417607846,"sunriseISO":"2014-12-03T06:57:26-05:00","sunset":1417641553,"sunsetISO":"2014-12-03T16:19:13-05:00","snowDepthCM":null,"snowDepthIN":null,"precipMM":0,"precipIN":0,"solradWM2":null,"light":0,"sky":44},"raw":"KGON 040256Z AUTO 29007KT 8SM SCT035 06/02 A3009 RMK AO2 SLP190 T00610017 53032"},{"id":"KSNC","loc":{"long":-72.5,"lat":41.383333333333},"place":{"name":"chester","state":"ct","country":"us","pretty_name":{"city":"Chester|Cedar Lake","region":"CT","country":"United States"}},"profile":{"tz":"America/New_York","elevM":127,"elevFT":417},"obTimestamp":1417662900,"obDateTime":"2014-12-03T22:15:00-05:00","ob":{"timestamp":1417662900,"dateTimeISO":"2014-12-03T22:15:00-05:00","tempC":5,"tempF":41,"dewpointC":0,"dewpointF":32,"humidity":70,"pressureMB":1020,"pressureIN":30.12,"spressureMB":1004,"spressureIN":29.65,"altimeterMB":1019,"altimeterIN":30.09,"windKTS":7,"windKPH":13,"windMPH":8,"windSpeedKTS":7,"windSpeedKPH":13,"windSpeedMPH":8,"windDirDEG":290,"windDir":"WNW","windGustKTS":null,"windGustKPH":null,"windGustMPH":null,"flightRule":"LIFR","visibilityKM":16.09344,"visibilityMI":10,"weather":"Clear","weatherShort":"Clear","weatherCoded":"::CL","weatherPrimary":"Clear","weatherPrimaryCoded":"::CL","cloudsCoded":"CL","icon":"sunnyn.png","heatindexC":5,"heatindexF":41,"windchillC":5,"windchillF":41,"feelslikeC":5,"feelslikeF":41,"isDay":false,"sunrise":1417607963,"sunriseISO":"2014-12-03T06:59:23-05:00","sunset":1417641652,"sunsetISO":"2014-12-03T16:20:52-05:00","snowDepthCM":null,"snowDepthIN":null,"precipMM":0,"precipIN":0,"solradWM2":null,"light":0,"sky":0},"raw":"KSNC 040315Z AUTO 29007KT 10SM CLR 05/00 A3010 RMK AO2"},{"id":"KOXC","loc":{"long":-73.133333333333,"lat":41.466666666667},"place":{"name":"oxford/waterbury","state":"ct","country":"us","pretty_name":{"city":"Oxford|Southford","region":"CT","country":"United States"}},"profile":{"tz":"America/New_York","elevM":222,"elevFT":728},"obTimestamp":1417664100,"obDateTime":"2014-12-03T22:35:00-05:00","ob":{"timestamp":1417664100,"dateTimeISO":"2014-12-03T22:35:00-05:00","tempC":3,"tempF":37,"dewpointC":-3,"dewpointF":27,"humidity":65,"pressureMB":1022,"pressureIN":30.18,"spressureMB":994,"spressureIN":29.35,"altimeterMB":1021,"altimeterIN":30.15,"windKTS":5,"windKPH":9,"windMPH":6,"windSpeedKTS":5,"windSpeedKPH":9,"windSpeedMPH":6,"windDirDEG":280,"windDir":"W","windGustKTS":null,"windGustKPH":null,"windGustMPH":null,"flightRule":"LIFR","visibilityKM":16.09344,"visibilityMI":10,"weather":"Clear","weatherShort":"Clear","weatherCoded":"::CL","weatherPrimary":"Clear","weatherPrimaryCoded":"::CL","cloudsCoded":"CL","icon":"sunnyn.png","heatindexC":3,"heatindexF":37,"windchillC":0,"windchillF":32,"feelslikeC":0,"feelslikeF":32,"isDay":false,"sunrise":1417608131,"sunriseISO":"2014-12-03T07:02:11-05:00","sunset":1417641789,"sunsetISO":"2014-12-03T16:23:09-05:00","snowDepthCM":null,"snowDepthIN":null,"precipMM":0,"precipIN":0,"solradWM2":null,"light":0,"sky":0},"raw":"KOXC 040335Z 28005KT 10SM CLR 03/M03 A3014 RMK AO1"}]}