{"success":true,"error":null,"response":[{"id":"MUSC","loc":{"long":-79.95,"lat":22.5},"place":{"name":"santa clara","state":"","country":"cu","pretty_name":{"city":"Abel Santamaria|La Caridad","region":"5","country":"Cuba"}},"profile":{"tz":"America/Havana","elevM":103,"elevFT":338},"obTimestamp":1417801800,"obDateTime":"2014-12-05T12:50:00-05:00","ob":{"timestamp":1417801800,"dateTimeISO":"2014-12-05T12:50:00-05:00","tempC":27,"tempF":81,"dewpointC":19,"dewpointF":66,"humidity":62,"pressureMB":1019,"pressureIN":30.09,"spressureMB":1007,"spressureIN":29.74,"altimeterMB":null,"altimeterIN":null,"windKTS":17,"windKPH":31,"windMPH":20,"windSpeedKTS":17,"windSpeedKPH":31,"windSpeedMPH":20,"windDirDEG":80,"windDir":"E","windGustKTS":null,"windGustKPH":null,"windGustMPH":null,"flightRule":"MVFR","visibilityKM":9,"visibilityMI":5.59,"weather":"Mostly Cloudy","weatherShort":"Mostly Cloudy","weatherCoded":"::BK","weatherPrimary":"Mostly Cloudy","weatherPrimaryCoded":"::BK","cloudsCoded":"BK","icon":"mcloudy.png","heatindexC":28,"heatindexF":83,"windchillC":27,"windchillF":81,"feelslikeC":28,"feelslikeF":83,"isDay":true,"sunrise":1417779974,"sunriseISO":"2014-12-05T06:46:14-05:00","sunset":1417818918,"sunsetISO":"2014-12-05T17:35:18-05:00","snowDepthCM":null,"snowDepthIN":null,"precipMM":null,"precipIN":null,"solradWM2":null,"light":67,"sky":81},"raw":"MUSC 051750Z 08017KT 9000 BKN020 27/19 Q1019"},{"id":"MUHG","loc":{"long":-76.316666666667,"lat":20.766666666667},"place":{"name":"holguin (civ/mil","state":"","country":"cu","pretty_name":{"city":"Holguin|Los Бngeles|Providencia","region":"11","country":"Cuba"}},"profile":{"tz":"America/Havana","elevM":106,"elevFT":348},"obTimestamp":1417801800,"obDateTime":"2014-12-05T12:50:00-05:00","ob":{"timestamp":1417801800,"dateTimeISO":"2014-12-05T12:50:00-05:00","tempC":28,"tempF":82,"dewpointC":21,"dewpointF":70,"humidity":66,"pressureMB":1016,"pressureIN":30,"spressureMB":1004,"spressureIN":29.65,"altimeterMB":null,"altimeterIN":null,"windKTS":16,"windKPH":30,"windMPH":18,"windSpeedKTS":16,"windSpeedKPH":30,"windSpeedMPH":18,"windDirDEG":50,"windDir":"NE","windGustKTS":null,"windGustKPH":null,"windGustMPH":null,"flightRule":"MVFR","visibilityKM":9,"visibilityMI":5.59,"weather":"Mostly Cloudy with Light Rain","weatherShort":"Light Rain","weatherCoded":":L:R,::BK","weatherPrimary":"Light Rain","weatherPrimaryCoded":":L:R","cloudsCoded":"BK","icon":"rain.png","heatindexC":30,"heatindexF":86,"windchillC":28,"windchillF":82,"feelslikeC":30,"feelslikeF":86,"isDay":true,"sunrise":1417778903,"sunriseISO":"2014-12-05T06:28:23-05:00","sunset":1417818244,"sunsetISO":"2014-12-05T17:24:04-05:00","snowDepthCM":null,"snowDepthIN":null,"precipMM":null,"precipIN":null,"solradWM2":null,"light":66,"sky":81},"raw":"MUHG 051750Z 05016KT 9000 -RA BKN025 28/21 Q1016"},{"id":"MUCF","loc":{"long":-80.4,"lat":22.133333333333},"place":{"name":"cienfuegos(civ/m","state":"","country":"cu","pretty_name":{"city":"Montserrat|La Josefa","region":"6","country":"Cuba"}},"profile":{"tz":"America/Havana","elevM":39,"elevFT":128},"obTimestamp":1417801860,"obDateTime":"2014-12-05T12:51:00-05:00","ob":{"timestamp":1417801860,"dateTimeISO":"2014-12-05T12:51:00-05:00","tempC":29,"tempF":84,"dewpointC":21,"dewpointF":70,"humidity":62,"pressureMB":1017,"pressureIN":30.03,"spressureMB":1013,"spressureIN":29.91,"altimeterMB":null,"altimeterIN":null,"windKTS":13,"windKPH":24,"windMPH":15,"windSpeedKTS":13,"windSpeedKPH":24,"windSpeedMPH":15,"windDirDEG":70,"windDir":"ENE","windGustKTS":null,"windGustKPH":null,"windGustMPH":null,"flightRule":"LIFR","visibilityKM":null,"visibilityMI":null,"weather":"Partly Cloudy","weatherShort":"Partly Cloudy","weatherCoded":"::SC","weatherPrimary":"Partly Cloudy","weatherPrimaryCoded":"::SC","cloudsCoded":"SC","icon":"pcloudy.png","heatindexC":31,"heatindexF":88,"windchillC":29,"windchillF":84,"feelslikeC":31,"feelslikeF":88,"isDay":true,"sunrise":1417780040,"sunriseISO":"2014-12-05T06:47:20-05:00","sunset":1417819068,"sunsetISO":"2014-12-05T17:37:48-05:00","snowDepthCM":null,"snowDepthIN":null,"precipMM":null,"precipIN":null,"solradWM2":null,"light":67,"sky":44},"raw":"MUCF 051751Z 07013KT 040V110 9999 SCT025 29/21 Q1017"},{"id":"MUCL","loc":{"long":-81.55,"lat":21.633333333333},"place":{"name":"cayo largo d sur","state":"","country":"cu","pretty_name":{"city":"Cayo Largo Del Sur|Marina Cayo Largo","region":"99","country":"Cuba"}},"profile":{"tz":"America/Havana","elevM":5,"elevFT":16},"obTimestamp":1417801860,"obDateTime":"2014-12-05T12:51:00-05:00","ob":{"timestamp":1417801860,"dateTimeISO":"2014-12-05T12:51:00-05:00","tempC":27,"tempF":81,"dewpointC":21,"dewpointF":70,"humidity":70,"pressureMB":1017,"pressureIN":30.03,"spressureMB":1016,"spressureIN":30,"altimeterMB":null,"altimeterIN":null,"windKTS":10,"windKPH":19,"windMPH":12,"windSpeedKTS":10,"windSpeedKPH":19,"windSpeedMPH":12,"windDirDEG":40,"windDir":"NE","windGustKTS":null,"windGustKPH":null,"windGustMPH":null,"flightRule":"LIFR","visibilityKM":null,"visibilityMI":null,"weather":"Mostly Sunny","weatherShort":"Mostly Sunny","weatherCoded":"::FW","weatherPrimary":"Mostly Sunny","weatherPrimaryCoded":"::FW","cloudsCoded":"FW","icon":"pcloudy.png","heatindexC":29,"heatindexF":85,"windchillC":27,"windchillF":81,"feelslikeC":29,"feelslikeF":85,"isDay":true,"sunrise":1417780258,"sunriseISO":"2014-12-05T06:50:58-05:00","sunset":1417819402,"sunsetISO":"2014-12-05T17:43:22-05:00","snowDepthCM":null,"snowDepthIN":null,"precipMM":null,"precipIN":null,"solradWM2":null,"light":78,"sky":19},"raw":"MUCL 051751Z 04010KT 9999 FEW020 27/21 Q1017"},{"id":"MUCM","loc":{"long":-77.85,"lat":21.416666666667},"place":{"name":"camaguey/iganci","state":"","country":"cu","pretty_name":{"city":"Camaguey|El Prуximo","region":"9","country":"Cuba"}},"profile":{"tz":"America/Havana","elevM":122,"elevFT":400},"obTimestamp":1417801860,"obDateTime":"2014-12-05T12:51:00-05:00","ob":{"timestamp":1417801860,"dateTimeISO":"2014-12-05T12:51:00-05:00","tempC":28,"tempF":82,"dewpointC":20,"dewpointF":68,"humidity":62,"pressureMB":1018,"pressureIN":30.06,"spressureMB":1004,"spressureIN":29.65,"altimeterMB":null,"altimeterIN":null,"windKTS":18,"windKPH":33,"windMPH":21,"windSpeedKTS":18,"windSpeedKPH":33,"windSpeedMPH":21,"windDirDEG":60,"windDir":"ENE","windGustKTS":null,"windGustKPH":null,"windGustMPH":null,"flightRule":"LIFR","visibilityKM":9,"visibilityMI":5.59,"weather":"Partly Cloudy","weatherShort":"Partly Cloudy","weatherCoded":"::SC","weatherPrimary":"Partly Cloudy","weatherPrimaryCoded":"::SC","cloudsCoded":"SC","icon":"pcloudy.png","heatindexC":29,"heatindexF":85,"windchillC":28,"windchillF":82,"feelslikeC":29,"feelslikeF":85,"isDay":true,"sunrise":1417779345,"sunriseISO":"2014-12-05T06:35:45-05:00","sunset":1417818538,"sunsetISO":"2014-12-05T17:28:58-05:00","snowDepthCM":null,"snowDepthIN":null,"precipMM":null,"precipIN":null,"solradWM2":null,"light":67,"sky":44},"raw":"MUCM 051751Z 06018KT 9000 SCT018 28/20 Q1018"},{"id":"MUCU","loc":{"long":-75.833333333333,"lat":19.966666666667},"place":{"name":"santiago de cub","state":"","country":"cu","pretty_name":{"city":"Santiago De Cuba|Nuevo Santiago","region":"13","country":"Cuba"}},"profile":{"tz":"America/Havana","elevM":76,"elevFT":249},"obTimestamp":1417801860,"obDateTime":"2014-12-05T12:51:00-05:00","ob":{"timestamp":1417801860,"dateTimeISO":"2014-12-05T12:51:00-05:00","tempC":32,"tempF":90,"dewpointC":16,"dewpointF":61,"humidity":38,"pressureMB":1015,"pressureIN":29.97,"spressureMB":1006,"spressureIN":29.71,"altimeterMB":null,"altimeterIN":null,"windKTS":10,"windKPH":19,"windMPH":12,"windSpeedKTS":10,"windSpeedKPH":19,"windSpeedMPH":12,"windDirDEG":50,"windDir":"NE","windGustKTS":null,"windGustKPH":null,"windGustMPH":null,"flightRule":"LIFR","visibilityKM":9,"visibilityMI":5.59,"weather":"Partly Cloudy","weatherShort":"Partly Cloudy","weatherCoded":"::SC","weatherPrimary":"Partly Cloudy","weatherPrimaryCoded":"::SC","cloudsCoded":"SC","icon":"pcloudy.png","heatindexC":32,"heatindexF":90,"windchillC":32,"windchillF":90,"feelslikeC":32,"feelslikeF":90,"isDay":true,"sunrise":1417778697,"sunriseISO":"2014-12-05T06:24:57-05:00","sunset":1417818218,"sunsetISO":"2014-12-05T17:23:38-05:00","snowDepthCM":null,"snowDepthIN":null,"precipMM":null,"precipIN":null,"solradWM2":null,"light":66,"sky":44},"raw":"MUCU 051751Z 05010KT 360V090 9000 SCT020 32/16 Q1015"},{"id":"MUVR","loc":{"long":-81.433333333333,"lat":23.033333333333},"place":{"name":"varadero","state":"","country":"cu","pretty_name":{"city":"Varadero|El Tumbadero","region":"4","country":"Cuba"}},"profile":{"tz":"America/Havana","elevM":65,"elevFT":213},"obTimestamp":1417801920,"obDateTime":"2014-12-05T12:52:00-05:00","ob":{"timestamp":1417801920,"dateTimeISO":"2014-12-05T12:52:00-05:00","tempC":27,"tempF":81,"dewpointC":20,"dewpointF":68,"humidity":66,"pressureMB":1019,"pressureIN":30.09,"spressureMB":1011,"spressureIN":29.85,"altimeterMB":null,"altimeterIN":null,"windKTS":16,"windKPH":30,"windMPH":18,"windSpeedKTS":16,"windSpeedKPH":30,"windSpeedMPH":18,"windDirDEG":60,"windDir":"ENE","windGustKTS":null,"windGustKPH":null,"windGustMPH":null,"flightRule":"LIFR","visibilityKM":null,"visibilityMI":null,"weather":"Partly Cloudy","weatherShort":"Partly Cloudy","weatherCoded":"::SC","weatherPrimary":"Partly Cloudy","weatherPrimaryCoded":"::SC","cloudsCoded":"SC","icon":"pcloudy.png","heatindexC":29,"heatindexF":84,"windchillC":27,"windchillF":81,"feelslikeC":29,"feelslikeF":84,"isDay":true,"sunrise":1417780392,"sunriseISO":"2014-12-05T06:53:12-05:00","sunset":1417819212,"sunsetISO":"2014-12-05T17:40:12-05:00","snowDepthCM":null,"snowDepthIN":null,"precipMM":null,"precipIN":null,"solradWM2":null,"light":67,"sky":44},"raw":"MUVR 051752Z 06016KT 9999 SCT020 27/20 Q1019"},{"id":"MUCC","loc":{"long":-78.333333333333,"lat":22.466666666667},"place":{"name":"canagua","state":"","country":"cu","pretty_name":{"city":"Cayo Coco|El Socorro","region":"8","country":"Cuba"}},"profile":{"tz":"America/Havana","elevM":4,"elevFT":13},"obTimestamp":1417801920,"obDateTime":"2014-12-05T12:52:00-05:00","ob":{"timestamp":1417801920,"dateTimeISO":"2014-12-05T12:52:00-05:00","tempC":28,"tempF":82,"dewpointC":20,"dewpointF":68,"humidity":62,"pressureMB":1018,"pressureIN":30.06,"spressureMB":1018,"spressureIN":30.06,"altimeterMB":null,"altimeterIN":null,"windKTS":16,"windKPH":30,"windMPH":18,"windSpeedKTS":16,"windSpeedKPH":30,"windSpeedMPH":18,"windDirDEG":60,"windDir":"ENE","windGustKTS":null,"windGustKPH":null,"windGustMPH":null,"flightRule":"LIFR","visibilityKM":9,"visibilityMI":5.59,"weather":"Partly Cloudy","weatherShort":"Partly Cloudy","weatherCoded":"::SC","weatherPrimary":"Partly Cloudy","weatherPrimaryCoded":"::SC","cloudsCoded":"SC","icon":"pcloudy.png","heatindexC":29,"heatindexF":85,"windchillC":28,"windchillF":82,"feelslikeC":29,"feelslikeF":85,"isDay":true,"sunrise":1417779582,"sunriseISO":"2014-12-05T06:39:42-05:00","sunset":1417818534,"sunsetISO":"2014-12-05T17:28:54-05:00","snowDepthCM":null,"snowDepthIN":null,"precipMM":null,"precipIN":null,"solradWM2":null,"light":67,"sky":44},"raw":"MUCC 051752Z 06016KT 9000 SCT020 28/20 Q1018"},{"id":"MUHA","loc":{"long":-82.416666666667,"lat":22.966666666667},"place":{"name":"havana/jose mar","state":"","country":"cu","pretty_name":{"city":"Havana","region":"3","country":"Cuba"}},"profile":{"tz":"America/Havana","elevM":64,"elevFT":210},"obTimestamp":1417802100,"obDateTime":"2014-12-05T12:55:00-05:00","ob":{"timestamp":1417802100,"dateTimeISO":"2014-12-05T12:55:00-05:00","tempC":27,"tempF":81,"dewpointC":18,"dewpointF":64,"humidity":58,"pressureMB":1019,"pressureIN":30.09,"spressureMB":1012,"spressureIN":29.88,"altimeterMB":null,"altimeterIN":null,"windKTS":9,"windKPH":17,"windMPH":10,"windSpeedKTS":9,"windSpeedKPH":17,"windSpeedMPH":10,"windDirDEG":60,"windDir":"ENE","windGustKTS":null,"windGustKPH":null,"windGustMPH":null,"flightRule":"LIFR","visibilityKM":9,"visibilityMI":5.59,"weather":"Mostly Cloudy","weatherShort":"Mostly Cloudy","weatherCoded":"::BK","weatherPrimary":"Mostly Cloudy","weatherPrimaryCoded":"::BK","cloudsCoded":"BK","icon":"mcloudy.png","heatindexC":28,"heatindexF":83,"windchillC":27,"windchillF":81,"feelslikeC":28,"feelslikeF":83,"isDay":true,"sunrise":1417780621,"sunriseISO":"2014-12-05T06:57:01-05:00","sunset":1417819455,"sunsetISO":"2014-12-05T17:44:15-05:00","snowDepthCM":null,"snowDepthIN":null,"precipMM":null,"precipIN":null,"solradWM2":null,"light":68,"sky":81},"raw":"MUHA 051755Z 06009KT 9000 BKN033 27/18 Q1019"},{"id":"MUGM","loc":{"long":-75.2,"lat":19.9},"place":{"name":"guantanamo bay","state":"","country":"cu","pretty_name":{"city":"Guantanamo Bay|Phillips Park","region":"14","country":"Cuba"}},"profile":{"tz":"America/Havana","elevM":17,"elevFT":56},"obTimestamp":1417802160,"obDateTime":"2014-12-05T12:56:00-05:00","ob":{"timestamp":1417802160,"dateTimeISO":"2014-12-05T12:56:00-05:00","tempC":31,"tempF":88,"dewpointC":21,"dewpointF":70,"humidity":55,"pressureMB":1015,"pressureIN":29.97,"spressureMB":1013,"spressureIN":29.91,"altimeterMB":1015,"altimeterIN":29.97,"windKTS":7,"windKPH":13,"windMPH":8,"windSpeedKTS":7,"windSpeedKPH":13,"windSpeedMPH":8,"windDirDEG":140,"windDir":"SE","windGustKTS":null,"windGustKPH":null,"windGustMPH":null,"flightRule":"LIFR","visibilityKM":null,"visibilityMI":null,"weather":"Partly Cloudy","weatherShort":"Partly Cloudy","weatherCoded":"::SC","weatherPrimary":"Partly Cloudy","weatherPrimaryCoded":"::SC","cloudsCoded":"SC","icon":"pcloudy.png","heatindexC":34,"heatindexF":93,"windchillC":31,"windchillF":88,"feelslikeC":34,"feelslikeF":93,"isDay":true,"sunrise":1417778537,"sunriseISO":"2014-12-05T06:22:17-05:00","sunset":1417818074,"sunsetISO":"2014-12-05T17:21:14-05:00","snowDepthCM":null,"snowDepthIN":null,"precipMM":0,"precipIN":0,"solradWM2":null,"light":65,"tempMax6hrC":31.7,"tempMax6hrF":89,"tempMin6hrC":22.8,"tempMin6hrF":73,"sky":44},"raw":"MUGM 051756Z 14007KT 9999 FEW036 SCT280 31/21 A2998 RMK SLP150 T03060211 10317 20228 58018"}]}