{"success":true,"error":null,"response":[{"id":"LCRA","loc":{"long":32.966666666667,"lat":34.566666666667},"place":{"name":"akrotiri (raf)","state":"","country":"cy","pretty_name":{"city":"Akrotiri|Pissouri","region":"2","country":"Cyprus"}},"profile":{"tz":"Asia/Nicosia","elevM":23,"elevFT":75},"obTimestamp":1417801800,"obDateTime":"2014-12-05T19:50:00+02:00","ob":{"timestamp":1417801800,"dateTimeISO":"2014-12-05T19:50:00+02:00","tempC":18,"tempF":64,"dewpointC":14,"dewpointF":57,"humidity":78,"pressureMB":1018,"pressureIN":30.06,"spressureMB":1015,"spressureIN":29.97,"altimeterMB":null,"altimeterIN":null,"windKTS":6,"windKPH":11,"windMPH":7,"windSpeedKTS":6,"windSpeedKPH":11,"windSpeedMPH":7,"windDirDEG":90,"windDir":"E","windGustKTS":null,"windGustKPH":null,"windGustMPH":null,"flightRule":"LIFR","visibilityKM":null,"visibilityMI":null,"weather":"Mostly Cloudy","weatherShort":"Mostly Cloudy","weatherCoded":"::BK","weatherPrimary":"Mostly Cloudy","weatherPrimaryCoded":"::BK","cloudsCoded":"BK","icon":"mcloudyn.png","heatindexC":18,"heatindexF":64,"windchillC":18,"windchillF":64,"feelslikeC":18,"feelslikeF":64,"isDay":false,"sunrise":1417754416,"sunriseISO":"2014-12-05T06:40:16+02:00","sunset":1417790245,"sunsetISO":"2014-12-05T16:37:25+02:00","snowDepthCM":null,"snowDepthIN":null,"precipMM":null,"precipIN":null,"solradWM2":null,"light":0,"sky":81},"raw":"LCRA 051750Z 09006KT 9999 FEW020 BKN250 18/14 Q1018 NOSIG"},{"id":"LCEN","loc":{"long":33.5,"lat":35.133333333333},"place":{"name":"ercan","state":"","country":"cy","pretty_name":{"city":"Tymbou","region":"1","country":"Cyprus"}},"profile":{"tz":"Asia/Nicosia","elevM":91,"elevFT":299},"obTimestamp":1417803600,"obDateTime":"2014-12-05T20:20:00+02:00","ob":{"timestamp":1417803600,"dateTimeISO":"2014-12-05T20:20:00+02:00","tempC":15,"tempF":59,"dewpointC":12,"dewpointF":54,"humidity":82,"pressureMB":1019,"pressureIN":30.09,"spressureMB":1008,"spressureIN":29.77,"altimeterMB":null,"altimeterIN":null,"windKTS":0,"windKPH":0,"windMPH":0,"windSpeedKTS":0,"windSpeedKPH":0,"windSpeedMPH":0,"windDirDEG":0,"windDir":"N","windGustKTS":null,"windGustKPH":null,"windGustMPH":null,"flightRule":"LIFR","visibilityKM":11.265408,"visibilityMI":7,"weather":"Mostly Clear","weatherShort":"Mostly Clear","weatherCoded":"::FW","weatherPrimary":"Mostly Clear","weatherPrimaryCoded":"::FW","cloudsCoded":"FW","icon":"pcloudyn.png","heatindexC":15,"heatindexF":59,"windchillC":15,"windchillF":59,"feelslikeC":15,"feelslikeF":59,"isDay":false,"sunrise":1417754373,"sunriseISO":"2014-12-05T06:39:33+02:00","sunset":1417790032,"sunsetISO":"2014-12-05T16:33:52+02:00","snowDepthCM":null,"snowDepthIN":null,"precipMM":null,"precipIN":null,"solradWM2":null,"sky":19,"light":0},"raw":"LCEN 051820Z 00000KT CAVOK 15/12 Q1019 NOSIG"},{"id":"LCPH","loc":{"long":32.466666666667,"lat":34.716666666667},"place":{"name":"paphos/baf intl","state":"","country":"cy","pretty_name":{"city":"Paphos|Pafos|Akhelia","region":"5","country":"Cyprus"}},"profile":{"tz":"Asia/Nicosia","elevM":8,"elevFT":26},"obTimestamp":1417804200,"obDateTime":"2014-12-05T20:30:00+02:00","ob":{"timestamp":1417804200,"dateTimeISO":"2014-12-05T20:30:00+02:00","tempC":16,"tempF":61,"dewpointC":13,"dewpointF":55,"humidity":83,"pressureMB":1019,"pressureIN":30.09,"spressureMB":1018,"spressureIN":30.06,"altimeterMB":null,"altimeterIN":null,"windKTS":3,"windKPH":6,"windMPH":3,"windSpeedKTS":3,"windSpeedKPH":6,"windSpeedMPH":3,"windDirDEG":20,"windDir":"NNE","windGustKTS":null,"windGustKPH":null,"windGustMPH":null,"flightRule":"LIFR","visibilityKM":11.265408,"visibilityMI":7,"weather":"Mostly Clear","weatherShort":"Mostly Clear","weatherCoded":"::FW","weatherPrimary":"Mostly Clear","weatherPrimaryCoded":"::FW","cloudsCoded":"FW","icon":"pcloudyn.png","heatindexC":16,"heatindexF":61,"windchillC":16,"windchillF":61,"feelslikeC":16,"feelslikeF":61,"isDay":false,"sunrise":1417754559,"sunriseISO":"2014-12-05T06:42:39+02:00","sunset":1417790343,"sunsetISO":"2014-12-05T16:39:03+02:00","snowDepthCM":null,"snowDepthIN":null,"precipMM":null,"precipIN":null,"solradWM2":null,"sky":19,"light":0},"raw":"LCPH 051830Z 02003KT CAVOK 16/13 Q1019"},{"id":"LCLK","loc":{"long":33.616666666667,"lat":34.866666666667},"place":{"name":"larnaca/larnax a","state":"","country":"cy","pretty_name":{"city":"Larnaca|Larnaka|Dhromolaxia","region":"3","country":"Cyprus"}},"profile":{"tz":"Asia/Nicosia","elevM":2,"elevFT":7},"obTimestamp":1417804200,"obDateTime":"2014-12-05T20:30:00+02:00","ob":{"timestamp":1417804200,"dateTimeISO":"2014-12-05T20:30:00+02:00","tempC":16,"tempF":61,"dewpointC":13,"dewpointF":55,"humidity":83,"pressureMB":1019,"pressureIN":30.09,"spressureMB":1019,"spressureIN":30.09,"altimeterMB":null,"altimeterIN":null,"windKTS":6,"windKPH":11,"windMPH":7,"windSpeedKTS":6,"windSpeedKPH":11,"windSpeedMPH":7,"windDirDEG":350,"windDir":"N","windGustKTS":null,"windGustKPH":null,"windGustMPH":null,"flightRule":"LIFR","visibilityKM":11.265408,"visibilityMI":7,"weather":"Mostly Clear","weatherShort":"Mostly Clear","weatherCoded":"::FW","weatherPrimary":"Mostly Clear","weatherPrimaryCoded":"::FW","cloudsCoded":"FW","icon":"pcloudyn.png","heatindexC":16,"heatindexF":61,"windchillC":16,"windchillF":61,"feelslikeC":16,"feelslikeF":61,"isDay":false,"sunrise":1417754305,"sunriseISO":"2014-12-05T06:38:25+02:00","sunset":1417790044,"sunsetISO":"2014-12-05T16:34:04+02:00","snowDepthCM":null,"snowDepthIN":null,"precipMM":null,"precipIN":null,"solradWM2":null,"sky":19,"light":0},"raw":"LCLK 051830Z 35006KT CAVOK 16/13 Q1019 NOSIG"}]}