{"success":true,"error":null,"response":[{"id":"KWBC","loc":{"long":-76.933333333333,"lat":38.85},"place":{"name":"nws hdqtrs","state":"dc","country":"us","pretty_name":{"city":"Suitland|Marlow Heights","region":"MD","country":"United States"}},"profile":{"tz":"America/New_York","elevM":50,"elevFT":164},"obTimestamp":1417656300,"obDateTime":"2014-12-03T20:25:00-05:00","ob":{"timestamp":1417656300,"dateTimeISO":"2014-12-03T20:25:00-05:00","tempC":14,"tempF":57,"dewpointC":13,"dewpointF":55,"humidity":94,"pressureMB":1024,"pressureIN":30.24,"spressureMB":1018,"spressureIN":30.06,"altimeterMB":1024,"altimeterIN":30.24,"windKTS":null,"windKPH":null,"windMPH":null,"windSpeedKTS":null,"windSpeedKPH":null,"windSpeedMPH":null,"windDirDEG":0,"windDir":"N","windGustKTS":null,"windGustKPH":null,"windGustMPH":null,"flightRule":"LIFR","visibilityKM":9.656064,"visibilityMI":6,"weather":"Partly Cloudy with Mist and Fog","weatherShort":"Mist and Fog","weatherCoded":"::BR,::SC","weatherPrimary":"Mist and Fog","weatherPrimaryCoded":"::BR","cloudsCoded":"SC","icon":"fogn.png","heatindexC":14,"heatindexF":57,"windchillC":14,"windchillF":57,"feelslikeC":14,"feelslikeF":57,"isDay":false,"sunrise":1417608590,"sunriseISO":"2014-12-03T07:09:50-05:00","sunset":1417643154,"sunsetISO":"2014-12-03T16:45:54-05:00","snowDepthCM":null,"snowDepthIN":null,"precipMM":0,"precipIN":0,"solradWM2":null,"light":0,"sky":44},"raw":"KWBC 040258 SPECI KNKT 040125Z 24003KT 6SM BR SCT005 14/13 A3024 RMK AO2 T01390133"},{"id":"KDCA","loc":{"long":-77.033333333333,"lat":38.85},"place":{"name":"washington/natl","state":"dc","country":"us","pretty_name":{"city":"Washington|Addison Heights","region":"DC","country":"United States"}},"profile":{"tz":"America/New_York","elevM":18,"elevFT":59},"obTimestamp":1417661520,"obDateTime":"2014-12-03T21:52:00-05:00","ob":{"timestamp":1417661520,"dateTimeISO":"2014-12-03T21:52:00-05:00","tempC":9,"tempF":48,"dewpointC":-3,"dewpointF":27,"humidity":43,"pressureMB":1026,"pressureIN":30.3,"spressureMB":1024,"spressureIN":30.24,"altimeterMB":1026,"altimeterIN":30.3,"windKTS":13,"windKPH":24,"windMPH":15,"windSpeedKTS":13,"windSpeedKPH":24,"windSpeedMPH":15,"windDirDEG":340,"windDir":"NNW","windGustKTS":21,"windGustKPH":39,"windGustMPH":24,"flightRule":"LIFR","visibilityKM":16.09344,"visibilityMI":10,"weather":"Cloudy","weatherShort":"Cloudy","weatherCoded":"::OV","weatherPrimary":"Cloudy","weatherPrimaryCoded":"::OV","cloudsCoded":"OV","icon":"cloudyn.png","heatindexC":9,"heatindexF":48,"windchillC":9,"windchillF":48,"feelslikeC":9,"feelslikeF":48,"isDay":false,"sunrise":1417608614,"sunriseISO":"2014-12-03T07:10:14-05:00","sunset":1417643178,"sunsetISO":"2014-12-03T16:46:18-05:00","snowDepthCM":null,"snowDepthIN":null,"precipMM":0,"precipIN":0,"solradWM2":null,"light":0,"windGustSpeedKTS":21,"windGustSpeedKPH":39,"windGustSpeedMPH":24,"sky":100},"raw":"KDCA 040252Z 34013G21KT 10SM OVC250 09/M03 A3029 RMK AO2 SLP255 T00891028 53030"}]}