{"success":true,"error":null,"response":[{"id":"KWBC","loc":{"long":-76.933333333333,"lat":38.85},"place":{"name":"nws hdqtrs","state":"dc","country":"us","pretty_name":{"city":"Suitland|Marlow Heights","region":"MD","country":"United States"}},"profile":{"tz":"America/New_York","elevM":50,"elevFT":164},"obTimestamp":1417740840,"obDateTime":"2014-12-04T19:54:00-05:00","ob":{"timestamp":1417740840,"dateTimeISO":"2014-12-04T19:54:00-05:00","tempC":10,"tempF":50,"dewpointC":5,"dewpointF":41,"humidity":71,"pressureMB":1029,"pressureIN":30.39,"spressureMB":1023,"spressureIN":30.21,"altimeterMB":1029,"altimeterIN":30.39,"windKTS":null,"windKPH":null,"windMPH":null,"windSpeedKTS":null,"windSpeedKPH":null,"windSpeedMPH":null,"windDirDEG":0,"windDir":"N","windGustKTS":null,"windGustKPH":null,"windGustMPH":null,"flightRule":"LIFR","visibilityKM":16.09344,"visibilityMI":10,"weather":"Partly Cloudy","weatherShort":"Partly Cloudy","weatherCoded":"::SC","weatherPrimary":"Partly Cloudy","weatherPrimaryCoded":"::SC","cloudsCoded":"SC","icon":"pcloudyn.png","heatindexC":10,"heatindexF":50,"windchillC":10,"windchillF":50,"feelslikeC":10,"feelslikeF":50,"isDay":false,"sunrise":1417695045,"sunriseISO":"2014-12-04T07:10:45-05:00","sunset":1417729548,"sunsetISO":"2014-12-04T16:45:48-05:00","snowDepthCM":null,"snowDepthIN":null,"precipMM":0,"precipIN":0,"solradWM2":null,"light":0,"sky":44},"raw":"KWBC 050100 METAR KNKT 050054Z 03011KT 10SM SCT200 10/05 A3039 RMK AO2 SLP288 T01000050 $"},{"id":"KDCA","loc":{"long":-77.033333333333,"lat":38.85},"place":{"name":"washington/natl","state":"dc","country":"us","pretty_name":{"city":"Washington|Addison Heights","region":"DC","country":"United States"}},"profile":{"tz":"America/New_York","elevM":18,"elevFT":59},"obTimestamp":1417755120,"obDateTime":"2014-12-04T23:52:00-05:00","ob":{"timestamp":1417755120,"dateTimeISO":"2014-12-04T23:52:00-05:00","tempC":6,"tempF":43,"dewpointC":-1,"dewpointF":30,"humidity":61,"pressureMB":1033,"pressureIN":30.5,"spressureMB":1031,"spressureIN":30.45,"altimeterMB":1033,"altimeterIN":30.5,"windKTS":0,"windKPH":0,"windMPH":0,"windSpeedKTS":0,"windSpeedKPH":0,"windSpeedMPH":0,"windDirDEG":0,"windDir":"N","windGustKTS":null,"windGustKPH":null,"windGustMPH":null,"flightRule":"LIFR","visibilityKM":16.09344,"visibilityMI":10,"weather":"Cloudy","weatherShort":"Cloudy","weatherCoded":"::OV","weatherPrimary":"Cloudy","weatherPrimaryCoded":"::OV","cloudsCoded":"OV","icon":"cloudyn.png","heatindexC":6,"heatindexF":43,"windchillC":6,"windchillF":43,"feelslikeC":6,"feelslikeF":43,"isDay":false,"sunrise":1417695069,"sunriseISO":"2014-12-04T07:11:09-05:00","sunset":1417729572,"sunsetISO":"2014-12-04T16:46:12-05:00","snowDepthCM":null,"snowDepthIN":null,"precipMM":0,"precipIN":0,"solradWM2":null,"light":0,"sky":100},"raw":"KDCA 050452Z 00000KT 10SM OVC070 06/M01 A3051 RMK AO2 SLP329 T00611006 400830028"}]}