{"success":true,"error":null,"response":[{"id":"KWBC","loc":{"long":-76.933333333333,"lat":38.85},"place":{"name":"nws hdqtrs","state":"dc","country":"us","pretty_name":{"city":"Suitland|Marlow Heights","region":"MD","country":"United States"}},"profile":{"tz":"America/New_York","elevM":50,"elevFT":164},"obTimestamp":1419298980,"obDateTime":"2014-12-22T20:43:00-05:00","ob":{"timestamp":1419298980,"dateTimeISO":"2014-12-22T20:43:00-05:00","tempC":8,"tempF":46,"dewpointC":7,"dewpointF":45,"humidity":93,"pressureMB":1017,"pressureIN":30.03,"spressureMB":1011,"spressureIN":29.85,"altimeterMB":1017,"altimeterIN":30.03,"windKTS":null,"windKPH":null,"windMPH":null,"windSpeedKTS":null,"windSpeedKPH":null,"windSpeedMPH":null,"windDirDEG":0,"windDir":"N","windGustKTS":null,"windGustKPH":null,"windGustMPH":null,"flightRule":"LIFR","visibilityKM":0.402336,"visibilityMI":0.25,"weather":"Mostly Cloudy with Fog","weatherShort":"Fog","weatherCoded":"::F,::BK","weatherPrimary":"Fog","weatherPrimaryCoded":"::F","cloudsCoded":"BK","icon":"fogn.png","heatindexC":8,"heatindexF":46,"windchillC":8,"windchillF":46,"feelslikeC":8,"feelslikeF":46,"isDay":false,"sunrise":1419251002,"sunriseISO":"2014-12-22T07:23:22-05:00","sunset":1419285006,"sunsetISO":"2014-12-22T16:50:06-05:00","snowDepthCM":null,"snowDepthIN":null,"precipMM":0,"precipIN":0,"solradWM2":null,"light":0,"sky":81},"raw":"KWBC 230146 SPECI KNKT 230143Z 34010KT 1/4SM FG VV002 08/07 A3002 RMK AO2 T00830072 $"},{"id":"KDCA","loc":{"long":-77.033333333333,"lat":38.85},"place":{"name":"washington/natl","state":"dc","country":"us","pretty_name":{"city":"Washington|Addison Heights","region":"DC","country":"United States"}},"profile":{"tz":"America/New_York","elevM":18,"elevFT":59},"obTimestamp":1419299520,"obDateTime":"2014-12-22T20:52:00-05:00","ob":{"timestamp":1419299520,"dateTimeISO":"2014-12-22T20:52:00-05:00","tempC":4,"tempF":39,"dewpointC":1,"dewpointF":34,"humidity":81,"pressureMB":1021,"pressureIN":30.15,"spressureMB":1019,"spressureIN":30.09,"altimeterMB":1021,"altimeterIN":30.15,"windKTS":7,"windKPH":13,"windMPH":8,"windSpeedKTS":7,"windSpeedKPH":13,"windSpeedMPH":8,"windDirDEG":360,"windDir":"N","windGustKTS":null,"windGustKPH":null,"windGustMPH":null,"flightRule":"IFR","visibilityKM":9.656064,"visibilityMI":6,"weather":"Cloudy with Light Drizzle","weatherShort":"Light Drizzle","weatherCoded":":L:L,::OV","weatherPrimary":"Light Drizzle","weatherPrimaryCoded":":L:L","cloudsCoded":"OV","icon":"drizzlen.png","heatindexC":4,"heatindexF":39,"windchillC":1,"windchillF":33,"feelslikeC":1,"feelslikeF":33,"isDay":false,"sunrise":1419251026,"sunriseISO":"2014-12-22T07:23:46-05:00","sunset":1419285030,"sunsetISO":"2014-12-22T16:50:30-05:00","snowDepthCM":null,"snowDepthIN":null,"precipMM":0.001,"precipIN":0.001,"solradWM2":null,"light":0,"sky":100},"raw":"KDCA 230152Z 36007KT 6SM -DZ BKN009 OVC012 04/01 A3015 RMK AO2 RAE13DZB26 SLP207 P0000 T00390011"}]}