{"success":true,"error":null,"response":[{"id":"KILG","loc":{"long":-75.6,"lat":39.666666666667},"place":{"name":"wilmington","state":"de","country":"us","pretty_name":{"city":"Wilmington|Duross Heights","region":"DE","country":"United States"}},"profile":{"tz":"America/New_York","elevM":28,"elevFT":92},"obTimestamp":1417755060,"obDateTime":"2014-12-04T23:51:00-05:00","ob":{"timestamp":1417755060,"dateTimeISO":"2014-12-04T23:51:00-05:00","tempC":3,"tempF":37,"dewpointC":-2,"dewpointF":28,"humidity":70,"pressureMB":1034,"pressureIN":30.53,"spressureMB":1030,"spressureIN":30.42,"altimeterMB":1033,"altimeterIN":30.5,"windKTS":3,"windKPH":6,"windMPH":3,"windSpeedKTS":3,"windSpeedKPH":6,"windSpeedMPH":3,"windDirDEG":340,"windDir":"NNW","windGustKTS":null,"windGustKPH":null,"windGustMPH":null,"flightRule":"LIFR","visibilityKM":16.09344,"visibilityMI":10,"weather":"Cloudy","weatherShort":"Cloudy","weatherCoded":"::OV","weatherPrimary":"Cloudy","weatherPrimaryCoded":"::OV","cloudsCoded":"OV","icon":"cloudyn.png","heatindexC":3,"heatindexF":37,"windchillC":2,"windchillF":35,"feelslikeC":2,"feelslikeF":35,"isDay":false,"sunrise":1417694863,"sunriseISO":"2014-12-04T07:07:43-05:00","sunset":1417729090,"sunsetISO":"2014-12-04T16:38:10-05:00","snowDepthCM":null,"snowDepthIN":null,"precipMM":0,"precipIN":0,"solradWM2":null,"light":0,"sky":100},"raw":"KILG 050451Z AUTO 34003KT 10SM BKN080 OVC095 03/M02 A3051 RMK AO2 SLP333 T00331022 400721017"},{"id":"KGED","loc":{"long":-75.366666666667,"lat":38.683333333333},"place":{"name":"georgetown","state":"de","country":"us","pretty_name":{"city":"Georgetown|Rogers Development","region":"DE","country":"United States"}},"profile":{"tz":"America/New_York","elevM":19,"elevFT":62},"obTimestamp":1417755240,"obDateTime":"2014-12-04T23:54:00-05:00","ob":{"timestamp":1417755240,"dateTimeISO":"2014-12-04T23:54:00-05:00","tempC":4,"tempF":39,"dewpointC":-2,"dewpointF":28,"humidity":65,"pressureMB":1033,"pressureIN":30.5,"spressureMB":1031,"spressureIN":30.45,"altimeterMB":1033,"altimeterIN":30.5,"windKTS":3,"windKPH":6,"windMPH":3,"windSpeedKTS":3,"windSpeedKPH":6,"windSpeedMPH":3,"windDirDEG":330,"windDir":"NNW","windGustKTS":null,"windGustKPH":null,"windGustMPH":null,"flightRule":"LIFR","visibilityKM":16.09344,"visibilityMI":10,"weather":"Cloudy with Light Rain","weatherShort":"Light Rain","weatherCoded":":L:R,::OV","weatherPrimary":"Light Rain","weatherPrimaryCoded":":L:R","cloudsCoded":"OV","icon":"rainn.png","heatindexC":4,"heatindexF":39,"windchillC":3,"windchillF":37,"feelslikeC":3,"feelslikeF":37,"isDay":false,"sunrise":1417694641,"sunriseISO":"2014-12-04T07:04:01-05:00","sunset":1417729200,"sunsetISO":"2014-12-04T16:40:00-05:00","snowDepthCM":null,"snowDepthIN":null,"precipMM":0.001,"precipIN":0.001,"solradWM2":null,"light":0,"sky":100},"raw":"KGED 050454Z AUTO 33003KT 10SM -RA BKN065 OVC080 04/M02 A3050 RMK AO2 RAB43 SLP330 P0000 T00441017 400781011"},{"id":"KDOV","loc":{"long":-75.466666666667,"lat":39.116666666667},"place":{"name":"dover afb","state":"de","country":"us","pretty_name":{"city":"Dover|Doverbrook Gardens","region":"DE","country":"United States"}},"profile":{"tz":"America/New_York","elevM":9,"elevFT":30},"obTimestamp":1417755480,"obDateTime":"2014-12-04T23:58:00-05:00","ob":{"timestamp":1417755480,"dateTimeISO":"2014-12-04T23:58:00-05:00","tempC":4,"tempF":39,"dewpointC":-2,"dewpointF":28,"humidity":65,"pressureMB":1032,"pressureIN":30.48,"spressureMB":1031,"spressureIN":30.45,"altimeterMB":1032,"altimeterIN":30.48,"windKTS":1,"windKPH":2,"windMPH":1,"windSpeedKTS":1,"windSpeedKPH":2,"windSpeedMPH":1,"windDirDEG":350,"windDir":"N","windGustKTS":null,"windGustKPH":null,"windGustMPH":null,"flightRule":"LIFR","visibilityKM":16.09344,"visibilityMI":10,"weather":"Cloudy","weatherShort":"Cloudy","weatherCoded":"::OV","weatherPrimary":"Cloudy","weatherPrimaryCoded":"::OV","cloudsCoded":"OV","icon":"cloudyn.png","heatindexC":4,"heatindexF":39,"windchillC":4,"windchillF":39,"feelslikeC":4,"feelslikeF":39,"isDay":false,"sunrise":1417694737,"sunriseISO":"2014-12-04T07:05:37-05:00","sunset":1417729152,"sunsetISO":"2014-12-04T16:39:12-05:00","snowDepthCM":null,"snowDepthIN":null,"precipMM":0,"precipIN":0,"solradWM2":null,"light":0,"sky":100},"raw":"KDOV 050458Z AUTO 35001KT 10SM OVC065 04/M02 A3048 RMK AO2 SLP325 T00371016 400681009 $"}]}