{"success":true,"error":null,"response":[{"id":"KGED","loc":{"long":-75.366666666667,"lat":38.683333333333},"place":{"name":"georgetown","state":"de","country":"us","pretty_name":{"city":"Georgetown|Rogers Development","region":"DE","country":"United States"}},"profile":{"tz":"America/New_York","elevM":19,"elevFT":62},"obTimestamp":1419299640,"obDateTime":"2014-12-22T20:54:00-05:00","ob":{"timestamp":1419299640,"dateTimeISO":"2014-12-22T20:54:00-05:00","tempC":7,"tempF":45,"dewpointC":5,"dewpointF":41,"humidity":87,"pressureMB":1019,"pressureIN":30.09,"spressureMB":1017,"spressureIN":30.03,"altimeterMB":1019,"altimeterIN":30.09,"windKTS":10,"windKPH":19,"windMPH":12,"windSpeedKTS":10,"windSpeedKPH":19,"windSpeedMPH":12,"windDirDEG":40,"windDir":"NE","windGustKTS":null,"windGustKPH":null,"windGustMPH":null,"flightRule":"LIFR","visibilityKM":11.265408,"visibilityMI":7,"weather":"Cloudy","weatherShort":"Cloudy","weatherCoded":"::OV","weatherPrimary":"Cloudy","weatherPrimaryCoded":"::OV","cloudsCoded":"OV","icon":"cloudyn.png","heatindexC":7,"heatindexF":45,"windchillC":7,"windchillF":45,"feelslikeC":7,"feelslikeF":45,"isDay":false,"sunrise":1419250596,"sunriseISO":"2014-12-22T07:16:36-05:00","sunset":1419284659,"sunsetISO":"2014-12-22T16:44:19-05:00","snowDepthCM":null,"snowDepthIN":null,"precipMM":0,"precipIN":0,"solradWM2":null,"light":0,"sky":100},"raw":"KGED 230154Z AUTO 04010KT 7SM FEW006 SCT018 OVC055 07/05 A3010 RMK AO2 SLP192 T00670050"},{"id":"KILG","loc":{"long":-75.6,"lat":39.666666666667},"place":{"name":"wilmington","state":"de","country":"us","pretty_name":{"city":"Wilmington|Duross Heights","region":"DE","country":"United States"}},"profile":{"tz":"America/New_York","elevM":28,"elevFT":92},"obTimestamp":1419301080,"obDateTime":"2014-12-22T21:18:00-05:00","ob":{"timestamp":1419301080,"dateTimeISO":"2014-12-22T21:18:00-05:00","tempC":6,"tempF":43,"dewpointC":4,"dewpointF":39,"humidity":87,"pressureMB":1021,"pressureIN":30.15,"spressureMB":1018,"spressureIN":30.06,"altimeterMB":1021,"altimeterIN":30.15,"windKTS":8,"windKPH":15,"windMPH":9,"windSpeedKTS":8,"windSpeedKPH":15,"windSpeedMPH":9,"windDirDEG":60,"windDir":"ENE","windGustKTS":null,"windGustKPH":null,"windGustMPH":null,"flightRule":"MVFR","visibilityKM":8.04672,"visibilityMI":5,"weather":"Cloudy with Light Rain","weatherShort":"Light Rain","weatherCoded":":L:R,::BR,::OV","weatherPrimary":"Light Rain","weatherPrimaryCoded":":L:R","cloudsCoded":"OV","icon":"rainn.png","heatindexC":6,"heatindexF":43,"windchillC":6,"windchillF":43,"feelslikeC":6,"feelslikeF":43,"isDay":false,"sunrise":1419250828,"sunriseISO":"2014-12-22T07:20:28-05:00","sunset":1419284539,"sunsetISO":"2014-12-22T16:42:19-05:00","snowDepthCM":null,"snowDepthIN":null,"precipMM":0,"precipIN":0,"solradWM2":null,"light":0,"sky":100},"raw":"KILG 230218Z 06008KT 5SM -RA BR BKN020 OVC035 06/04 A3015"},{"id":"KDOV","loc":{"long":-75.466666666667,"lat":39.116666666667},"place":{"name":"dover afb","state":"de","country":"us","pretty_name":{"city":"Dover|Doverbrook Gardens","region":"DE","country":"United States"}},"profile":{"tz":"America/New_York","elevM":9,"elevFT":30},"obTimestamp":1419301740,"obDateTime":"2014-12-22T21:29:00-05:00","ob":{"timestamp":1419301740,"dateTimeISO":"2014-12-22T21:29:00-05:00","tempC":6,"tempF":43,"dewpointC":6,"dewpointF":43,"humidity":100,"pressureMB":1019,"pressureIN":30.09,"spressureMB":1018,"spressureIN":30.06,"altimeterMB":1019,"altimeterIN":30.09,"windKTS":8,"windKPH":15,"windMPH":9,"windSpeedKTS":8,"windSpeedKPH":15,"windSpeedMPH":9,"windDirDEG":10,"windDir":"N","windGustKTS":null,"windGustKPH":null,"windGustMPH":null,"flightRule":"LIFR","visibilityKM":16.09344,"visibilityMI":10,"weather":"Cloudy with Light Rain","weatherShort":"Light Rain","weatherCoded":":L:R,::OV","weatherPrimary":"Light Rain","weatherPrimaryCoded":":L:R","cloudsCoded":"OV","icon":"rainn.png","heatindexC":6,"heatindexF":43,"windchillC":6,"windchillF":43,"feelslikeC":6,"feelslikeF":43,"isDay":false,"sunrise":1419250697,"sunriseISO":"2014-12-22T07:18:17-05:00","sunset":1419284606,"sunsetISO":"2014-12-22T16:43:26-05:00","snowDepthCM":null,"snowDepthIN":null,"precipMM":0,"precipIN":0,"solradWM2":null,"light":0,"sky":100},"raw":"KDOV 230229Z AUTO 01008KT 10SM -RA FEW013 SCT046 OVC060 06/06 A3010 RMK AO2"}]}