{"success":true,"error":null,"response":[{"id":"KILG","loc":{"long":-75.6,"lat":39.666666666667},"place":{"name":"wilmington","state":"de","country":"us","pretty_name":{"city":"Wilmington|Duross Heights","region":"DE","country":"United States"}},"profile":{"tz":"America/New_York","elevM":28,"elevFT":92},"obTimestamp":1417661460,"obDateTime":"2014-12-03T21:51:00-05:00","ob":{"timestamp":1417661460,"dateTimeISO":"2014-12-03T21:51:00-05:00","tempC":4,"tempF":39,"dewpointC":-2,"dewpointF":28,"humidity":65,"pressureMB":1025,"pressureIN":30.27,"spressureMB":1021,"spressureIN":30.15,"altimeterMB":1024,"altimeterIN":30.24,"windKTS":11,"windKPH":20,"windMPH":13,"windSpeedKTS":11,"windSpeedKPH":20,"windSpeedMPH":13,"windDirDEG":310,"windDir":"NW","windGustKTS":null,"windGustKPH":null,"windGustMPH":null,"flightRule":"LIFR","visibilityKM":16.09344,"visibilityMI":10,"weather":"Clear","weatherShort":"Clear","weatherCoded":"::CL","weatherPrimary":"Clear","weatherPrimaryCoded":"::CL","cloudsCoded":"CL","icon":"sunnyn.png","heatindexC":4,"heatindexF":39,"windchillC":-1,"windchillF":31,"feelslikeC":-1,"feelslikeF":31,"isDay":false,"sunrise":1417608407,"sunriseISO":"2014-12-03T07:06:47-05:00","sunset":1417642697,"sunsetISO":"2014-12-03T16:38:17-05:00","snowDepthCM":null,"snowDepthIN":null,"precipMM":0,"precipIN":0,"solradWM2":null,"light":0,"sky":0},"raw":"KILG 040251Z 31011KT 10SM CLR 04/M02 A3025 RMK AO2 SLP243 T00441022 51030"},{"id":"KGED","loc":{"long":-75.366666666667,"lat":38.683333333333},"place":{"name":"georgetown","state":"de","country":"us","pretty_name":{"city":"Georgetown|Rogers Development","region":"DE","country":"United States"}},"profile":{"tz":"America/New_York","elevM":19,"elevFT":62},"obTimestamp":1417661640,"obDateTime":"2014-12-03T21:54:00-05:00","ob":{"timestamp":1417661640,"dateTimeISO":"2014-12-03T21:54:00-05:00","tempC":9,"tempF":48,"dewpointC":6,"dewpointF":43,"humidity":82,"pressureMB":1024,"pressureIN":30.24,"spressureMB":1022,"spressureIN":30.18,"altimeterMB":1024,"altimeterIN":30.24,"windKTS":7,"windKPH":13,"windMPH":8,"windSpeedKTS":7,"windSpeedKPH":13,"windSpeedMPH":8,"windDirDEG":350,"windDir":"N","windGustKTS":null,"windGustKPH":null,"windGustMPH":null,"flightRule":"LIFR","visibilityKM":16.09344,"visibilityMI":10,"weather":"Clear","weatherShort":"Clear","weatherCoded":"::CL","weatherPrimary":"Clear","weatherPrimaryCoded":"::CL","cloudsCoded":"CL","icon":"sunnyn.png","heatindexC":9,"heatindexF":48,"windchillC":9,"windchillF":48,"feelslikeC":9,"feelslikeF":48,"isDay":false,"sunrise":1417608186,"sunriseISO":"2014-12-03T07:03:06-05:00","sunset":1417642806,"sunsetISO":"2014-12-03T16:40:06-05:00","snowDepthCM":null,"snowDepthIN":null,"precipMM":0,"precipIN":0,"solradWM2":null,"light":0,"sky":0},"raw":"KGED 040254Z AUTO 35007KT 10SM CLR 09/06 A3023 RMK AO2 SLPNO T00940056 51024"},{"id":"KDOV","loc":{"long":-75.466666666667,"lat":39.116666666667},"place":{"name":"dover afb","state":"de","country":"us","pretty_name":{"city":"Dover|Doverbrook Gardens","region":"DE","country":"United States"}},"profile":{"tz":"America/New_York","elevM":9,"elevFT":30},"obTimestamp":1417661880,"obDateTime":"2014-12-03T21:58:00-05:00","ob":{"timestamp":1417661880,"dateTimeISO":"2014-12-03T21:58:00-05:00","tempC":7,"tempF":45,"dewpointC":3,"dewpointF":37,"humidity":76,"pressureMB":1023,"pressureIN":30.21,"spressureMB":1022,"spressureIN":30.18,"altimeterMB":1023,"altimeterIN":30.21,"windKTS":10,"windKPH":19,"windMPH":12,"windSpeedKTS":10,"windSpeedKPH":19,"windSpeedMPH":12,"windDirDEG":310,"windDir":"NW","windGustKTS":null,"windGustKPH":null,"windGustMPH":null,"flightRule":"LIFR","visibilityKM":16.09344,"visibilityMI":10,"weather":"Clear","weatherShort":"Clear","weatherCoded":"::CL","weatherPrimary":"Clear","weatherPrimaryCoded":"::CL","cloudsCoded":"CL","icon":"sunnyn.png","heatindexC":7,"heatindexF":45,"windchillC":7,"windchillF":45,"feelslikeC":7,"feelslikeF":45,"isDay":false,"sunrise":1417608282,"sunriseISO":"2014-12-03T07:04:42-05:00","sunset":1417642758,"sunsetISO":"2014-12-03T16:39:18-05:00","snowDepthCM":null,"snowDepthIN":null,"precipMM":0,"precipIN":0,"solradWM2":null,"light":0,"sky":0},"raw":"KDOV 040258Z AUTO 31010KT 10SM CLR 07/03 A3022 RMK AO2 SLP237 T00720031 52027"}]}