{"success":true,"error":null,"response":[{"id":"KQRH","loc":{"long":43.166666666667,"lat":11.55},"place":{"name":"camp lemonier","state":"","country":"dj","pretty_name":{"city":"Djibouti|Ambouli","region":"J","country":"Djibouti"}},"profile":{"tz":"Africa/Djibouti","elevM":10,"elevFT":33},"obTimestamp":1417801980,"obDateTime":"2014-12-05T20:53:00+03:00","ob":{"timestamp":1417801980,"dateTimeISO":"2014-12-05T20:53:00+03:00","tempC":26,"tempF":79,"dewpointC":20,"dewpointF":68,"humidity":70,"pressureMB":1017,"pressureIN":30.03,"spressureMB":1016,"spressureIN":30,"altimeterMB":1017,"altimeterIN":30.03,"windKTS":2,"windKPH":4,"windMPH":2,"windSpeedKTS":2,"windSpeedKPH":4,"windSpeedMPH":2,"windDirDEG":0,"windDir":"N","windGustKTS":null,"windGustKPH":null,"windGustMPH":null,"flightRule":"LIFR","visibilityKM":null,"visibilityMI":null,"weather":"Mostly Clear","weatherShort":"Mostly Clear","weatherCoded":"::FW","weatherPrimary":"Mostly Clear","weatherPrimaryCoded":"::FW","cloudsCoded":"FW","icon":"pcloudyn.png","heatindexC":26,"heatindexF":79,"windchillC":26,"windchillF":79,"feelslikeC":26,"feelslikeF":79,"isDay":false,"sunrise":1417749215,"sunriseISO":"2014-12-05T06:13:35+03:00","sunset":1417790547,"sunsetISO":"2014-12-05T17:42:27+03:00","snowDepthCM":null,"snowDepthIN":null,"precipMM":0,"precipIN":0,"solradWM2":null,"light":0,"sky":19},"raw":"KQRH 051753Z AUTO VRB02KT 9999 FEW028 26/20 A3004 RMK AO2 SLP171"},{"id":"HDAM","loc":{"long":43.166666666667,"lat":11.55},"place":{"name":"ambouli djibouti","state":"","country":"dj","pretty_name":{"city":"Djibouti|La Plaine","region":"J","country":"Djibouti"}},"profile":{"tz":"Africa/Djibouti","elevM":49,"elevFT":161},"obTimestamp":1417802400,"obDateTime":"2014-12-05T21:00:00+03:00","ob":{"timestamp":1417802400,"dateTimeISO":"2014-12-05T21:00:00+03:00","tempC":26,"tempF":79,"dewpointC":22,"dewpointF":72,"humidity":79,"pressureMB":1017,"pressureIN":30.03,"spressureMB":1011,"spressureIN":29.85,"altimeterMB":null,"altimeterIN":null,"windKTS":0,"windKPH":0,"windMPH":0,"windSpeedKTS":0,"windSpeedKPH":0,"windSpeedMPH":0,"windDirDEG":0,"windDir":"N","windGustKTS":null,"windGustKPH":null,"windGustMPH":null,"flightRule":"LIFR","visibilityKM":null,"visibilityMI":null,"weather":"Mostly Clear","weatherShort":"Mostly Clear","weatherCoded":"::FW","weatherPrimary":"Mostly Clear","weatherPrimaryCoded":"::FW","cloudsCoded":"FW","icon":"pcloudyn.png","heatindexC":26,"heatindexF":79,"windchillC":26,"windchillF":79,"feelslikeC":26,"feelslikeF":79,"isDay":false,"sunrise":1417749215,"sunriseISO":"2014-12-05T06:13:35+03:00","sunset":1417790547,"sunsetISO":"2014-12-05T17:42:27+03:00","snowDepthCM":null,"snowDepthIN":null,"precipMM":null,"precipIN":null,"solradWM2":null,"light":0,"sky":19},"raw":"HDAM 051800Z 00000KT 9999 FEW020 26/22 Q1017"}]}