{"success":true,"error":null,"response":[{"id":"TDCF","loc":{"long":-61.4,"lat":15.333333333333},"place":{"name":"canefield airpor","state":"","country":"dm","pretty_name":{"city":"Canefield|Cochrane","region":"-","country":"Dominica"}},"profile":{"tz":"America/Dominica","elevM":5,"elevFT":16},"obTimestamp":1417802400,"obDateTime":"2014-12-05T14:00:00-04:00","ob":{"timestamp":1417802400,"dateTimeISO":"2014-12-05T14:00:00-04:00","tempC":29,"tempF":84,"dewpointC":22,"dewpointF":72,"humidity":66,"pressureMB":1010,"pressureIN":29.83,"spressureMB":1009,"spressureIN":29.8,"altimeterMB":null,"altimeterIN":null,"windKTS":3,"windKPH":6,"windMPH":3,"windSpeedKTS":3,"windSpeedKPH":6,"windSpeedMPH":3,"windDirDEG":350,"windDir":"N","windGustKTS":null,"windGustKPH":null,"windGustMPH":null,"flightRule":"LIFR","visibilityKM":null,"visibilityMI":null,"weather":"Partly Cloudy","weatherShort":"Partly Cloudy","weatherCoded":"::SC","weatherPrimary":"Partly Cloudy","weatherPrimaryCoded":"::SC","cloudsCoded":"SC","icon":"pcloudy.png","heatindexC":32,"heatindexF":89,"windchillC":29,"windchillF":84,"feelslikeC":32,"feelslikeF":89,"isDay":true,"sunrise":1417774725,"sunriseISO":"2014-12-05T06:18:45-04:00","sunset":1417815258,"sunsetISO":"2014-12-05T17:34:18-04:00","snowDepthCM":null,"snowDepthIN":null,"precipMM":null,"precipIN":null,"solradWM2":null,"light":57,"sky":44},"raw":"TDCF 051800Z 35003KT 9999 FEW016CB SCT040 29/22 Q1010"},{"id":"TDPD","loc":{"long":-61.3,"lat":15.55},"place":{"name":"melville hall ar","state":"","country":"dm","pretty_name":{"city":"Melville Hall|Marigot","region":"-","country":"Dominica"}},"profile":{"tz":"America/Dominica","elevM":14,"elevFT":46},"obTimestamp":1417802400,"obDateTime":"2014-12-05T14:00:00-04:00","ob":{"timestamp":1417802400,"dateTimeISO":"2014-12-05T14:00:00-04:00","tempC":22.8,"tempF":73,"dewpointC":23,"dewpointF":73,"humidity":null,"pressureMB":1011,"pressureIN":29.85,"spressureMB":1009,"spressureIN":29.8,"altimeterMB":null,"altimeterIN":null,"windKTS":3,"windKPH":6,"windMPH":3,"windSpeedKTS":3,"windSpeedKPH":6,"windSpeedMPH":3,"windDirDEG":190,"windDir":"S","windGustKTS":null,"windGustKPH":null,"windGustMPH":null,"flightRule":"LIFR","visibilityKM":null,"visibilityMI":null,"weather":"Partly Cloudy","weatherShort":"Partly Cloudy","weatherCoded":"::SC","weatherPrimary":"Partly Cloudy","weatherPrimaryCoded":"::SC","cloudsCoded":"SC","icon":"pcloudy.png","heatindexC":23,"heatindexF":73,"windchillC":23,"windchillF":73,"feelslikeC":23,"feelslikeF":73,"isDay":true,"sunrise":1417774724,"sunriseISO":"2014-12-05T06:18:44-04:00","sunset":1417815211,"sunsetISO":"2014-12-05T17:33:31-04:00","snowDepthCM":null,"snowDepthIN":null,"precipMM":null,"precipIN":null,"solradWM2":null,"light":57,"sky":44},"raw":"TDPD 051800Z 19003KT 9999 FEW017 SCT035 228/23 Q1011"}]}