{"success":true,"error":null,"response":[{"id":"EEPU","loc":{"long":24.466666666667,"lat":58.416666666667},"place":{"name":"parnu","state":"","country":"ee","pretty_name":{"city":"Parnu|Eametsa","region":"67","country":"Estonia"}},"profile":{"tz":"Europe/Tallinn","elevM":14,"elevFT":46},"obTimestamp":1417787400,"obDateTime":"2014-12-05T15:50:00+02:00","ob":{"timestamp":1417787400,"dateTimeISO":"2014-12-05T15:50:00+02:00","tempC":0,"tempF":32,"dewpointC":-2,"dewpointF":28,"humidity":87,"pressureMB":1024,"pressureIN":30.24,"spressureMB":1022,"spressureIN":30.18,"altimeterMB":null,"altimeterIN":null,"windKTS":7,"windKPH":13,"windMPH":8,"windSpeedKTS":7,"windSpeedKPH":13,"windSpeedMPH":8,"windDirDEG":140,"windDir":"SE","windGustKTS":null,"windGustKPH":null,"windGustMPH":null,"flightRule":"IFR","visibilityKM":null,"visibilityMI":null,"weather":"Cloudy","weatherShort":"Cloudy","weatherCoded":"::OV","weatherPrimary":"Cloudy","weatherPrimaryCoded":"::OV","cloudsCoded":"OV","icon":"cloudyn.png","heatindexC":0,"heatindexF":32,"windchillC":-4,"windchillF":25,"feelslikeC":-4,"feelslikeF":25,"isDay":false,"sunrise":1417762335,"sunriseISO":"2014-12-05T08:52:15+02:00","sunset":1417786408,"sunsetISO":"2014-12-05T15:33:28+02:00","snowDepthCM":null,"snowDepthIN":null,"precipMM":null,"precipIN":null,"solradWM2":null,"light":0,"sky":100},"raw":"EEPU 051350Z 14007KT 100V190 9999 OVC009 M00/M02 Q1024"},{"id":"EEKA","loc":{"long":22.833333333333,"lat":58.983333333333},"place":{"name":"kardla","state":"","country":"ee","pretty_name":{"city":"Kardla|Heilu","region":"39","country":"Estonia"}},"profile":{"tz":"Europe/Tallinn","elevM":4,"elevFT":13},"obTimestamp":1417798200,"obDateTime":"2014-12-05T18:50:00+02:00","ob":{"timestamp":1417798200,"dateTimeISO":"2014-12-05T18:50:00+02:00","tempC":2,"tempF":36,"dewpointC":0,"dewpointF":32,"humidity":87,"pressureMB":1020,"pressureIN":30.12,"spressureMB":1019,"spressureIN":30.09,"altimeterMB":null,"altimeterIN":null,"windKTS":7,"windKPH":13,"windMPH":8,"windSpeedKTS":7,"windSpeedKPH":13,"windSpeedMPH":8,"windDirDEG":190,"windDir":"S","windGustKTS":null,"windGustKPH":null,"windGustMPH":null,"flightRule":"IFR","visibilityKM":null,"visibilityMI":null,"weather":"Cloudy","weatherShort":"Cloudy","weatherCoded":"::OV","weatherPrimary":"Cloudy","weatherPrimaryCoded":"::OV","cloudsCoded":"OV","icon":"cloudyn.png","heatindexC":2,"heatindexF":36,"windchillC":-1,"windchillF":30,"feelslikeC":-1,"feelslikeF":30,"isDay":false,"sunrise":1417762991,"sunriseISO":"2014-12-05T09:03:11+02:00","sunset":1417786536,"sunsetISO":"2014-12-05T15:35:36+02:00","snowDepthCM":null,"snowDepthIN":null,"precipMM":null,"precipIN":null,"solradWM2":null,"light":0,"sky":100},"raw":"EEKA 051650Z 19007KT 9999 OVC009 02/00 Q1020"},{"id":"EEKE","loc":{"long":22.516666666667,"lat":58.233333333333},"place":{"name":"kuressaare","state":"","country":"ee","pretty_name":{"city":"Kuressaare","region":"74","country":"Estonia"}},"profile":{"tz":"Europe/Tallinn","elevM":4,"elevFT":13},"obTimestamp":1417801800,"obDateTime":"2014-12-05T19:50:00+02:00","ob":{"timestamp":1417801800,"dateTimeISO":"2014-12-05T19:50:00+02:00","tempC":2,"tempF":36,"dewpointC":1,"dewpointF":34,"humidity":93,"pressureMB":1020,"pressureIN":30.12,"spressureMB":1019,"spressureIN":30.09,"altimeterMB":null,"altimeterIN":null,"windKTS":12,"windKPH":22,"windMPH":14,"windSpeedKTS":12,"windSpeedKPH":22,"windSpeedMPH":14,"windDirDEG":190,"windDir":"S","windGustKTS":null,"windGustKPH":null,"windGustMPH":null,"flightRule":"IFR","visibilityKM":8,"visibilityMI":4.97,"weather":"Cloudy","weatherShort":"Cloudy","weatherCoded":"::OV","weatherPrimary":"Cloudy","weatherPrimaryCoded":"::OV","cloudsCoded":"OV","icon":"cloudyn.png","heatindexC":2,"heatindexF":36,"windchillC":-3,"windchillF":27,"feelslikeC":-3,"feelslikeF":27,"isDay":false,"sunrise":1417762720,"sunriseISO":"2014-12-05T08:58:40+02:00","sunset":1417786958,"sunsetISO":"2014-12-05T15:42:38+02:00","snowDepthCM":null,"snowDepthIN":null,"precipMM":null,"precipIN":null,"solradWM2":null,"light":0,"sky":100},"raw":"EEKE 051750Z 19012KT 8000 OVC009 02/01 Q1020"},{"id":"EETU","loc":{"long":26.683333333333,"lat":58.316666666667},"place":{"name":"tartu","state":"","country":"ee","pretty_name":{"city":"Tartu|Reola","region":"7B","country":"Estonia"}},"profile":{"tz":"Europe/Tallinn","elevM":67,"elevFT":220},"obTimestamp":1417801800,"obDateTime":"2014-12-05T19:50:00+02:00","ob":{"timestamp":1417801800,"dateTimeISO":"2014-12-05T19:50:00+02:00","tempC":-1,"tempF":30,"dewpointC":-2,"dewpointF":28,"humidity":93,"pressureMB":1023,"pressureIN":30.21,"spressureMB":1014,"spressureIN":29.94,"altimeterMB":null,"altimeterIN":null,"windKTS":6,"windKPH":11,"windMPH":7,"windSpeedKTS":6,"windSpeedKPH":11,"windSpeedMPH":7,"windDirDEG":170,"windDir":"S","windGustKTS":null,"windGustKPH":null,"windGustMPH":null,"flightRule":"LIFR","visibilityKM":null,"visibilityMI":null,"weather":"Mostly Clear","weatherShort":"Mostly Clear","weatherCoded":"::FW","weatherPrimary":"Mostly Clear","weatherPrimaryCoded":"::FW","cloudsCoded":"FW","icon":"pcloudyn.png","heatindexC":-1,"heatindexF":30,"windchillC":-5,"windchillF":23,"feelslikeC":-5,"feelslikeF":23,"isDay":false,"sunrise":1417761757,"sunriseISO":"2014-12-05T08:42:37+02:00","sunset":1417785922,"sunsetISO":"2014-12-05T15:25:22+02:00","snowDepthCM":null,"snowDepthIN":null,"precipMM":null,"precipIN":null,"solradWM2":null,"sky":19,"light":0},"raw":"EETU 051750Z AUTO 17006KT 9999 OVC006/// M01/M02 Q1023"},{"id":"EETN","loc":{"long":24.816666666667,"lat":59.4},"place":{"name":"tallinn","state":"","country":"ee","pretty_name":{"city":"Tallin|Tallinn|Mхigu","region":"37","country":"Estonia"}},"profile":{"tz":"Europe/Tallinn","elevM":40,"elevFT":131},"obTimestamp":1417803600,"obDateTime":"2014-12-05T20:20:00+02:00","ob":{"timestamp":1417803600,"dateTimeISO":"2014-12-05T20:20:00+02:00","tempC":0,"tempF":32,"dewpointC":0,"dewpointF":32,"humidity":100,"pressureMB":1020,"pressureIN":30.12,"spressureMB":1015,"spressureIN":29.97,"altimeterMB":null,"altimeterIN":null,"windKTS":8,"windKPH":15,"windMPH":9,"windSpeedKTS":8,"windSpeedKPH":15,"windSpeedMPH":9,"windDirDEG":170,"windDir":"S","windGustKTS":null,"windGustKPH":null,"windGustMPH":null,"flightRule":"IFR","visibilityKM":6,"visibilityMI":3.73,"weather":"Cloudy with Light Freezing Drizzle","weatherShort":"Freezing Drizzle","weatherCoded":":L:ZL,::OV","weatherPrimary":"Freezing Drizzle","weatherPrimaryCoded":":L:ZL","cloudsCoded":"OV","icon":"freezingrainn.png","heatindexC":0,"heatindexF":32,"windchillC":-4,"windchillF":24,"feelslikeC":-4,"feelslikeF":24,"isDay":false,"sunrise":1417762717,"sunriseISO":"2014-12-05T08:58:37+02:00","sunset":1417785857,"sunsetISO":"2014-12-05T15:24:17+02:00","snowDepthCM":null,"snowDepthIN":null,"precipMM":null,"precipIN":null,"solradWM2":null,"light":0,"sky":100},"raw":"EETN 051820Z 17008KT 6000 -FZDZ OVC005 M00/M00 Q1020 R08/290195 NOSIG"}]}