{"success":true,"error":null,"response":[{"id":"HAAB","loc":{"long":38.783333333333,"lat":8.9666666666667},"place":{"name":"addis ababa/bole","state":"","country":"et","pretty_name":{"city":"Addis Ababa","region":"CN","country":"Ethiopia"}},"profile":{"tz":"Africa/Addis_Ababa","elevM":2355,"elevFT":7726},"obTimestamp":1417798800,"obDateTime":"2014-12-05T20:00:00+03:00","ob":{"timestamp":1417798800,"dateTimeISO":"2014-12-05T20:00:00+03:00","tempC":18,"tempF":64,"dewpointC":8,"dewpointF":46,"humidity":52,"pressureMB":1028,"pressureIN":30.36,"spressureMB":785,"spressureIN":23.18,"altimeterMB":null,"altimeterIN":null,"windKTS":8,"windKPH":15,"windMPH":9,"windSpeedKTS":8,"windSpeedKPH":15,"windSpeedMPH":9,"windDirDEG":40,"windDir":"NE","windGustKTS":null,"windGustKPH":null,"windGustMPH":null,"flightRule":"LIFR","visibilityKM":null,"visibilityMI":null,"weather":"Mostly Clear","weatherShort":"Mostly Clear","weatherCoded":"::FW","weatherPrimary":"Mostly Clear","weatherPrimaryCoded":"::FW","cloudsCoded":"FW","icon":"pcloudyn.png","heatindexC":18,"heatindexF":64,"windchillC":18,"windchillF":64,"feelslikeC":18,"feelslikeF":64,"isDay":false,"sunrise":1417750004,"sunriseISO":"2014-12-05T06:26:44+03:00","sunset":1417791862,"sunsetISO":"2014-12-05T18:04:22+03:00","snowDepthCM":null,"snowDepthIN":null,"precipMM":null,"precipIN":null,"solradWM2":null,"light":0,"sky":19},"raw":"HAAB 051700Z 04008KT 9999 FEW025 18/08 Q1028"}]}