{"success":true,"error":null,"response":[{"id":"EGYP","loc":{"long":-58.45,"lat":-51.816666666667},"place":{"name":"mount pleasant","state":"","country":"fk","pretty_name":{"city":"Mount Pleasant|Mare Harbour Rancho","region":"-","country":"Falkland Islands"}},"profile":{"tz":"Atlantic/Stanley","elevM":74,"elevFT":243},"obTimestamp":1417801800,"obDateTime":"2014-12-05T14:50:00-03:00","ob":{"timestamp":1417801800,"dateTimeISO":"2014-12-05T14:50:00-03:00","tempC":16,"tempF":61,"dewpointC":10,"dewpointF":50,"humidity":68,"pressureMB":993,"pressureIN":29.32,"spressureMB":984,"spressureIN":29.06,"altimeterMB":null,"altimeterIN":null,"windKTS":14,"windKPH":26,"windMPH":16,"windSpeedKTS":14,"windSpeedKPH":26,"windSpeedMPH":16,"windDirDEG":170,"windDir":"S","windGustKTS":null,"windGustKPH":null,"windGustMPH":null,"flightRule":"LIFR","visibilityKM":11.265408,"visibilityMI":7,"weather":"Mostly Sunny","weatherShort":"Mostly Sunny","weatherCoded":"::FW","weatherPrimary":"Mostly Sunny","weatherPrimaryCoded":"::FW","cloudsCoded":"FW","icon":"pcloudy.png","heatindexC":16,"heatindexF":61,"windchillC":16,"windchillF":61,"feelslikeC":16,"feelslikeF":61,"isDay":true,"sunrise":1417764634,"sunriseISO":"2014-12-05T04:30:34-03:00","sunset":1417823930,"sunsetISO":"2014-12-05T20:58:50-03:00","snowDepthCM":null,"snowDepthIN":null,"precipMM":null,"precipIN":null,"solradWM2":null,"sky":19,"light":71},"raw":"EGYP 051750Z 17014KT CAVOK 16/10 Q0993 BLU NOSIG"}]}