{"success":true,"error":null,"response":[{"id":"TGPY","loc":{"long":-61.783333333333,"lat":12},"place":{"name":"point salines","state":"","country":"gd","pretty_name":{"city":"St Georges|St George's|Bamboo","region":"G","country":"Grenada"}},"profile":{"tz":"America/Grenada","elevM":7,"elevFT":23},"obTimestamp":1417802400,"obDateTime":"2014-12-05T14:00:00-04:00","ob":{"timestamp":1417802400,"dateTimeISO":"2014-12-05T14:00:00-04:00","tempC":29,"tempF":84,"dewpointC":24,"dewpointF":75,"humidity":74,"pressureMB":1010,"pressureIN":29.83,"spressureMB":1009,"spressureIN":29.8,"altimeterMB":null,"altimeterIN":null,"windKTS":10,"windKPH":19,"windMPH":12,"windSpeedKTS":10,"windSpeedKPH":19,"windSpeedMPH":12,"windDirDEG":150,"windDir":"SSE","windGustKTS":null,"windGustKPH":null,"windGustMPH":null,"flightRule":"LIFR","visibilityKM":null,"visibilityMI":null,"weather":"Mostly Sunny","weatherShort":"Mostly Sunny","weatherCoded":"::FW","weatherPrimary":"Mostly Sunny","weatherPrimaryCoded":"::FW","cloudsCoded":"FW","icon":"pcloudy.png","heatindexC":33,"heatindexF":92,"windchillC":29,"windchillF":84,"feelslikeC":33,"feelslikeF":92,"isDay":true,"sunrise":1417774468,"sunriseISO":"2014-12-05T06:14:28-04:00","sunset":1417815699,"sunsetISO":"2014-12-05T17:41:39-04:00","snowDepthCM":null,"snowDepthIN":null,"precipMM":null,"precipIN":null,"solradWM2":null,"light":67,"sky":19},"raw":"TGPY 051800Z 15010KT 9999 FEW021 29/24 Q1010 NOSIG"}]}