{"success":true,"error":null,"response":[{"id":"UGTB","loc":{"long":44.95,"lat":41.666666666667},"place":{"name":"tbilisi/novo-al","state":"","country":"ge","pretty_name":{"city":"Tbilisi|Lilo","region":"TB","country":"Georgia"}},"profile":{"tz":"Asia/Tbilisi","elevM":495,"elevFT":1624},"obTimestamp":1417804200,"obDateTime":"2014-12-05T22:30:00+04:00","ob":{"timestamp":1417804200,"dateTimeISO":"2014-12-05T22:30:00+04:00","tempC":7,"tempF":45,"dewpointC":3,"dewpointF":37,"humidity":76,"pressureMB":1022,"pressureIN":30.18,"spressureMB":962,"spressureIN":28.41,"altimeterMB":null,"altimeterIN":null,"windKTS":4,"windKPH":7,"windMPH":5,"windSpeedKTS":4,"windSpeedKPH":7,"windSpeedMPH":5,"windDirDEG":240,"windDir":"WSW","windGustKTS":null,"windGustKPH":null,"windGustMPH":null,"flightRule":"LIFR","visibilityKM":null,"visibilityMI":null,"weather":"Partly Cloudy","weatherShort":"Partly Cloudy","weatherCoded":"::SC","weatherPrimary":"Partly Cloudy","weatherPrimaryCoded":"::SC","cloudsCoded":"SC","icon":"pcloudyn.png","heatindexC":7,"heatindexF":45,"windchillC":7,"windchillF":45,"feelslikeC":7,"feelslikeF":45,"isDay":false,"sunrise":1417752703,"sunriseISO":"2014-12-05T08:11:43+04:00","sunset":1417786201,"sunsetISO":"2014-12-05T17:30:01+04:00","snowDepthCM":null,"snowDepthIN":null,"precipMM":null,"precipIN":null,"solradWM2":null,"light":0,"sky":44},"raw":"UGTB 051830Z 24004KT 190V300 9999 FEW032 SCT038 07/03 Q1022 R31L/CLRD80 NOSIG"},{"id":"UGSB","loc":{"long":41.6,"lat":41.616666666667},"place":{"name":"batumi","state":"","country":"ge","pretty_name":{"city":"Batumi|Angisa","region":"-","country":"Georgia"}},"profile":{"tz":"Asia/Tbilisi","elevM":32,"elevFT":105},"obTimestamp":1417804200,"obDateTime":"2014-12-05T22:30:00+04:00","ob":{"timestamp":1417804200,"dateTimeISO":"2014-12-05T22:30:00+04:00","tempC":11,"tempF":52,"dewpointC":8,"dewpointF":46,"humidity":82,"pressureMB":1025,"pressureIN":30.27,"spressureMB":1021,"spressureIN":30.15,"altimeterMB":null,"altimeterIN":null,"windKTS":12,"windKPH":22,"windMPH":14,"windSpeedKTS":12,"windSpeedKPH":22,"windSpeedMPH":14,"windDirDEG":140,"windDir":"SE","windGustKTS":null,"windGustKPH":null,"windGustMPH":null,"flightRule":"MVFR","visibilityKM":null,"visibilityMI":null,"weather":"Cloudy with Light Showers","weatherShort":"Showers","weatherCoded":":L:RW,::OV","weatherPrimary":"Showers","weatherPrimaryCoded":":L:RW","cloudsCoded":"OV","icon":"showersn.png","heatindexC":11,"heatindexF":52,"windchillC":11,"windchillF":52,"feelslikeC":11,"feelslikeF":52,"isDay":false,"sunrise":1417753498,"sunriseISO":"2014-12-05T08:24:58+04:00","sunset":1417787014,"sunsetISO":"2014-12-05T17:43:34+04:00","snowDepthCM":null,"snowDepthIN":null,"precipMM":null,"precipIN":null,"solradWM2":null,"light":0,"sky":100},"raw":"UGSB 051830Z 14012KT 9999 -SHRA BKN021CB OVC070 11/08 Q1025 R13/29//55 NOSIG"},{"id":"UGKO","loc":{"long":42.483333333333,"lat":42.183333333333},"place":{"name":"kopitnari","state":"","country":"ge","pretty_name":{"city":"Kutaisi|Zeda-Bashi","region":"-","country":"Georgia"}},"profile":{"tz":"Asia/Tbilisi","elevM":68,"elevFT":223},"obTimestamp":1417804200,"obDateTime":"2014-12-05T22:30:00+04:00","ob":{"timestamp":1417804200,"dateTimeISO":"2014-12-05T22:30:00+04:00","tempC":9,"tempF":48,"dewpointC":7,"dewpointF":45,"humidity":87,"pressureMB":1023,"pressureIN":30.21,"spressureMB":1015,"spressureIN":29.97,"altimeterMB":null,"altimeterIN":null,"windKTS":2,"windKPH":4,"windMPH":2,"windSpeedKTS":2,"windSpeedKPH":4,"windSpeedMPH":2,"windDirDEG":0,"windDir":"N","windGustKTS":null,"windGustKPH":null,"windGustMPH":null,"flightRule":"LIFR","visibilityKM":null,"visibilityMI":null,"weather":"Cloudy","weatherShort":"Cloudy","weatherCoded":"::OV","weatherPrimary":"Cloudy","weatherPrimaryCoded":"::OV","cloudsCoded":"OV","icon":"cloudyn.png","heatindexC":9,"heatindexF":48,"windchillC":9,"windchillF":48,"feelslikeC":9,"feelslikeF":48,"isDay":false,"sunrise":1417753391,"sunriseISO":"2014-12-05T08:23:11+04:00","sunset":1417786696,"sunsetISO":"2014-12-05T17:38:16+04:00","snowDepthCM":null,"snowDepthIN":null,"precipMM":null,"precipIN":null,"solradWM2":null,"light":0,"sky":100},"raw":"UGKO 051830Z VRB02KT 9999 SCT015CB OVC035 09/07 Q1023 R07/29//50 NOSIG"}]}