{"success":true,"error":null,"response":[{"id":"DGAA","loc":{"long":-0.16666666666667,"lat":5.5833333333333},"place":{"name":"accra/kotoka int","state":"","country":"gh","pretty_name":{"city":"Accra|Burma Camp","region":"GA","country":"Ghana"}},"profile":{"tz":"Africa/Accra","elevM":69,"elevFT":226},"obTimestamp":1417802400,"obDateTime":"2014-12-05T18:00:00+00:00","ob":{"timestamp":1417802400,"dateTimeISO":"2014-12-05T18:00:00+00:00","tempC":27,"tempF":81,"dewpointC":24,"dewpointF":75,"humidity":84,"pressureMB":1010,"pressureIN":29.83,"spressureMB":1002,"spressureIN":29.59,"altimeterMB":null,"altimeterIN":null,"windKTS":5,"windKPH":9,"windMPH":6,"windSpeedKTS":5,"windSpeedKPH":9,"windSpeedMPH":6,"windDirDEG":180,"windDir":"S","windGustKTS":null,"windGustKPH":null,"windGustMPH":null,"flightRule":"LIFR","visibilityKM":null,"visibilityMI":null,"weather":"Mostly Clear","weatherShort":"Mostly Clear","weatherCoded":"::FW","weatherPrimary":"Mostly Clear","weatherPrimaryCoded":"::FW","cloudsCoded":"FW","icon":"pcloudyn.png","heatindexC":31,"heatindexF":87,"windchillC":27,"windchillF":81,"feelslikeC":31,"feelslikeF":87,"isDay":false,"sunrise":1417759020,"sunriseISO":"2014-12-05T05:57:00+00:00","sunset":1417801554,"sunsetISO":"2014-12-05T17:45:54+00:00","snowDepthCM":null,"snowDepthIN":null,"precipMM":null,"precipIN":null,"solradWM2":null,"light":0,"sky":19},"raw":"DGAA 051800Z 18005KT FEW030CB 27/24 Q1010 NOSIG"}]}