{"success":true,"error":null,"response":[{"id":"LXGB","loc":{"long":-5.3333333333333,"lat":36.133333333333},"place":{"name":"gibraltar (civ/m","state":"","country":"gi","pretty_name":{"city":"Gibraltar|Gibratar [MISSPELLING]|Gilbraltar [MISSPELLING]|Catalan Bay","region":"-","country":"Gibraltar"}},"profile":{"tz":"Europe/Gibraltar","elevM":5,"elevFT":16},"obTimestamp":1417801800,"obDateTime":"2014-12-05T18:50:00+01:00","ob":{"timestamp":1417801800,"dateTimeISO":"2014-12-05T18:50:00+01:00","tempC":15,"tempF":59,"dewpointC":8,"dewpointF":46,"humidity":63,"pressureMB":1023,"pressureIN":30.21,"spressureMB":1022,"spressureIN":30.18,"altimeterMB":null,"altimeterIN":null,"windKTS":7,"windKPH":13,"windMPH":8,"windSpeedKTS":7,"windSpeedKPH":13,"windSpeedMPH":8,"windDirDEG":270,"windDir":"W","windGustKTS":null,"windGustKPH":null,"windGustMPH":null,"flightRule":"LIFR","visibilityKM":null,"visibilityMI":null,"weather":"Mostly Clear","weatherShort":"Mostly Clear","weatherCoded":"::FW","weatherPrimary":"Mostly Clear","weatherPrimaryCoded":"::FW","cloudsCoded":"FW","icon":"pcloudyn.png","heatindexC":15,"heatindexF":59,"windchillC":15,"windchillF":59,"feelslikeC":15,"feelslikeF":59,"isDay":false,"sunrise":1417763853,"sunriseISO":"2014-12-05T08:17:33+01:00","sunset":1417799200,"sunsetISO":"2014-12-05T18:06:40+01:00","snowDepthCM":null,"snowDepthIN":null,"precipMM":null,"precipIN":null,"solradWM2":null,"light":0,"sky":19},"raw":"LXGB 051750Z 27007KT 9999 FEW032 15/08 Q1023 NOSIG"}]}