{"success":true,"error":null,"response":[{"id":"BGGH","loc":{"long":-51.683333333333,"lat":64.2},"place":{"name":"godthab (port)","state":"","country":"gl","pretty_name":{"city":"Nuuk|Godthaab|Kangeq","region":"-","country":"Greenland"}},"profile":{"tz":"America/Godthab","elevM":70,"elevFT":230},"obTimestamp":1417798200,"obDateTime":"2014-12-05T13:50:00-03:00","ob":{"timestamp":1417798200,"dateTimeISO":"2014-12-05T13:50:00-03:00","tempC":1,"tempF":34,"dewpointC":-5,"dewpointF":23,"humidity":65,"pressureMB":969,"pressureIN":28.61,"spressureMB":961,"spressureIN":28.38,"altimeterMB":null,"altimeterIN":null,"windKTS":11,"windKPH":20,"windMPH":13,"windSpeedKTS":11,"windSpeedKPH":20,"windSpeedMPH":13,"windDirDEG":70,"windDir":"ENE","windGustKTS":null,"windGustKPH":null,"windGustMPH":null,"flightRule":"LIFR","visibilityKM":null,"visibilityMI":null,"weather":"Cloudy with Showers Nearby","weatherShort":"Showers Nearby","weatherCoded":"VC::RW,::OV","weatherPrimary":"Showers Nearby","weatherPrimaryCoded":"VC::RW","cloudsCoded":"OV","icon":"pcloudyrw.png","heatindexC":1,"heatindexF":34,"windchillC":-4,"windchillF":25,"feelslikeC":-4,"feelslikeF":25,"isDay":true,"sunrise":1417784257,"sunriseISO":"2014-12-05T09:57:37-03:00","sunset":1417801058,"sunsetISO":"2014-12-05T14:37:38-03:00","snowDepthCM":null,"snowDepthIN":null,"precipMM":null,"precipIN":null,"solradWM2":null,"light":47,"sky":100},"raw":"BGGH 051650Z 07011KT 9999 VCSH OVC038 01/M05 Q0969"},{"id":"BGBW","loc":{"long":-45.416666666667,"lat":61.166666666667},"place":{"name":"narssarssuaq","state":"","country":"gl","pretty_name":{"city":"Narsarsuaq","region":"-","country":"Greenland"}},"profile":{"tz":"America/Godthab","elevM":26,"elevFT":85},"obTimestamp":1417801800,"obDateTime":"2014-12-05T14:50:00-03:00","ob":{"timestamp":1417801800,"dateTimeISO":"2014-12-05T14:50:00-03:00","tempC":-2,"tempF":28,"dewpointC":-3,"dewpointF":27,"humidity":93,"pressureMB":989,"pressureIN":29.21,"spressureMB":986,"spressureIN":29.12,"altimeterMB":null,"altimeterIN":null,"windKTS":21,"windKPH":39,"windMPH":24,"windSpeedKTS":21,"windSpeedKPH":39,"windSpeedMPH":24,"windDirDEG":220,"windDir":"SW","windGustKTS":null,"windGustKPH":null,"windGustMPH":null,"flightRule":"LIFR","visibilityKM":1.2,"visibilityMI":0.75,"weather":"Windy with Snow Showers Likely","weatherShort":"Snow Showers","weatherCoded":":L:SW,::BS,::BK","weatherPrimary":"Snow Showers","weatherPrimaryCoded":":L:SW","cloudsCoded":"BK","icon":"snowshowerswn.png","heatindexC":-2,"heatindexF":28,"windchillC":-10,"windchillF":14,"feelslikeC":-10,"feelslikeF":14,"isDay":false,"sunrise":1417780573,"sunriseISO":"2014-12-05T08:56:13-03:00","sunset":1417801733,"sunsetISO":"2014-12-05T14:48:53-03:00","snowDepthCM":null,"snowDepthIN":null,"precipMM":null,"precipIN":null,"solradWM2":null,"light":0,"sky":81},"raw":"BGBW 051750Z 22021KT 1200 -SHSN DRSN VV008 M02/M03 Q0989"},{"id":"BGKK","loc":{"long":-37.133333333333,"lat":65.566666666667},"place":{"name":"kulusuk airport","state":"","country":"gl","pretty_name":{"city":"Kulusuk|Kap Dan","region":"-","country":"Greenland"}},"profile":{"tz":"America/Godthab","elevM":34,"elevFT":112},"obTimestamp":1417801800,"obDateTime":"2014-12-05T14:50:00-03:00","ob":{"timestamp":1417801800,"dateTimeISO":"2014-12-05T14:50:00-03:00","tempC":-2,"tempF":28,"dewpointC":-3,"dewpointF":27,"humidity":93,"pressureMB":985,"pressureIN":29.09,"spressureMB":981,"spressureIN":28.97,"altimeterMB":null,"altimeterIN":null,"windKTS":37,"windKPH":69,"windMPH":43,"windSpeedKTS":37,"windSpeedKPH":69,"windSpeedMPH":43,"windDirDEG":70,"windDir":"ENE","windGustKTS":47,"windGustKPH":87,"windGustMPH":54,"flightRule":"LIFR","visibilityKM":null,"visibilityMI":null,"weather":"Mostly Clear with Heavy Snow","weatherShort":"Heavy Snow","weatherCoded":":H:S,::FW","weatherPrimary":"Heavy Snow","weatherPrimaryCoded":":H:S","cloudsCoded":"FW","icon":"snown.png","heatindexC":-2,"heatindexF":28,"windchillC":-12,"windchillF":10,"feelslikeC":-12,"feelslikeF":10,"isDay":false,"sunrise":1417782126,"sunriseISO":"2014-12-05T09:22:06-03:00","sunset":1417796204,"sunsetISO":"2014-12-05T13:16:44-03:00","snowDepthCM":null,"snowDepthIN":null,"precipMM":null,"precipIN":null,"solradWM2":null,"sky":19,"light":0,"windGustSpeedKTS":47,"windGustSpeedKPH":87,"windGustSpeedMPH":54},"raw":"BGKK 051750Z AUTO 07037G47KT 0250NDV +SN VV004/// M02/M03 Q0985"},{"id":"BGJN","loc":{"long":-51.066666666667,"lat":69.25},"place":{"name":"jakobshavn (port","state":"","country":"gl","pretty_name":{"city":"Ilulissat|Jakobshavn|Pitorqeq","region":"-","country":"Greenland"}},"profile":{"tz":"America/Godthab","elevM":25,"elevFT":82},"obTimestamp":1417801800,"obDateTime":"2014-12-05T14:50:00-03:00","ob":{"timestamp":1417801800,"dateTimeISO":"2014-12-05T14:50:00-03:00","tempC":-1,"tempF":30,"dewpointC":-16,"dewpointF":3,"humidity":31,"pressureMB":983,"pressureIN":29.03,"spressureMB":980,"spressureIN":28.94,"altimeterMB":null,"altimeterIN":null,"windKTS":17,"windKPH":31,"windMPH":20,"windSpeedKTS":17,"windSpeedKPH":31,"windSpeedMPH":20,"windDirDEG":120,"windDir":"ESE","windGustKTS":null,"windGustKPH":null,"windGustMPH":null,"flightRule":"LIFR","visibilityKM":null,"visibilityMI":null,"weather":"Mostly Cloudy","weatherShort":"Mostly Cloudy","weatherCoded":"::BK","weatherPrimary":"Mostly Cloudy","weatherPrimaryCoded":"::BK","cloudsCoded":"BK","icon":"mcloudyn.png","heatindexC":-1,"heatindexF":30,"windchillC":-8,"windchillF":17,"feelslikeC":-8,"feelslikeF":17,"isDay":false,"sunrise":false,"sunriseISO":false,"sunset":false,"sunsetISO":false,"snowDepthCM":null,"snowDepthIN":null,"precipMM":null,"precipIN":null,"solradWM2":null,"light":0,"sky":81},"raw":"BGJN 051750Z 12017KT 080V150 9999 BKN120 M01/M16 Q0983"},{"id":"BGSF","loc":{"long":-50.716666666667,"lat":67},"place":{"name":"sondre stromfjor","state":"","country":"gl","pretty_name":{"city":"Kangerlussuaq","region":"-","country":"Greenland"}},"profile":{"tz":"America/Godthab","elevM":53,"elevFT":174},"obTimestamp":1417801800,"obDateTime":"2014-12-05T14:50:00-03:00","ob":{"timestamp":1417801800,"dateTimeISO":"2014-12-05T14:50:00-03:00","tempC":-1,"tempF":30,"dewpointC":-14,"dewpointF":7,"humidity":37,"pressureMB":979,"pressureIN":28.91,"spressureMB":973,"spressureIN":28.73,"altimeterMB":null,"altimeterIN":null,"windKTS":13,"windKPH":24,"windMPH":15,"windSpeedKTS":13,"windSpeedKPH":24,"windSpeedMPH":15,"windDirDEG":60,"windDir":"ENE","windGustKTS":null,"windGustKPH":null,"windGustMPH":null,"flightRule":"LIFR","visibilityKM":null,"visibilityMI":null,"weather":"Mostly Clear","weatherShort":"Mostly Clear","weatherCoded":"::FW","weatherPrimary":"Mostly Clear","weatherPrimaryCoded":"::FW","cloudsCoded":"FW","icon":"pcloudyn.png","heatindexC":-1,"heatindexF":30,"windchillC":-7,"windchillF":19,"feelslikeC":-7,"feelslikeF":19,"isDay":false,"sunrise":1417787394,"sunriseISO":"2014-12-05T10:49:54-03:00","sunset":1417797458,"sunsetISO":"2014-12-05T13:37:38-03:00","snowDepthCM":null,"snowDepthIN":null,"precipMM":null,"precipIN":null,"solradWM2":null,"sky":19,"light":0},"raw":"BGSF 051750Z AUTO 06013KT 6000NDV FEW120/// BKN140/// M01/M14 Q0979"},{"id":"BGTL","loc":{"long":-68.7,"lat":76.533333333333},"place":{"name":"thule ab","state":"","country":"gl","pretty_name":{"city":"Thule|Dundas","region":"-","country":"Greenland"}},"profile":{"tz":"America/Thule","elevM":77,"elevFT":253},"obTimestamp":1417802280,"obDateTime":"2014-12-05T13:58:00-04:00","ob":{"timestamp":1417802280,"dateTimeISO":"2014-12-05T13:58:00-04:00","tempC":-22,"tempF":-8,"dewpointC":-26,"dewpointF":-15,"humidity":70,"pressureMB":986,"pressureIN":29.12,"spressureMB":976,"spressureIN":28.82,"altimeterMB":985,"altimeterIN":29.09,"windKTS":5,"windKPH":9,"windMPH":6,"windSpeedKTS":5,"windSpeedKPH":9,"windSpeedMPH":6,"windDirDEG":100,"windDir":"E","windGustKTS":null,"windGustKPH":null,"windGustMPH":null,"flightRule":"LIFR","visibilityKM":null,"visibilityMI":null,"weather":"Clear","weatherShort":"Clear","weatherCoded":"::CL","weatherPrimary":"Clear","weatherPrimaryCoded":"::CL","cloudsCoded":"CL","icon":"sunnyn.png","heatindexC":-22,"heatindexF":-8,"windchillC":-29,"windchillF":-21,"feelslikeC":-29,"feelslikeF":-21,"isDay":false,"sunrise":false,"sunriseISO":false,"sunset":false,"sunsetISO":false,"snowDepthCM":null,"snowDepthIN":null,"precipMM":0,"precipIN":0,"solradWM2":null,"light":0,"tempMax6hrC":-21.2,"tempMax6hrF":-6,"tempMin6hrC":-25,"tempMin6hrF":-13,"sky":0},"raw":"BGTL 051758Z AUTO 10005KT 9999 CLR M22/M26 A2908 RMK AO2 SLP840 T12201263 11212 21250 57038"}]}