{"success":true,"error":null,"response":[{"id":"GBYD","loc":{"long":-16.65,"lat":13.333333333333},"place":{"name":"banjul/yundum in","state":"","country":"gm","pretty_name":{"city":"Banjul|Jalambantang","region":"WE","country":"Gambia"}},"profile":{"tz":"Africa/Banjul","elevM":36,"elevFT":118},"obTimestamp":1417802400,"obDateTime":"2014-12-05T18:00:00+00:00","ob":{"timestamp":1417802400,"dateTimeISO":"2014-12-05T18:00:00+00:00","tempC":31,"tempF":88,"dewpointC":18,"dewpointF":64,"humidity":46,"pressureMB":1010,"pressureIN":29.83,"spressureMB":1006,"spressureIN":29.71,"altimeterMB":null,"altimeterIN":null,"windKTS":0,"windKPH":0,"windMPH":0,"windSpeedKTS":0,"windSpeedKPH":0,"windSpeedMPH":0,"windDirDEG":0,"windDir":"N","windGustKTS":null,"windGustKPH":null,"windGustMPH":null,"flightRule":"LIFR","visibilityKM":11.265408,"visibilityMI":7,"weather":"Mostly Sunny","weatherShort":"Mostly Sunny","weatherCoded":"::FW","weatherPrimary":"Mostly Sunny","weatherPrimaryCoded":"::FW","cloudsCoded":"FW","icon":"pcloudy.png","heatindexC":32,"heatindexF":90,"windchillC":31,"windchillF":88,"feelslikeC":32,"feelslikeF":90,"isDay":true,"sunrise":1417763765,"sunriseISO":"2014-12-05T07:16:05+00:00","sunset":1417804724,"sunsetISO":"2014-12-05T18:38:44+00:00","snowDepthCM":null,"snowDepthIN":null,"precipMM":null,"precipIN":null,"solradWM2":null,"sky":19,"light":9},"raw":"GBYD 051800Z 00000KT CAVOK 31/18 Q1010"}]}