{"success":true,"error":null,"response":[{"id":"GUCY","loc":{"long":-13.616666666667,"lat":9.5666666666667},"place":{"name":"conakry/gbessia","state":"","country":"gn","pretty_name":{"city":"Conakry|Matam","region":"CNK","country":"Guinea"}},"profile":{"tz":"Africa/Conakry","elevM":26,"elevFT":85},"obTimestamp":1417802400,"obDateTime":"2014-12-05T18:00:00+00:00","ob":{"timestamp":1417802400,"dateTimeISO":"2014-12-05T18:00:00+00:00","tempC":29,"tempF":84,"dewpointC":25,"dewpointF":77,"humidity":79,"pressureMB":1010,"pressureIN":29.83,"spressureMB":1007,"spressureIN":29.74,"altimeterMB":null,"altimeterIN":null,"windKTS":8,"windKPH":15,"windMPH":9,"windSpeedKTS":8,"windSpeedKPH":15,"windSpeedMPH":9,"windDirDEG":240,"windDir":"WSW","windGustKTS":null,"windGustKPH":null,"windGustMPH":null,"flightRule":"LIFR","visibilityKM":null,"visibilityMI":null,"weather":"Partly Cloudy","weatherShort":"Partly Cloudy","weatherCoded":"::SC","weatherPrimary":"Partly Cloudy","weatherPrimaryCoded":"::SC","cloudsCoded":"SC","icon":"pcloudy.png","heatindexC":34,"heatindexF":94,"windchillC":29,"windchillF":84,"feelslikeC":34,"feelslikeF":94,"isDay":true,"sunrise":1417762649,"sunriseISO":"2014-12-05T06:57:29+00:00","sunset":1417804383,"sunsetISO":"2014-12-05T18:33:03+00:00","snowDepthCM":null,"snowDepthIN":null,"precipMM":null,"precipIN":null,"solradWM2":null,"light":7,"sky":44},"raw":"GUCY 051800Z 24008KT 9999 FEW015 SCT110 29/25 Q1010 NOSIG"}]}