{"success":true,"error":null,"response":[{"id":"TFFR","loc":{"long":-61.533333333333,"lat":16.266666666667},"place":{"name":"le raizet","state":"","country":"gp","pretty_name":{"city":"Pointe a Pitre|Les Abymes","region":"-","country":"Guadeloupe"}},"profile":{"tz":"America/Guadeloupe","elevM":11,"elevFT":36},"obTimestamp":1417804200,"obDateTime":"2014-12-05T14:30:00-04:00","ob":{"timestamp":1417804200,"dateTimeISO":"2014-12-05T14:30:00-04:00","tempC":28,"tempF":82,"dewpointC":22,"dewpointF":72,"humidity":70,"pressureMB":1011,"pressureIN":29.85,"spressureMB":1010,"spressureIN":29.83,"altimeterMB":null,"altimeterIN":null,"windKTS":7,"windKPH":13,"windMPH":8,"windSpeedKTS":7,"windSpeedKPH":13,"windSpeedMPH":8,"windDirDEG":180,"windDir":"S","windGustKTS":null,"windGustKPH":null,"windGustMPH":null,"flightRule":"LIFR","visibilityKM":null,"visibilityMI":null,"weather":"Partly Cloudy","weatherShort":"Partly Cloudy","weatherCoded":"::SC","weatherPrimary":"Partly Cloudy","weatherPrimaryCoded":"::SC","cloudsCoded":"SC","icon":"pcloudy.png","heatindexC":30,"heatindexF":86,"windchillC":28,"windchillF":82,"feelslikeC":30,"feelslikeF":86,"isDay":true,"sunrise":1417774856,"sunriseISO":"2014-12-05T06:20:56-04:00","sunset":1417815191,"sunsetISO":"2014-12-05T17:33:11-04:00","snowDepthCM":null,"snowDepthIN":null,"precipMM":null,"precipIN":null,"solradWM2":null,"light":38,"sky":44},"raw":"TFFR 051830Z 18007KT 130V220 9999 FEW016CB SCT053 28/22 Q1011"}]}