{"success":true,"error":null,"response":[{"id":"FGSL","loc":{"long":8.7166666666667,"lat":3.75},"place":{"name":"malabo/fernando","state":"","country":"gq","pretty_name":{"city":"Malabo|Ciudad de Ela Nguema","region":"BN","country":"Equatorial Guinea"}},"profile":{"tz":"Africa/Malabo","elevM":56,"elevFT":184},"obTimestamp":1417802400,"obDateTime":"2014-12-05T19:00:00+01:00","ob":{"timestamp":1417802400,"dateTimeISO":"2014-12-05T19:00:00+01:00","tempC":27,"tempF":81,"dewpointC":25,"dewpointF":77,"humidity":89,"pressureMB":1010,"pressureIN":29.83,"spressureMB":1004,"spressureIN":29.65,"altimeterMB":null,"altimeterIN":null,"windKTS":5,"windKPH":9,"windMPH":6,"windSpeedKTS":5,"windSpeedKPH":9,"windSpeedMPH":6,"windDirDEG":240,"windDir":"WSW","windGustKTS":null,"windGustKPH":null,"windGustMPH":null,"flightRule":"LIFR","visibilityKM":null,"visibilityMI":null,"weather":"Mostly Clear","weatherShort":"Mostly Clear","weatherCoded":"::FW","weatherPrimary":"Mostly Clear","weatherPrimaryCoded":"::FW","cloudsCoded":"FW","icon":"pcloudyn.png","heatindexC":31,"heatindexF":88,"windchillC":27,"windchillF":81,"feelslikeC":31,"feelslikeF":88,"isDay":false,"sunrise":1417756703,"sunriseISO":"2014-12-05T06:18:23+01:00","sunset":1417799603,"sunsetISO":"2014-12-05T18:13:23+01:00","snowDepthCM":null,"snowDepthIN":null,"precipMM":null,"precipIN":null,"solradWM2":null,"light":0,"sky":19},"raw":"FGSL 051800Z 24005KT 9999 FEW010 FEW020CB 27/25 Q1010 NOSIG"},{"id":"FGBT","loc":{"long":9.8,"lat":1.8833333333333},"place":{"name":"bata (rio muni)","state":"","country":"gq","pretty_name":{"city":"Bata|Yiba","region":"LI","country":"Equatorial Guinea"}},"profile":{"tz":"Africa/Malabo","elevM":8,"elevFT":26},"obTimestamp":1417802400,"obDateTime":"2014-12-05T19:00:00+01:00","ob":{"timestamp":1417802400,"dateTimeISO":"2014-12-05T19:00:00+01:00","tempC":28,"tempF":82,"dewpointC":25,"dewpointF":77,"humidity":84,"pressureMB":1010,"pressureIN":29.83,"spressureMB":1009,"spressureIN":29.8,"altimeterMB":null,"altimeterIN":null,"windKTS":7,"windKPH":13,"windMPH":8,"windSpeedKTS":7,"windSpeedKPH":13,"windSpeedMPH":8,"windDirDEG":250,"windDir":"WSW","windGustKTS":null,"windGustKPH":null,"windGustMPH":null,"flightRule":"LIFR","visibilityKM":null,"visibilityMI":null,"weather":"Partly Cloudy","weatherShort":"Partly Cloudy","weatherCoded":"::SC","weatherPrimary":"Partly Cloudy","weatherPrimaryCoded":"::SC","cloudsCoded":"SC","icon":"pcloudyn.png","heatindexC":32,"heatindexF":90,"windchillC":28,"windchillF":82,"feelslikeC":32,"feelslikeF":90,"isDay":false,"sunrise":1417756258,"sunriseISO":"2014-12-05T06:10:58+01:00","sunset":1417799528,"sunsetISO":"2014-12-05T18:12:08+01:00","snowDepthCM":null,"snowDepthIN":null,"precipMM":null,"precipIN":null,"solradWM2":null,"light":0,"sky":44},"raw":"FGBT 051800Z 25007KT 9999 SCT010 SCT100 28/25 Q1010 NOSIG"}]}