{"success":true,"error":null,"response":[{"id":"GGOV","loc":{"long":-15.65,"lat":11.866666666667},"place":{"name":"bissau (civ/mil)","state":"","country":"gw","pretty_name":{"city":"Bissau|Ponta Adelino","region":"BS","country":"Guinea-Bissau"}},"profile":{"tz":"Africa/Bissau","elevM":36,"elevFT":118},"obTimestamp":1417802400,"obDateTime":"2014-12-05T18:00:00+00:00","ob":{"timestamp":1417802400,"dateTimeISO":"2014-12-05T18:00:00+00:00","tempC":32,"tempF":90,"dewpointC":18,"dewpointF":64,"humidity":43,"pressureMB":1009,"pressureIN":29.8,"spressureMB":1005,"spressureIN":29.68,"altimeterMB":null,"altimeterIN":null,"windKTS":3,"windKPH":6,"windMPH":3,"windSpeedKTS":3,"windSpeedKPH":6,"windSpeedMPH":3,"windDirDEG":60,"windDir":"ENE","windGustKTS":null,"windGustKPH":null,"windGustMPH":null,"flightRule":"LIFR","visibilityKM":11.265408,"visibilityMI":7,"weather":"Mostly Sunny","weatherShort":"Mostly Sunny","weatherCoded":"::FW","weatherPrimary":"Mostly Sunny","weatherPrimaryCoded":"::FW","cloudsCoded":"FW","icon":"pcloudy.png","heatindexC":33,"heatindexF":92,"windchillC":32,"windchillF":90,"feelslikeC":33,"feelslikeF":92,"isDay":true,"sunrise":1417763373,"sunriseISO":"2014-12-05T07:09:33+00:00","sunset":1417804636,"sunsetISO":"2014-12-05T18:37:16+00:00","snowDepthCM":null,"snowDepthIN":null,"precipMM":null,"precipIN":null,"solradWM2":null,"sky":19,"light":9},"raw":"GGOV 051800Z 06003KT CAVOK 32/18 Q1009 NOSIG"}]}