{"success":true,"error":null,"response":[{"id":"LDRI","loc":{"long":14.566666666667,"lat":45.216666666667},"place":{"name":"rijeka/omisalj","state":"","country":"hr","pretty_name":{"city":"Rijeka|Omiљalj","region":"-","country":"Croatia (Hrvatska)"}},"profile":{"tz":"Europe/Zagreb","elevM":85,"elevFT":279},"obTimestamp":1417791600,"obDateTime":"2014-12-05T16:00:00+01:00","ob":{"timestamp":1417791600,"dateTimeISO":"2014-12-05T16:00:00+01:00","tempC":11,"tempF":52,"dewpointC":8,"dewpointF":46,"humidity":82,"pressureMB":1014,"pressureIN":29.94,"spressureMB":1004,"spressureIN":29.65,"altimeterMB":null,"altimeterIN":null,"windKTS":6,"windKPH":11,"windMPH":7,"windSpeedKTS":6,"windSpeedKPH":11,"windSpeedMPH":7,"windDirDEG":70,"windDir":"ENE","windGustKTS":null,"windGustKPH":null,"windGustMPH":null,"flightRule":"LIFR","visibilityKM":null,"visibilityMI":null,"weather":"Mostly Cloudy","weatherShort":"Mostly Cloudy","weatherCoded":"::BK","weatherPrimary":"Mostly Cloudy","weatherPrimaryCoded":"::BK","cloudsCoded":"BK","icon":"mcloudy.png","heatindexC":11,"heatindexF":52,"windchillC":11,"windchillF":52,"feelslikeC":11,"feelslikeF":52,"isDay":true,"sunrise":1417760707,"sunriseISO":"2014-12-05T07:25:07+01:00","sunset":1417792791,"sunsetISO":"2014-12-05T16:19:51+01:00","snowDepthCM":null,"snowDepthIN":null,"precipMM":null,"precipIN":null,"solradWM2":null,"light":5,"sky":81},"raw":"LDRI 051500Z 07006KT 9999 FEW036 BKN052 BKN075 11/08 Q1014"},{"id":"LDZA","loc":{"long":16.066666666667,"lat":45.716666666667},"place":{"name":"zagreb/pleso","state":"","country":"hr","pretty_name":{"city":"Zagreb|Pleso","region":"-","country":"Croatia"}},"profile":{"tz":"Europe/Zagreb","elevM":107,"elevFT":351},"obTimestamp":1417804200,"obDateTime":"2014-12-05T19:30:00+01:00","ob":{"timestamp":1417804200,"dateTimeISO":"2014-12-05T19:30:00+01:00","tempC":6,"tempF":43,"dewpointC":5,"dewpointF":41,"humidity":93,"pressureMB":1018,"pressureIN":30.06,"spressureMB":1005,"spressureIN":29.68,"altimeterMB":null,"altimeterIN":null,"windKTS":0,"windKPH":0,"windMPH":0,"windSpeedKTS":0,"windSpeedKPH":0,"windSpeedMPH":0,"windDirDEG":0,"windDir":"N","windGustKTS":null,"windGustKPH":null,"windGustMPH":null,"flightRule":"MVFR","visibilityKM":4,"visibilityMI":2.49,"weather":"Cloudy with Mist and Fog","weatherShort":"Mist and Fog","weatherCoded":"::BR,::OV","weatherPrimary":"Mist and Fog","weatherPrimaryCoded":"::BR","cloudsCoded":"OV","icon":"fogn.png","heatindexC":6,"heatindexF":43,"windchillC":6,"windchillF":43,"feelslikeC":6,"feelslikeF":43,"isDay":false,"sunrise":1417760453,"sunriseISO":"2014-12-05T07:20:53+01:00","sunset":1417792324,"sunsetISO":"2014-12-05T16:12:04+01:00","snowDepthCM":null,"snowDepthIN":null,"precipMM":null,"precipIN":null,"solradWM2":null,"light":0,"sky":100},"raw":"LDZA 051830Z 00000KT 4000 BR OVC010 06/05 Q1018 NOSIG"},{"id":"LDZD","loc":{"long":15.366666666667,"lat":44.1},"place":{"name":"zadar/zemunik","state":"","country":"hr","pretty_name":{"city":"Zadar|Ћarovi?","region":"13","country":"Croatia"}},"profile":{"tz":"Europe/Zagreb","elevM":84,"elevFT":276},"obTimestamp":1417804200,"obDateTime":"2014-12-05T19:30:00+01:00","ob":{"timestamp":1417804200,"dateTimeISO":"2014-12-05T19:30:00+01:00","tempC":10,"tempF":50,"dewpointC":10,"dewpointF":50,"humidity":100,"pressureMB":1013,"pressureIN":29.91,"spressureMB":1003,"spressureIN":29.62,"altimeterMB":null,"altimeterIN":null,"windKTS":4,"windKPH":7,"windMPH":5,"windSpeedKTS":4,"windSpeedKPH":7,"windSpeedMPH":5,"windDirDEG":130,"windDir":"SE","windGustKTS":null,"windGustKPH":null,"windGustMPH":null,"flightRule":"LIFR","visibilityKM":null,"visibilityMI":null,"weather":"Partly Cloudy","weatherShort":"Partly Cloudy","weatherCoded":"::SC","weatherPrimary":"Partly Cloudy","weatherPrimaryCoded":"::SC","cloudsCoded":"SC","icon":"pcloudyn.png","heatindexC":10,"heatindexF":50,"windchillC":10,"windchillF":50,"feelslikeC":10,"feelslikeF":50,"isDay":false,"sunrise":1417760284,"sunriseISO":"2014-12-05T07:18:04+01:00","sunset":1417792830,"sunsetISO":"2014-12-05T16:20:30+01:00","snowDepthCM":null,"snowDepthIN":null,"precipMM":null,"precipIN":null,"solradWM2":null,"light":0,"sky":44},"raw":"LDZD 051830Z 13004KT 9999 SCT050 10/10 Q1013 NOSIG"},{"id":"LDPL","loc":{"long":13.916666666667,"lat":44.883333333333},"place":{"name":"pula","state":"","country":"hr","pretty_name":{"city":"Pula|Ivani?i?i","region":"-","country":"Croatia"}},"profile":{"tz":"Europe/Zagreb","elevM":63,"elevFT":207},"obTimestamp":1417804200,"obDateTime":"2014-12-05T19:30:00+01:00","ob":{"timestamp":1417804200,"dateTimeISO":"2014-12-05T19:30:00+01:00","tempC":11,"tempF":52,"dewpointC":8,"dewpointF":46,"humidity":82,"pressureMB":1014,"pressureIN":29.94,"spressureMB":1006,"spressureIN":29.71,"altimeterMB":null,"altimeterIN":null,"windKTS":6,"windKPH":11,"windMPH":7,"windSpeedKTS":6,"windSpeedKPH":11,"windSpeedMPH":7,"windDirDEG":60,"windDir":"ENE","windGustKTS":null,"windGustKPH":null,"windGustMPH":null,"flightRule":"LIFR","visibilityKM":null,"visibilityMI":null,"weather":"Mostly Cloudy","weatherShort":"Mostly Cloudy","weatherCoded":"::BK","weatherPrimary":"Mostly Cloudy","weatherPrimaryCoded":"::BK","cloudsCoded":"BK","icon":"mcloudyn.png","heatindexC":11,"heatindexF":52,"windchillC":11,"windchillF":52,"feelslikeC":11,"feelslikeF":52,"isDay":false,"sunrise":1417760793,"sunriseISO":"2014-12-05T07:26:33+01:00","sunset":1417793017,"sunsetISO":"2014-12-05T16:23:37+01:00","snowDepthCM":null,"snowDepthIN":null,"precipMM":null,"precipIN":null,"solradWM2":null,"light":0,"sky":81},"raw":"LDPL 051830Z 06006KT 9999 BKN035 11/08 Q1014 NOSIG"},{"id":"LDDU","loc":{"long":18.266666666667,"lat":42.566666666667},"place":{"name":"dubrovnik-cilipi","state":"","country":"hr","pretty_name":{"city":"Dubrovnik|Ruљi?i","region":"-","country":"Croatia"}},"profile":{"tz":"Europe/Zagreb","elevM":165,"elevFT":541},"obTimestamp":1417804200,"obDateTime":"2014-12-05T19:30:00+01:00","ob":{"timestamp":1417804200,"dateTimeISO":"2014-12-05T19:30:00+01:00","tempC":13,"tempF":55,"dewpointC":10,"dewpointF":50,"humidity":82,"pressureMB":1013,"pressureIN":29.91,"spressureMB":993,"spressureIN":29.32,"altimeterMB":null,"altimeterIN":null,"windKTS":8,"windKPH":15,"windMPH":9,"windSpeedKTS":8,"windSpeedKPH":15,"windSpeedMPH":9,"windDirDEG":90,"windDir":"E","windGustKTS":null,"windGustKPH":null,"windGustMPH":null,"flightRule":"LIFR","visibilityKM":null,"visibilityMI":null,"weather":"Mostly Clear","weatherShort":"Mostly Clear","weatherCoded":"::FW","weatherPrimary":"Mostly Clear","weatherPrimaryCoded":"::FW","cloudsCoded":"FW","icon":"pcloudyn.png","heatindexC":13,"heatindexF":55,"windchillC":13,"windchillF":55,"feelslikeC":13,"feelslikeF":55,"isDay":false,"sunrise":1417759287,"sunriseISO":"2014-12-05T07:01:27+01:00","sunset":1417792434,"sunsetISO":"2014-12-05T16:13:54+01:00","snowDepthCM":null,"snowDepthIN":null,"precipMM":null,"precipIN":null,"solradWM2":null,"light":0,"sky":19},"raw":"LDDU 051830Z 09008KT 9999 FEW030 13/10 Q1013 NOSIG"},{"id":"LDSP","loc":{"long":16.3,"lat":43.516666666667},"place":{"name":"split/kastel sta","state":"","country":"hr","pretty_name":{"city":"Split|Divulje","region":"-","country":"Croatia"}},"profile":{"tz":"Europe/Zagreb","elevM":21,"elevFT":69},"obTimestamp":1417804200,"obDateTime":"2014-12-05T19:30:00+01:00","ob":{"timestamp":1417804200,"dateTimeISO":"2014-12-05T19:30:00+01:00","tempC":12,"tempF":54,"dewpointC":11,"dewpointF":52,"humidity":94,"pressureMB":1014,"pressureIN":29.94,"spressureMB":1011,"spressureIN":29.85,"altimeterMB":null,"altimeterIN":null,"windKTS":7,"windKPH":13,"windMPH":8,"windSpeedKTS":7,"windSpeedKPH":13,"windSpeedMPH":8,"windDirDEG":40,"windDir":"NE","windGustKTS":null,"windGustKPH":null,"windGustMPH":null,"flightRule":"LIFR","visibilityKM":null,"visibilityMI":null,"weather":"Partly Cloudy with Light Rain","weatherShort":"Light Rain","weatherCoded":":L:R,::SC","weatherPrimary":"Light Rain","weatherPrimaryCoded":":L:R","cloudsCoded":"SC","icon":"rainn.png","heatindexC":12,"heatindexF":54,"windchillC":12,"windchillF":54,"feelslikeC":12,"feelslikeF":54,"isDay":false,"sunrise":1417759944,"sunriseISO":"2014-12-05T07:12:24+01:00","sunset":1417792722,"sunsetISO":"2014-12-05T16:18:42+01:00","snowDepthCM":null,"snowDepthIN":null,"precipMM":null,"precipIN":null,"solradWM2":null,"light":0,"sky":44},"raw":"LDSP 051830Z 04007KT 360V080 9999 -RA FEW030 SCT050 12/11 Q1014 NOSIG"},{"id":"LDOS","loc":{"long":18.816666666667,"lat":45.466666666667},"place":{"name":"osijek","state":"","country":"hr","pretty_name":{"city":"Osijek|Klisa","region":"-","country":"Croatia"}},"profile":{"tz":"Europe/Zagreb","elevM":89,"elevFT":292},"obTimestamp":1417804200,"obDateTime":"2014-12-05T19:30:00+01:00","ob":{"timestamp":1417804200,"dateTimeISO":"2014-12-05T19:30:00+01:00","tempC":7,"tempF":45,"dewpointC":5,"dewpointF":41,"humidity":87,"pressureMB":1018,"pressureIN":30.06,"spressureMB":1007,"spressureIN":29.74,"altimeterMB":null,"altimeterIN":null,"windKTS":5,"windKPH":9,"windMPH":6,"windSpeedKTS":5,"windSpeedKPH":9,"windSpeedMPH":6,"windDirDEG":40,"windDir":"NE","windGustKTS":null,"windGustKPH":null,"windGustMPH":null,"flightRule":"LIFR","visibilityKM":null,"visibilityMI":null,"weather":"Partly Cloudy","weatherShort":"Partly Cloudy","weatherCoded":"::SC","weatherPrimary":"Partly Cloudy","weatherPrimaryCoded":"::SC","cloudsCoded":"SC","icon":"pcloudyn.png","heatindexC":7,"heatindexF":45,"windchillC":7,"windchillF":45,"feelslikeC":7,"feelslikeF":45,"isDay":false,"sunrise":1417759739,"sunriseISO":"2014-12-05T07:08:59+01:00","sunset":1417791718,"sunsetISO":"2014-12-05T16:01:58+01:00","snowDepthCM":null,"snowDepthIN":null,"precipMM":null,"precipIN":null,"solradWM2":null,"light":0,"sky":44},"raw":"LDOS 051830Z 04005KT 9999 SCT033 07/05 Q1018"}]}