{"success":true,"error":null,"response":[{"id":"LHSM","loc":{"long":17.166666666667,"lat":46.683333333333},"place":{"name":"balaton","state":"","country":"hu","pretty_name":{"city":"Sarmellek|Zalavбr","region":"ZA","country":"Hungary"}},"profile":{"tz":"Europe/Budapest","elevM":125,"elevFT":410},"obTimestamp":1417794300,"obDateTime":"2014-12-05T16:45:00+01:00","ob":{"timestamp":1417794300,"dateTimeISO":"2014-12-05T16:45:00+01:00","tempC":5,"tempF":41,"dewpointC":4,"dewpointF":39,"humidity":93,"pressureMB":1019,"pressureIN":30.09,"spressureMB":1003,"spressureIN":29.62,"altimeterMB":null,"altimeterIN":null,"windKTS":0,"windKPH":0,"windMPH":0,"windSpeedKTS":0,"windSpeedKPH":0,"windSpeedMPH":0,"windDirDEG":0,"windDir":"N","windGustKTS":null,"windGustKPH":null,"windGustMPH":null,"flightRule":"IFR","visibilityKM":3,"visibilityMI":1.86,"weather":"Cloudy with Mist and Fog","weatherShort":"Mist and Fog","weatherCoded":"::BR,::OV","weatherPrimary":"Mist and Fog","weatherPrimaryCoded":"::BR","cloudsCoded":"OV","icon":"fogn.png","heatindexC":5,"heatindexF":41,"windchillC":5,"windchillF":41,"feelslikeC":5,"feelslikeF":41,"isDay":false,"sunrise":1417760402,"sunriseISO":"2014-12-05T07:20:02+01:00","sunset":1417791847,"sunsetISO":"2014-12-05T16:04:07+01:00","snowDepthCM":null,"snowDepthIN":null,"precipMM":null,"precipIN":null,"solradWM2":null,"light":0,"sky":100},"raw":"LHSM 051545Z 00000KT 3000 BR OVC005 05/04 Q1019"},{"id":"LHDC","loc":{"long":21.616666666667,"lat":47.466666666667},"place":{"name":"debrecen airport","state":"","country":"hu","pretty_name":{"city":"Debrecen|Mikepйrcsi Tanyбk","region":"HB","country":"Hungary"}},"profile":{"tz":"Europe/Budapest","elevM":112,"elevFT":367},"obTimestamp":1417794300,"obDateTime":"2014-12-05T16:45:00+01:00","ob":{"timestamp":1417794300,"dateTimeISO":"2014-12-05T16:45:00+01:00","tempC":5,"tempF":41,"dewpointC":4,"dewpointF":39,"humidity":93,"pressureMB":1020,"pressureIN":30.12,"spressureMB":1006,"spressureIN":29.71,"altimeterMB":null,"altimeterIN":null,"windKTS":3,"windKPH":6,"windMPH":3,"windSpeedKTS":3,"windSpeedKPH":6,"windSpeedMPH":3,"windDirDEG":300,"windDir":"WNW","windGustKTS":null,"windGustKPH":null,"windGustMPH":null,"flightRule":"LIFR","visibilityKM":5,"visibilityMI":3.11,"weather":"Partly Cloudy with Mist and Fog","weatherShort":"Mist and Fog","weatherCoded":"::BR,::SC","weatherPrimary":"Mist and Fog","weatherPrimaryCoded":"::BR","cloudsCoded":"SC","icon":"fogn.png","heatindexC":5,"heatindexF":41,"windchillC":5,"windchillF":41,"feelslikeC":5,"feelslikeF":41,"isDay":false,"sunrise":1417759513,"sunriseISO":"2014-12-05T07:05:13+01:00","sunset":1417790600,"sunsetISO":"2014-12-05T15:43:20+01:00","snowDepthCM":null,"snowDepthIN":null,"precipMM":null,"precipIN":null,"solradWM2":null,"light":0,"sky":44},"raw":"LHDC 051545Z 30003KT 5000 BR SCT083 05/04 Q1020"},{"id":"LHBC","loc":{"long":21.166666666667,"lat":46.683333333333},"place":{"name":"bekescsaba glide","state":"","country":"hu","pretty_name":{"city":"Bekescsaba|Siуrйt","region":"BE","country":"Hungary"}},"profile":{"tz":"Europe/Budapest","elevM":86,"elevFT":282},"obTimestamp":1417801500,"obDateTime":"2014-12-05T18:45:00+01:00","ob":{"timestamp":1417801500,"dateTimeISO":"2014-12-05T18:45:00+01:00","tempC":6,"tempF":43,"dewpointC":5,"dewpointF":41,"humidity":93,"pressureMB":1020,"pressureIN":30.12,"spressureMB":1009,"spressureIN":29.8,"altimeterMB":null,"altimeterIN":null,"windKTS":4,"windKPH":7,"windMPH":5,"windSpeedKTS":4,"windSpeedKPH":7,"windSpeedMPH":5,"windDirDEG":40,"windDir":"NE","windGustKTS":null,"windGustKPH":null,"windGustMPH":null,"flightRule":"LIFR","visibilityKM":11.265408,"visibilityMI":7,"weather":"Mostly Clear","weatherShort":"Mostly Clear","weatherCoded":"::FW","weatherPrimary":"Mostly Clear","weatherPrimaryCoded":"::FW","cloudsCoded":"FW","icon":"pcloudyn.png","heatindexC":6,"heatindexF":43,"windchillC":6,"windchillF":43,"feelslikeC":6,"feelslikeF":43,"isDay":false,"sunrise":1417759441,"sunriseISO":"2014-12-05T07:04:01+01:00","sunset":1417790888,"sunsetISO":"2014-12-05T15:48:08+01:00","snowDepthCM":null,"snowDepthIN":null,"precipMM":null,"precipIN":null,"solradWM2":null,"sky":19,"light":0},"raw":"LHBC 051745Z 04004KT CAVOK 06/05 Q1020"},{"id":"LHPA","loc":{"long":17.5,"lat":47.35},"place":{"name":"papa","state":"","country":"hu","pretty_name":{"city":"Papa|Bakonypцlцske","region":"VE","country":"Hungary"}},"profile":{"tz":"Europe/Budapest","elevM":148,"elevFT":486},"obTimestamp":1417803300,"obDateTime":"2014-12-05T19:15:00+01:00","ob":{"timestamp":1417803300,"dateTimeISO":"2014-12-05T19:15:00+01:00","tempC":6,"tempF":43,"dewpointC":5,"dewpointF":41,"humidity":93,"pressureMB":1018,"pressureIN":30.06,"spressureMB":1000,"spressureIN":29.53,"altimeterMB":null,"altimeterIN":null,"windKTS":2,"windKPH":4,"windMPH":2,"windSpeedKTS":2,"windSpeedKPH":4,"windSpeedMPH":2,"windDirDEG":310,"windDir":"NW","windGustKTS":null,"windGustKPH":null,"windGustMPH":null,"flightRule":"MVFR","visibilityKM":3,"visibilityMI":1.86,"weather":"Cloudy with Mist and Fog","weatherShort":"Mist and Fog","weatherCoded":"::BR,::OV","weatherPrimary":"Mist and Fog","weatherPrimaryCoded":"::BR","cloudsCoded":"OV","icon":"fogn.png","heatindexC":6,"heatindexF":43,"windchillC":6,"windchillF":43,"feelslikeC":6,"feelslikeF":43,"isDay":false,"sunrise":1417760474,"sunriseISO":"2014-12-05T07:21:14+01:00","sunset":1417791615,"sunsetISO":"2014-12-05T16:00:15+01:00","snowDepthCM":null,"snowDepthIN":null,"precipMM":null,"precipIN":null,"solradWM2":null,"light":0,"sky":100},"raw":"LHPA 051815Z 31001MPS 3000 BR OVC012 06/05 Q1018 NOSIG RMK YLO"},{"id":"LHKE","loc":{"long":19.75,"lat":46.916666666667},"place":{"name":"kecskemet","state":"","country":"hu","pretty_name":{"city":"Kecskemet|Szйkelytelep","region":"BK","country":"Hungary"}},"profile":{"tz":"Europe/Budapest","elevM":115,"elevFT":377},"obTimestamp":1417803300,"obDateTime":"2014-12-05T19:15:00+01:00","ob":{"timestamp":1417803300,"dateTimeISO":"2014-12-05T19:15:00+01:00","tempC":6,"tempF":43,"dewpointC":5,"dewpointF":41,"humidity":93,"pressureMB":1020,"pressureIN":30.12,"spressureMB":1006,"spressureIN":29.71,"altimeterMB":null,"altimeterIN":null,"windKTS":2,"windKPH":4,"windMPH":2,"windSpeedKTS":2,"windSpeedKPH":4,"windSpeedMPH":2,"windDirDEG":60,"windDir":"ENE","windGustKTS":null,"windGustKPH":null,"windGustMPH":null,"flightRule":"LIFR","visibilityKM":4,"visibilityMI":2.49,"weather":"Cloudy with Mist and Fog","weatherShort":"Mist and Fog","weatherCoded":"::BR,::OV","weatherPrimary":"Mist and Fog","weatherPrimaryCoded":"::BR","cloudsCoded":"OV","icon":"fogn.png","heatindexC":6,"heatindexF":43,"windchillC":6,"windchillF":43,"feelslikeC":6,"feelslikeF":43,"isDay":false,"sunrise":1417759834,"sunriseISO":"2014-12-05T07:10:34+01:00","sunset":1417791175,"sunsetISO":"2014-12-05T15:52:55+01:00","snowDepthCM":null,"snowDepthIN":null,"precipMM":null,"precipIN":null,"solradWM2":null,"light":0,"sky":100},"raw":"LHKE 051815Z 06002KT 4000 BR OVC037 06/05 Q1020 NOSIG RMK GRN"},{"id":"LHSN","loc":{"long":20.233333333333,"lat":47.116666666667},"place":{"name":"szolnok","state":"","country":"hu","pretty_name":{"city":"Szolnok|Cseberйr","region":"JN","country":"Hungary"}},"profile":{"tz":"Europe/Budapest","elevM":98,"elevFT":322},"obTimestamp":1417803300,"obDateTime":"2014-12-05T19:15:00+01:00","ob":{"timestamp":1417803300,"dateTimeISO":"2014-12-05T19:15:00+01:00","tempC":5,"tempF":41,"dewpointC":4,"dewpointF":39,"humidity":93,"pressureMB":1020,"pressureIN":30.12,"spressureMB":1008,"spressureIN":29.77,"altimeterMB":null,"altimeterIN":null,"windKTS":2,"windKPH":4,"windMPH":2,"windSpeedKTS":2,"windSpeedKPH":4,"windSpeedMPH":2,"windDirDEG":80,"windDir":"E","windGustKTS":null,"windGustKPH":null,"windGustMPH":null,"flightRule":"LIFR","visibilityKM":6,"visibilityMI":3.73,"weather":"Cloudy","weatherShort":"Cloudy","weatherCoded":"::OV","weatherPrimary":"Cloudy","weatherPrimaryCoded":"::OV","cloudsCoded":"OV","icon":"cloudyn.png","heatindexC":5,"heatindexF":41,"windchillC":5,"windchillF":41,"feelslikeC":5,"feelslikeF":41,"isDay":false,"sunrise":1417759764,"sunriseISO":"2014-12-05T07:09:24+01:00","sunset":1417791013,"sunsetISO":"2014-12-05T15:50:13+01:00","snowDepthCM":null,"snowDepthIN":null,"precipMM":null,"precipIN":null,"solradWM2":null,"light":0,"sky":100},"raw":"LHSN 051815Z 08002KT 6000 OVC040 05/04 Q1020 NOSIG RMK WHT"},{"id":"LHUD","loc":{"long":20.1,"lat":46.25},"place":{"name":"szeged (aut)","state":"","country":"hu","pretty_name":{"city":"Szeged|Faragуd?l?","region":"CS","country":"Hungary"}},"profile":{"tz":"Europe/Budapest","elevM":84,"elevFT":276},"obTimestamp":1417803300,"obDateTime":"2014-12-05T19:15:00+01:00","ob":{"timestamp":1417803300,"dateTimeISO":"2014-12-05T19:15:00+01:00","tempC":7,"tempF":45,"dewpointC":5,"dewpointF":41,"humidity":87,"pressureMB":1019,"pressureIN":30.09,"spressureMB":1009,"spressureIN":29.8,"altimeterMB":null,"altimeterIN":null,"windKTS":5,"windKPH":9,"windMPH":6,"windSpeedKTS":5,"windSpeedKPH":9,"windSpeedMPH":6,"windDirDEG":50,"windDir":"NE","windGustKTS":null,"windGustKPH":null,"windGustMPH":null,"flightRule":"MVFR","visibilityKM":8,"visibilityMI":4.97,"weather":"Cloudy","weatherShort":"Cloudy","weatherCoded":"::OV","weatherPrimary":"Cloudy","weatherPrimaryCoded":"::OV","cloudsCoded":"OV","icon":"cloudyn.png","heatindexC":7,"heatindexF":45,"windchillC":7,"windchillF":45,"feelslikeC":7,"feelslikeF":45,"isDay":false,"sunrise":1417759601,"sunriseISO":"2014-12-05T07:06:41+01:00","sunset":1417791240,"sunsetISO":"2014-12-05T15:54:00+01:00","snowDepthCM":null,"snowDepthIN":null,"precipMM":null,"precipIN":null,"solradWM2":null,"light":0,"sky":100},"raw":"LHUD 051815Z 05005KT 8000 BKN030 OVC083 07/05 Q1019"},{"id":"LHPP","loc":{"long":18.233333333333,"lat":45.983333333333},"place":{"name":"pecs-pogany","state":"","country":"hu","pretty_name":{"city":"Pecs|Megyerid?l?","region":"BA","country":"Hungary"}},"profile":{"tz":"Europe/Budapest","elevM":305,"elevFT":1001},"obTimestamp":1417803300,"obDateTime":"2014-12-05T19:15:00+01:00","ob":{"timestamp":1417803300,"dateTimeISO":"2014-12-05T19:15:00+01:00","tempC":5,"tempF":41,"dewpointC":4,"dewpointF":39,"humidity":93,"pressureMB":1018,"pressureIN":30.06,"spressureMB":981,"spressureIN":28.97,"altimeterMB":null,"altimeterIN":null,"windKTS":2,"windKPH":4,"windMPH":2,"windSpeedKTS":2,"windSpeedKPH":4,"windSpeedMPH":2,"windDirDEG":70,"windDir":"ENE","windGustKTS":null,"windGustKPH":null,"windGustMPH":null,"flightRule":"LIFR","visibilityKM":11.265408,"visibilityMI":7,"weather":"Mostly Clear","weatherShort":"Mostly Clear","weatherCoded":"::FW","weatherPrimary":"Mostly Clear","weatherPrimaryCoded":"::FW","cloudsCoded":"FW","icon":"pcloudyn.png","heatindexC":5,"heatindexF":41,"windchillC":5,"windchillF":41,"feelslikeC":5,"feelslikeF":41,"isDay":false,"sunrise":1417759991,"sunriseISO":"2014-12-05T07:13:11+01:00","sunset":1417791746,"sunsetISO":"2014-12-05T16:02:26+01:00","snowDepthCM":null,"snowDepthIN":null,"precipMM":null,"precipIN":null,"solradWM2":null,"sky":19,"light":0},"raw":"LHPP 051815Z 07002KT CAVOK 05/04 Q1018"},{"id":"LHPR","loc":{"long":17.816666666667,"lat":47.633333333333},"place":{"name":"gyor","state":"","country":"hu","pretty_name":{"city":"Gy?r-Pйr|Gyor-Per","region":"GS","country":"Hungary"}},"profile":{"tz":"Europe/Budapest","elevM":129,"elevFT":423},"obTimestamp":1417803300,"obDateTime":"2014-12-05T19:15:00+01:00","ob":{"timestamp":1417803300,"dateTimeISO":"2014-12-05T19:15:00+01:00","tempC":6,"tempF":43,"dewpointC":5,"dewpointF":41,"humidity":93,"pressureMB":1019,"pressureIN":30.09,"spressureMB":1003,"spressureIN":29.62,"altimeterMB":null,"altimeterIN":null,"windKTS":4,"windKPH":7,"windMPH":5,"windSpeedKTS":4,"windSpeedKPH":7,"windSpeedMPH":5,"windDirDEG":100,"windDir":"E","windGustKTS":null,"windGustKPH":null,"windGustMPH":null,"flightRule":"LIFR","visibilityKM":8,"visibilityMI":4.97,"weather":"Cloudy with Light Rain","weatherShort":"Light Rain","weatherCoded":":L:R,::OV","weatherPrimary":"Light Rain","weatherPrimaryCoded":":L:R","cloudsCoded":"OV","icon":"rainn.png","heatindexC":6,"heatindexF":43,"windchillC":6,"windchillF":43,"feelslikeC":6,"feelslikeF":43,"isDay":false,"sunrise":1417760464,"sunriseISO":"2014-12-05T07:21:04+01:00","sunset":1417791473,"sunsetISO":"2014-12-05T15:57:53+01:00","snowDepthCM":null,"snowDepthIN":null,"precipMM":null,"precipIN":null,"solradWM2":null,"light":0,"sky":100},"raw":"LHPR 051815Z 10004KT 8000 -RA SCT026 OVC083 06/05 Q1019"},{"id":"LHBP","loc":{"long":19.266666666667,"lat":47.416666666667},"place":{"name":"budapest/feriheg","state":"","country":"hu","pretty_name":{"city":"Budapest|Vecsйs","region":"BU","country":"Hungary"}},"profile":{"tz":"Europe/Budapest","elevM":185,"elevFT":607},"obTimestamp":1417804200,"obDateTime":"2014-12-05T19:30:00+01:00","ob":{"timestamp":1417804200,"dateTimeISO":"2014-12-05T19:30:00+01:00","tempC":6,"tempF":43,"dewpointC":4,"dewpointF":39,"humidity":87,"pressureMB":1019,"pressureIN":30.09,"spressureMB":996,"spressureIN":29.41,"altimeterMB":null,"altimeterIN":null,"windKTS":8,"windKPH":15,"windMPH":9,"windSpeedKTS":8,"windSpeedKPH":15,"windSpeedMPH":9,"windDirDEG":80,"windDir":"E","windGustKTS":null,"windGustKPH":null,"windGustMPH":null,"flightRule":"LIFR","visibilityKM":null,"visibilityMI":null,"weather":"Cloudy","weatherShort":"Cloudy","weatherCoded":"::OV","weatherPrimary":"Cloudy","weatherPrimaryCoded":"::OV","cloudsCoded":"OV","icon":"cloudyn.png","heatindexC":6,"heatindexF":43,"windchillC":6,"windchillF":43,"feelslikeC":6,"feelslikeF":43,"isDay":false,"sunrise":1417760065,"sunriseISO":"2014-12-05T07:14:25+01:00","sunset":1417791176,"sunsetISO":"2014-12-05T15:52:56+01:00","snowDepthCM":null,"snowDepthIN":null,"precipMM":null,"precipIN":null,"solradWM2":null,"light":0,"sky":100},"raw":"LHBP 051830Z 08008KT 9999 OVC031 06/04 Q1019 NOSIG"}]}