{"success":true,"error":null,"response":[{"id":"EISG","loc":{"long":-8.6,"lat":54.283333333333},"place":{"name":"sligo arpt","state":"","country":"ie","pretty_name":{"city":"Sligo|Strandhill","region":"SO","country":"Ireland"}},"profile":{"tz":"Europe/Dublin","elevM":3,"elevFT":10},"obTimestamp":1417793400,"obDateTime":"2014-12-05T15:30:00+00:00","ob":{"timestamp":1417793400,"dateTimeISO":"2014-12-05T15:30:00+00:00","tempC":7,"tempF":45,"dewpointC":3,"dewpointF":37,"humidity":76,"pressureMB":1026,"pressureIN":30.3,"spressureMB":1026,"spressureIN":30.3,"altimeterMB":null,"altimeterIN":null,"windKTS":26,"windKPH":48,"windMPH":30,"windSpeedKTS":26,"windSpeedKPH":48,"windSpeedMPH":30,"windDirDEG":310,"windDir":"NW","windGustKTS":37,"windGustKPH":69,"windGustMPH":43,"flightRule":"LIFR","visibilityKM":7,"visibilityMI":4.35,"weather":"Partly Cloudy","weatherShort":"Partly Cloudy","weatherCoded":"::SC","weatherPrimary":"Partly Cloudy","weatherPrimaryCoded":"::SC","cloudsCoded":"SC","icon":"pcloudy.png","heatindexC":7,"heatindexF":45,"windchillC":7,"windchillF":45,"feelslikeC":7,"feelslikeF":45,"isDay":true,"sunrise":1417768673,"sunriseISO":"2014-12-05T08:37:53+00:00","sunset":1417795950,"sunsetISO":"2014-12-05T16:12:30+00:00","snowDepthCM":null,"snowDepthIN":null,"precipMM":null,"precipIN":null,"solradWM2":null,"light":13,"windGustSpeedKTS":37,"windGustSpeedKPH":69,"windGustSpeedMPH":43,"sky":44},"raw":"EISG 051530Z 31026G37KT 7000 FEW022 SCT031 SCT060 07/03 Q1026"},{"id":"EIME","loc":{"long":-6.45,"lat":53.3},"place":{"name":"casement (mil)","state":"","country":"ie","pretty_name":{"city":"Casement|Baldonnell","region":"L","country":"Ireland"}},"profile":{"tz":"Europe/Dublin","elevM":93,"elevFT":305},"obTimestamp":1417802400,"obDateTime":"2014-12-05T18:00:00+00:00","ob":{"timestamp":1417802400,"dateTimeISO":"2014-12-05T18:00:00+00:00","tempC":3,"tempF":37,"dewpointC":2,"dewpointF":36,"humidity":93,"pressureMB":1026,"pressureIN":30.3,"spressureMB":1014,"spressureIN":29.94,"altimeterMB":null,"altimeterIN":null,"windKTS":8,"windKPH":15,"windMPH":9,"windSpeedKTS":8,"windSpeedKPH":15,"windSpeedMPH":9,"windDirDEG":250,"windDir":"WSW","windGustKTS":null,"windGustKPH":null,"windGustMPH":null,"flightRule":"LIFR","visibilityKM":null,"visibilityMI":null,"weather":"Mostly Cloudy","weatherShort":"Mostly Cloudy","weatherCoded":"::BK","weatherPrimary":"Mostly Cloudy","weatherPrimaryCoded":"::BK","cloudsCoded":"BK","icon":"mcloudyn.png","heatindexC":3,"heatindexF":37,"windchillC":-1,"windchillF":30,"feelslikeC":-1,"feelslikeF":30,"isDay":false,"sunrise":1417767836,"sunriseISO":"2014-12-05T08:23:56+00:00","sunset":1417795755,"sunsetISO":"2014-12-05T16:09:15+00:00","snowDepthCM":null,"snowDepthIN":null,"precipMM":null,"precipIN":null,"solradWM2":null,"light":0,"sky":81},"raw":"EIME 051800Z 25008KT 9999 FEW018 BKN070 03/02 Q1026"},{"id":"EIKY","loc":{"long":-9.5166666666667,"lat":52.183333333333},"place":{"name":"kerry arpt","state":"","country":"ie","pretty_name":{"city":"Kerry|O’Connell Bridge","region":"KY","country":"Ireland"}},"profile":{"tz":"Europe/Dublin","elevM":34,"elevFT":112},"obTimestamp":1417802400,"obDateTime":"2014-12-05T18:00:00+00:00","ob":{"timestamp":1417802400,"dateTimeISO":"2014-12-05T18:00:00+00:00","tempC":6,"tempF":43,"dewpointC":5,"dewpointF":41,"humidity":93,"pressureMB":1030,"pressureIN":30.42,"spressureMB":1026,"spressureIN":30.3,"altimeterMB":null,"altimeterIN":null,"windKTS":4,"windKPH":7,"windMPH":5,"windSpeedKTS":4,"windSpeedKPH":7,"windSpeedMPH":5,"windDirDEG":280,"windDir":"W","windGustKTS":null,"windGustKPH":null,"windGustMPH":null,"flightRule":"LIFR","visibilityKM":null,"visibilityMI":null,"weather":"Partly Cloudy with Light Rain","weatherShort":"Light Rain","weatherCoded":":L:R,::SC","weatherPrimary":"Light Rain","weatherPrimaryCoded":":L:R","cloudsCoded":"SC","icon":"rainn.png","heatindexC":6,"heatindexF":43,"windchillC":6,"windchillF":43,"feelslikeC":6,"feelslikeF":43,"isDay":false,"sunrise":1417768230,"sunriseISO":"2014-12-05T08:30:30+00:00","sunset":1417796833,"sunsetISO":"2014-12-05T16:27:13+00:00","snowDepthCM":null,"snowDepthIN":null,"precipMM":null,"precipIN":null,"solradWM2":null,"light":0,"sky":44},"raw":"EIKY 051800Z 28004KT 250V320 9999 -RA SCT028 06/05 Q1030"},{"id":"EIWF","loc":{"long":-7.0833333333333,"lat":52.183333333333},"place":{"name":"waterford arpt","state":"","country":"ie","pretty_name":{"city":"Waterford|Monamintra Cross Roads","region":"WD","country":"Ireland"}},"profile":{"tz":"Europe/Dublin","elevM":36,"elevFT":118},"obTimestamp":1417802400,"obDateTime":"2014-12-05T18:00:00+00:00","ob":{"timestamp":1417802400,"dateTimeISO":"2014-12-05T18:00:00+00:00","tempC":4,"tempF":39,"dewpointC":2,"dewpointF":36,"humidity":87,"pressureMB":1028,"pressureIN":30.36,"spressureMB":1023,"spressureIN":30.21,"altimeterMB":null,"altimeterIN":null,"windKTS":7,"windKPH":13,"windMPH":8,"windSpeedKTS":7,"windSpeedKPH":13,"windSpeedMPH":8,"windDirDEG":320,"windDir":"NW","windGustKTS":null,"windGustKPH":null,"windGustMPH":null,"flightRule":"LIFR","visibilityKM":null,"visibilityMI":null,"weather":"Partly Cloudy","weatherShort":"Partly Cloudy","weatherCoded":"::SC","weatherPrimary":"Partly Cloudy","weatherPrimaryCoded":"::SC","cloudsCoded":"SC","icon":"pcloudyn.png","heatindexC":4,"heatindexF":39,"windchillC":1,"windchillF":33,"feelslikeC":1,"feelslikeF":33,"isDay":false,"sunrise":1417767646,"sunriseISO":"2014-12-05T08:20:46+00:00","sunset":1417796249,"sunsetISO":"2014-12-05T16:17:29+00:00","snowDepthCM":null,"snowDepthIN":null,"precipMM":null,"precipIN":null,"solradWM2":null,"light":0,"sky":44},"raw":"EIWF 051800Z 32007KT 9999 FEW015 SCT025 04/02 Q1028"},{"id":"EIDL","loc":{"long":-8.3333333333333,"lat":55.05},"place":{"name":"donegal arpt","state":"","country":"ie","pretty_name":{"city":"Donegal|Annagary","region":"DL","country":"Ireland"}},"profile":{"tz":"Europe/Dublin","elevM":9,"elevFT":30},"obTimestamp":1417802400,"obDateTime":"2014-12-05T18:00:00+00:00","ob":{"timestamp":1417802400,"dateTimeISO":"2014-12-05T18:00:00+00:00","tempC":9,"tempF":48,"dewpointC":2,"dewpointF":36,"humidity":62,"pressureMB":1026,"pressureIN":30.3,"spressureMB":1025,"spressureIN":30.27,"altimeterMB":null,"altimeterIN":null,"windKTS":18,"windKPH":33,"windMPH":21,"windSpeedKTS":18,"windSpeedKPH":33,"windSpeedMPH":21,"windDirDEG":320,"windDir":"NW","windGustKTS":null,"windGustKPH":null,"windGustMPH":null,"flightRule":"LIFR","visibilityKM":null,"visibilityMI":null,"weather":"Mostly Cloudy","weatherShort":"Mostly Cloudy","weatherCoded":"::BK","weatherPrimary":"Mostly Cloudy","weatherPrimaryCoded":"::BK","cloudsCoded":"BK","icon":"mcloudyn.png","heatindexC":9,"heatindexF":48,"windchillC":9,"windchillF":48,"feelslikeC":9,"feelslikeF":48,"isDay":false,"sunrise":1417768874,"sunriseISO":"2014-12-05T08:41:14+00:00","sunset":1417795621,"sunsetISO":"2014-12-05T16:07:01+00:00","snowDepthCM":null,"snowDepthIN":null,"precipMM":null,"precipIN":null,"solradWM2":null,"light":0,"sky":81},"raw":"EIDL 051800Z 32018KT 9999 FEW037 SCT047 BKN055 09/02 Q1026"},{"id":"EIDW","loc":{"long":-6.25,"lat":53.416666666667},"place":{"name":"dublin airport","state":"","country":"ie","pretty_name":{"city":"Dublin|Forrest Great","region":"L","country":"Ireland"}},"profile":{"tz":"Europe/Dublin","elevM":85,"elevFT":279},"obTimestamp":1417804200,"obDateTime":"2014-12-05T18:30:00+00:00","ob":{"timestamp":1417804200,"dateTimeISO":"2014-12-05T18:30:00+00:00","tempC":4,"tempF":39,"dewpointC":2,"dewpointF":36,"humidity":87,"pressureMB":1026,"pressureIN":30.3,"spressureMB":1015,"spressureIN":29.97,"altimeterMB":null,"altimeterIN":null,"windKTS":11,"windKPH":20,"windMPH":13,"windSpeedKTS":11,"windSpeedKPH":20,"windSpeedMPH":13,"windDirDEG":270,"windDir":"W","windGustKTS":null,"windGustKPH":null,"windGustMPH":null,"flightRule":"LIFR","visibilityKM":null,"visibilityMI":null,"weather":"Mostly Cloudy","weatherShort":"Mostly Cloudy","weatherCoded":"::BK","weatherPrimary":"Mostly Cloudy","weatherPrimaryCoded":"::BK","cloudsCoded":"BK","icon":"mcloudyn.png","heatindexC":4,"heatindexF":39,"windchillC":-1,"windchillF":31,"feelslikeC":-1,"feelslikeF":31,"isDay":false,"sunrise":1417767825,"sunriseISO":"2014-12-05T08:23:45+00:00","sunset":1417795670,"sunsetISO":"2014-12-05T16:07:50+00:00","snowDepthCM":null,"snowDepthIN":null,"precipMM":null,"precipIN":null,"solradWM2":null,"light":0,"sky":81},"raw":"EIDW 051830Z 27011KT 9999 FEW016 BKN050 04/02 Q1026 NOSIG"},{"id":"EINN","loc":{"long":-8.9166666666667,"lat":52.7},"place":{"name":"shannon airport","state":"","country":"ie","pretty_name":{"city":"Shannon|Rineanna","region":"-","country":"Ireland"}},"profile":{"tz":"Europe/Dublin","elevM":20,"elevFT":66},"obTimestamp":1417804200,"obDateTime":"2014-12-05T18:30:00+00:00","ob":{"timestamp":1417804200,"dateTimeISO":"2014-12-05T18:30:00+00:00","tempC":6,"tempF":43,"dewpointC":4,"dewpointF":39,"humidity":87,"pressureMB":1029,"pressureIN":30.39,"spressureMB":1026,"spressureIN":30.3,"altimeterMB":null,"altimeterIN":null,"windKTS":5,"windKPH":9,"windMPH":6,"windSpeedKTS":5,"windSpeedKPH":9,"windSpeedMPH":6,"windDirDEG":260,"windDir":"W","windGustKTS":null,"windGustKPH":null,"windGustMPH":null,"flightRule":"LIFR","visibilityKM":null,"visibilityMI":null,"weather":"Mostly Cloudy","weatherShort":"Mostly Cloudy","weatherCoded":"::BK","weatherPrimary":"Mostly Cloudy","weatherPrimaryCoded":"::BK","cloudsCoded":"BK","icon":"mcloudyn.png","heatindexC":6,"heatindexF":43,"windchillC":6,"windchillF":43,"feelslikeC":6,"feelslikeF":43,"isDay":false,"sunrise":1417768242,"sunriseISO":"2014-12-05T08:30:42+00:00","sunset":1417796534,"sunsetISO":"2014-12-05T16:22:14+00:00","snowDepthCM":null,"snowDepthIN":null,"precipMM":null,"precipIN":null,"solradWM2":null,"light":0,"sky":81},"raw":"EINN 051830Z 26005KT 9999 FEW021CB BKN100 06/04 Q1029 NOSIG"},{"id":"EIKN","loc":{"long":-8.8166666666667,"lat":53.916666666667},"place":{"name":"connaught apt","state":"","country":"ie","pretty_name":{"city":"Connaught|Ireland West|Glentavraun","region":"C","country":"Ireland"}},"profile":{"tz":"Europe/Dublin","elevM":64,"elevFT":210},"obTimestamp":1417804200,"obDateTime":"2014-12-05T18:30:00+00:00","ob":{"timestamp":1417804200,"dateTimeISO":"2014-12-05T18:30:00+00:00","tempC":4,"tempF":39,"dewpointC":3,"dewpointF":37,"humidity":93,"pressureMB":1027,"pressureIN":30.33,"spressureMB":1019,"spressureIN":30.09,"altimeterMB":null,"altimeterIN":null,"windKTS":6,"windKPH":11,"windMPH":7,"windSpeedKTS":6,"windSpeedKPH":11,"windSpeedMPH":7,"windDirDEG":270,"windDir":"W","windGustKTS":null,"windGustKPH":null,"windGustMPH":null,"flightRule":"MVFR","visibilityKM":null,"visibilityMI":null,"weather":"Mostly Cloudy","weatherShort":"Mostly Cloudy","weatherCoded":"::BK","weatherPrimary":"Mostly Cloudy","weatherPrimaryCoded":"::BK","cloudsCoded":"BK","icon":"mcloudyn.png","heatindexC":4,"heatindexF":39,"windchillC":1,"windchillF":34,"feelslikeC":1,"feelslikeF":34,"isDay":false,"sunrise":1417768603,"sunriseISO":"2014-12-05T08:36:43+00:00","sunset":1417796124,"sunsetISO":"2014-12-05T16:15:24+00:00","snowDepthCM":null,"snowDepthIN":null,"precipMM":null,"precipIN":null,"solradWM2":null,"light":0,"sky":81},"raw":"EIKN 051830Z 27006KT 9999 BKN025 BKN054 04/03 Q1027 NOSIG"},{"id":"EICK","loc":{"long":-8.4666666666667,"lat":51.85},"place":{"name":"cork arpt/corcai","state":"","country":"ie","pretty_name":{"city":"Cork|Corcaigh|Ballygarvan|Fort Cross Roads","region":"M","country":"Ireland"}},"profile":{"tz":"Europe/Dublin","elevM":162,"elevFT":531},"obTimestamp":1417804200,"obDateTime":"2014-12-05T18:30:00+00:00","ob":{"timestamp":1417804200,"dateTimeISO":"2014-12-05T18:30:00+00:00","tempC":5,"tempF":41,"dewpointC":3,"dewpointF":37,"humidity":87,"pressureMB":1029,"pressureIN":30.39,"spressureMB":1009,"spressureIN":29.8,"altimeterMB":null,"altimeterIN":null,"windKTS":9,"windKPH":17,"windMPH":10,"windSpeedKTS":9,"windSpeedKPH":17,"windSpeedMPH":10,"windDirDEG":320,"windDir":"NW","windGustKTS":null,"windGustKPH":null,"windGustMPH":null,"flightRule":"LIFR","visibilityKM":null,"visibilityMI":null,"weather":"Mostly Clear","weatherShort":"Mostly Clear","weatherCoded":"::FW","weatherPrimary":"Mostly Clear","weatherPrimaryCoded":"::FW","cloudsCoded":"FW","icon":"pcloudyn.png","heatindexC":5,"heatindexF":41,"windchillC":5,"windchillF":41,"feelslikeC":5,"feelslikeF":41,"isDay":false,"sunrise":1417767880,"sunriseISO":"2014-12-05T08:24:40+00:00","sunset":1417796679,"sunsetISO":"2014-12-05T16:24:39+00:00","snowDepthCM":null,"snowDepthIN":null,"precipMM":null,"precipIN":null,"solradWM2":null,"light":0,"sky":19},"raw":"EICK 051830Z 32009KT 9999 FEW018 05/03 Q1029 NOSIG"}]}