{"success":true,"error":null,"response":[{"id":"LLET","loc":{"long":34.95,"lat":29.55},"place":{"name":"elat/j. hozman(a","state":"","country":"il","pretty_name":{"city":"Eilat|Elat|Eliat|Elait","region":"S","country":"Israel"}},"profile":{"tz":"Asia/Jerusalem","elevM":13,"elevFT":43},"obTimestamp":1417791000,"obDateTime":"2014-12-05T16:50:00+02:00","ob":{"timestamp":1417791000,"dateTimeISO":"2014-12-05T16:50:00+02:00","tempC":29,"tempF":84,"dewpointC":9,"dewpointF":48,"humidity":29,"pressureMB":1015,"pressureIN":29.97,"spressureMB":1014,"spressureIN":29.94,"altimeterMB":null,"altimeterIN":null,"windKTS":11,"windKPH":20,"windMPH":13,"windSpeedKTS":11,"windSpeedKPH":20,"windSpeedMPH":13,"windDirDEG":30,"windDir":"NNE","windGustKTS":null,"windGustKPH":null,"windGustMPH":null,"flightRule":"LIFR","visibilityKM":11.265408,"visibilityMI":7,"weather":"Mostly Clear","weatherShort":"Mostly Clear","weatherCoded":"::FW","weatherPrimary":"Mostly Clear","weatherPrimaryCoded":"::FW","cloudsCoded":"FW","icon":"pcloudyn.png","heatindexC":29,"heatindexF":84,"windchillC":29,"windchillF":84,"feelslikeC":29,"feelslikeF":84,"isDay":false,"sunrise":1417753241,"sunriseISO":"2014-12-05T06:20:41+02:00","sunset":1417790468,"sunsetISO":"2014-12-05T16:41:08+02:00","snowDepthCM":null,"snowDepthIN":null,"precipMM":null,"precipIN":null,"solradWM2":null,"sky":19,"light":0},"raw":"LLET 051450Z 03011KT CAVOK 29/09 Q1015"},{"id":"LLIB","loc":{"long":35.566666666667,"lat":32.983333333333},"place":{"name":"ben ya akov","state":"","country":"il","pretty_name":{"city":"Rosh Pina|Rosh-Pina|Mahanaim|Mahanayim|Ma?anayim","region":"H","country":"Israel"}},"profile":{"tz":"Asia/Jerusalem","elevM":282,"elevFT":925},"obTimestamp":1417791000,"obDateTime":"2014-12-05T16:50:00+02:00","ob":{"timestamp":1417791000,"dateTimeISO":"2014-12-05T16:50:00+02:00","tempC":18,"tempF":64,"dewpointC":13,"dewpointF":55,"humidity":73,"pressureMB":1018,"pressureIN":30.06,"spressureMB":985,"spressureIN":29.09,"altimeterMB":null,"altimeterIN":null,"windKTS":2,"windKPH":4,"windMPH":2,"windSpeedKTS":2,"windSpeedKPH":4,"windSpeedMPH":2,"windDirDEG":0,"windDir":"N","windGustKTS":null,"windGustKPH":null,"windGustMPH":null,"flightRule":"LIFR","visibilityKM":11.265408,"visibilityMI":7,"weather":"Mostly Clear","weatherShort":"Mostly Clear","weatherCoded":"::FW","weatherPrimary":"Mostly Clear","weatherPrimaryCoded":"::FW","cloudsCoded":"FW","icon":"pcloudyn.png","heatindexC":18,"heatindexF":64,"windchillC":18,"windchillF":64,"feelslikeC":18,"feelslikeF":64,"isDay":false,"sunrise":1417753562,"sunriseISO":"2014-12-05T06:26:02+02:00","sunset":1417789851,"sunsetISO":"2014-12-05T16:30:51+02:00","snowDepthCM":null,"snowDepthIN":null,"precipMM":null,"precipIN":null,"solradWM2":null,"sky":19,"light":0},"raw":"LLIB 051450Z VRB02KT CAVOK 18/13 Q1018"},{"id":"LLHA","loc":{"long":35.016666666667,"lat":32.783333333333},"place":{"name":"haifa (isr-afb)","state":"","country":"il","pretty_name":{"city":"Haifa|Shekhunat Ziw","region":"HA","country":"Israel"}},"profile":{"tz":"Asia/Jerusalem","elevM":8,"elevFT":26},"obTimestamp":1417798200,"obDateTime":"2014-12-05T18:50:00+02:00","ob":{"timestamp":1417798200,"dateTimeISO":"2014-12-05T18:50:00+02:00","tempC":20,"tempF":68,"dewpointC":16,"dewpointF":61,"humidity":78,"pressureMB":1017,"pressureIN":30.03,"spressureMB":1016,"spressureIN":30,"altimeterMB":null,"altimeterIN":null,"windKTS":3,"windKPH":6,"windMPH":3,"windSpeedKTS":3,"windSpeedKPH":6,"windSpeedMPH":3,"windDirDEG":0,"windDir":"N","windGustKTS":null,"windGustKPH":null,"windGustMPH":null,"flightRule":"LIFR","visibilityKM":11.265408,"visibilityMI":7,"weather":"Mostly Clear","weatherShort":"Mostly Clear","weatherCoded":"::FW","weatherPrimary":"Mostly Clear","weatherPrimaryCoded":"::FW","cloudsCoded":"FW","icon":"pcloudyn.png","heatindexC":20,"heatindexF":68,"windchillC":20,"windchillF":68,"feelslikeC":20,"feelslikeF":68,"isDay":false,"sunrise":1417753666,"sunriseISO":"2014-12-05T06:27:46+02:00","sunset":1417790011,"sunsetISO":"2014-12-05T16:33:31+02:00","snowDepthCM":null,"snowDepthIN":null,"precipMM":null,"precipIN":null,"solradWM2":null,"sky":19,"light":0},"raw":"LLHA 051650Z VRB03KT CAVOK 20/16 Q1017"},{"id":"LLSD","loc":{"long":34.783333333333,"lat":32.116666666667},"place":{"name":"sde dov airport","state":"","country":"il","pretty_name":{"city":"Sde-Dov|Ramat Aviv","region":"T","country":"Israel"}},"profile":{"tz":"Asia/Jerusalem","elevM":14,"elevFT":46},"obTimestamp":1417801800,"obDateTime":"2014-12-05T19:50:00+02:00","ob":{"timestamp":1417801800,"dateTimeISO":"2014-12-05T19:50:00+02:00","tempC":20,"tempF":68,"dewpointC":15,"dewpointF":59,"humidity":73,"pressureMB":1016,"pressureIN":30,"spressureMB":1014,"spressureIN":29.94,"altimeterMB":null,"altimeterIN":null,"windKTS":3,"windKPH":6,"windMPH":3,"windSpeedKTS":3,"windSpeedKPH":6,"windSpeedMPH":3,"windDirDEG":0,"windDir":"N","windGustKTS":null,"windGustKPH":null,"windGustMPH":null,"flightRule":"LIFR","visibilityKM":11.265408,"visibilityMI":7,"weather":"Mostly Clear","weatherShort":"Mostly Clear","weatherCoded":"::FW","weatherPrimary":"Mostly Clear","weatherPrimaryCoded":"::FW","cloudsCoded":"FW","icon":"pcloudyn.png","heatindexC":20,"heatindexF":68,"windchillC":20,"windchillF":68,"feelslikeC":20,"feelslikeF":68,"isDay":false,"sunrise":1417753628,"sunriseISO":"2014-12-05T06:27:08+02:00","sunset":1417790161,"sunsetISO":"2014-12-05T16:36:01+02:00","snowDepthCM":null,"snowDepthIN":null,"precipMM":null,"precipIN":null,"solradWM2":null,"sky":19,"light":0},"raw":"LLSD 051750Z VRB03KT CAVOK 20/15 Q1016"},{"id":"LLBG","loc":{"long":34.883333333333,"lat":32},"place":{"name":"ben-gurion(civ/m","state":"","country":"il","pretty_name":{"city":"Tel Aviv|Ma?ane Yisra’el","region":"C","country":"Israel"}},"profile":{"tz":"Asia/Jerusalem","elevM":49,"elevFT":161},"obTimestamp":1417803600,"obDateTime":"2014-12-05T20:20:00+02:00","ob":{"timestamp":1417803600,"dateTimeISO":"2014-12-05T20:20:00+02:00","tempC":17,"tempF":63,"dewpointC":15,"dewpointF":59,"humidity":88,"pressureMB":1017,"pressureIN":30.03,"spressureMB":1011,"spressureIN":29.85,"altimeterMB":null,"altimeterIN":null,"windKTS":2,"windKPH":4,"windMPH":2,"windSpeedKTS":2,"windSpeedKPH":4,"windSpeedMPH":2,"windDirDEG":0,"windDir":"N","windGustKTS":null,"windGustKPH":null,"windGustMPH":null,"flightRule":"LIFR","visibilityKM":11.265408,"visibilityMI":7,"weather":"Mostly Clear","weatherShort":"Mostly Clear","weatherCoded":"::FW","weatherPrimary":"Mostly Clear","weatherPrimaryCoded":"::FW","cloudsCoded":"FW","icon":"pcloudyn.png","heatindexC":17,"heatindexF":63,"windchillC":17,"windchillF":63,"feelslikeC":17,"feelslikeF":63,"isDay":false,"sunrise":1417753588,"sunriseISO":"2014-12-05T06:26:28+02:00","sunset":1417790153,"sunsetISO":"2014-12-05T16:35:53+02:00","snowDepthCM":null,"snowDepthIN":null,"precipMM":null,"precipIN":null,"solradWM2":null,"sky":19,"light":0},"raw":"LLBG 051820Z VRB02KT CAVOK 17/15 Q1017 NOSIG"}]}