{"success":true,"error":null,"response":[{"id":"OJAM","loc":{"long":35.966666666667,"lat":31.966666666667},"place":{"name":"amman/king abdul","state":"","country":"jo","pretty_name":{"city":"Amman|M?rk?","region":"AM","country":"Jordan"}},"profile":{"tz":"Asia/Amman","elevM":773,"elevFT":2536},"obTimestamp":1417802400,"obDateTime":"2014-12-05T20:00:00+02:00","ob":{"timestamp":1417802400,"dateTimeISO":"2014-12-05T20:00:00+02:00","tempC":15,"tempF":59,"dewpointC":7,"dewpointF":45,"humidity":59,"pressureMB":1020,"pressureIN":30.12,"spressureMB":931,"spressureIN":27.49,"altimeterMB":null,"altimeterIN":null,"windKTS":0,"windKPH":0,"windMPH":0,"windSpeedKTS":0,"windSpeedKPH":0,"windSpeedMPH":0,"windDirDEG":0,"windDir":"N","windGustKTS":null,"windGustKPH":null,"windGustMPH":null,"flightRule":"LIFR","visibilityKM":5,"visibilityMI":3.11,"weather":"Mostly Clear with Hazy","weatherShort":"Hazy","weatherCoded":"::H,::FW","weatherPrimary":"Hazy","weatherPrimaryCoded":"::H","cloudsCoded":"FW","icon":"hazyn.png","heatindexC":15,"heatindexF":59,"windchillC":15,"windchillF":59,"feelslikeC":15,"feelslikeF":59,"isDay":false,"sunrise":1417753323,"sunriseISO":"2014-12-05T06:22:03+02:00","sunset":1417789898,"sunsetISO":"2014-12-05T16:31:38+02:00","snowDepthCM":null,"snowDepthIN":null,"precipMM":null,"precipIN":null,"solradWM2":null,"sky":19,"light":0},"raw":"OJAM 051800Z 00000KT 5000 HZ NSC 15/07 Q1020 NOSIG"},{"id":"OJAI","loc":{"long":36,"lat":31.716666666667},"place":{"name":"queen alia intl","state":"","country":"jo","pretty_name":{"city":"Amman|Al J?zah","region":"AM","country":"Jordan"}},"profile":{"tz":"Asia/Amman","elevM":730,"elevFT":2395},"obTimestamp":1417802400,"obDateTime":"2014-12-05T20:00:00+02:00","ob":{"timestamp":1417802400,"dateTimeISO":"2014-12-05T20:00:00+02:00","tempC":13,"tempF":55,"dewpointC":8,"dewpointF":46,"humidity":72,"pressureMB":1019,"pressureIN":30.09,"spressureMB":935,"spressureIN":27.61,"altimeterMB":null,"altimeterIN":null,"windKTS":0,"windKPH":0,"windMPH":0,"windSpeedKTS":0,"windSpeedKPH":0,"windSpeedMPH":0,"windDirDEG":0,"windDir":"N","windGustKTS":null,"windGustKPH":null,"windGustMPH":null,"flightRule":"LIFR","visibilityKM":8,"visibilityMI":4.97,"weather":"Mostly Clear","weatherShort":"Mostly Clear","weatherCoded":"::FW","weatherPrimary":"Mostly Clear","weatherPrimaryCoded":"::FW","cloudsCoded":"FW","icon":"pcloudyn.png","heatindexC":13,"heatindexF":55,"windchillC":13,"windchillF":55,"feelslikeC":13,"feelslikeF":55,"isDay":false,"sunrise":1417753281,"sunriseISO":"2014-12-05T06:21:21+02:00","sunset":1417789924,"sunsetISO":"2014-12-05T16:32:04+02:00","snowDepthCM":null,"snowDepthIN":null,"precipMM":null,"precipIN":null,"solradWM2":null,"sky":19,"light":0},"raw":"OJAI 051800Z 00000KT 8000 NSC 13/08 Q1019 NOSIG"},{"id":"OJAQ","loc":{"long":35.016666666667,"lat":29.616666666667},"place":{"name":"aqaba intl airpo","state":"","country":"jo","pretty_name":{"city":"Aqaba|Tall al Khal?fah","region":"MN","country":"Jordan"}},"profile":{"tz":"Asia/Amman","elevM":51,"elevFT":167},"obTimestamp":1417802400,"obDateTime":"2014-12-05T20:00:00+02:00","ob":{"timestamp":1417802400,"dateTimeISO":"2014-12-05T20:00:00+02:00","tempC":22,"tempF":72,"dewpointC":9,"dewpointF":48,"humidity":44,"pressureMB":1015,"pressureIN":29.97,"spressureMB":1009,"spressureIN":29.8,"altimeterMB":null,"altimeterIN":null,"windKTS":6,"windKPH":11,"windMPH":7,"windSpeedKTS":6,"windSpeedKPH":11,"windSpeedMPH":7,"windDirDEG":360,"windDir":"N","windGustKTS":null,"windGustKPH":null,"windGustMPH":null,"flightRule":"LIFR","visibilityKM":11.265408,"visibilityMI":7,"weather":"Mostly Clear","weatherShort":"Mostly Clear","weatherCoded":"::FW","weatherPrimary":"Mostly Clear","weatherPrimaryCoded":"::FW","cloudsCoded":"FW","icon":"pcloudyn.png","heatindexC":22,"heatindexF":72,"windchillC":22,"windchillF":72,"feelslikeC":22,"feelslikeF":72,"isDay":false,"sunrise":1417753234,"sunriseISO":"2014-12-05T06:20:34+02:00","sunset":1417790443,"sunsetISO":"2014-12-05T16:40:43+02:00","snowDepthCM":null,"snowDepthIN":null,"precipMM":null,"precipIN":null,"solradWM2":null,"sky":19,"light":0},"raw":"OJAQ 051800Z 36006KT CAVOK 22/09 Q1015 NOSIG"}]}