{"success":true,"error":null,"response":[{"id":"UCFO","loc":{"long":72.8,"lat":40.6},"place":{"name":"osh","state":"","country":"kg","pretty_name":{"city":"Osh","region":null,"country":"Kyrgyzstan"}},"profile":{"tz":"Asia/Bishkek","elevM":884,"elevFT":2900},"obTimestamp":1417802400,"obDateTime":"2014-12-06T00:00:00+06:00","ob":{"timestamp":1417802400,"dateTimeISO":"2014-12-06T00:00:00+06:00","tempC":-2,"tempF":28,"dewpointC":-5,"dewpointF":23,"humidity":80,"pressureMB":1024,"pressureIN":30.24,"spressureMB":917,"spressureIN":27.08,"altimeterMB":null,"altimeterIN":null,"windKTS":6,"windKPH":11,"windMPH":7,"windSpeedKTS":6,"windSpeedKPH":11,"windSpeedMPH":7,"windDirDEG":170,"windDir":"S","windGustKTS":null,"windGustKPH":null,"windGustMPH":null,"flightRule":"LIFR","visibilityKM":6,"visibilityMI":3.73,"weather":"Clear","weatherShort":"Clear","weatherCoded":"::CL","weatherPrimary":"Clear","weatherPrimaryCoded":"::CL","cloudsCoded":"CL","icon":"sunnyn.png","heatindexC":-2,"heatindexF":28,"windchillC":-6,"windchillF":21,"feelslikeC":-6,"feelslikeF":21,"isDay":false,"sunrise":1417832273,"sunriseISO":"2014-12-06T08:17:53+06:00","sunset":1417866105,"sunsetISO":"2014-12-06T17:41:45+06:00","snowDepthCM":null,"snowDepthIN":null,"precipMM":null,"precipIN":null,"solradWM2":null,"sky":0,"light":0},"raw":"UCFO 051800Z 17003MPS 6000 NSC M02/M05 Q1024 R12/CLRD70 NOSIG"},{"id":"UCFM","loc":{"long":74.483333333333,"lat":43.066666666667},"place":{"name":"manas","state":"","country":"kg","pretty_name":{"city":"Bishkek","region":null,"country":"Kyrgyzstan"}},"profile":{"tz":"Asia/Bishkek","elevM":633,"elevFT":2077},"obTimestamp":1417804200,"obDateTime":"2014-12-06T00:30:00+06:00","ob":{"timestamp":1417804200,"dateTimeISO":"2014-12-06T00:30:00+06:00","tempC":-10,"tempF":14,"dewpointC":-13,"dewpointF":9,"humidity":79,"pressureMB":1020,"pressureIN":30.12,"spressureMB":940,"spressureIN":27.76,"altimeterMB":null,"altimeterIN":null,"windKTS":4,"windKPH":7,"windMPH":4,"windSpeedKTS":4,"windSpeedKPH":7,"windSpeedMPH":4,"windDirDEG":240,"windDir":"WSW","windGustKTS":null,"windGustKPH":null,"windGustMPH":null,"flightRule":"LIFR","visibilityKM":2.3,"visibilityMI":1.43,"weather":"Mostly Clear with Mist and Fog","weatherShort":"Mist and Fog","weatherCoded":"::BR,::K,::FW","weatherPrimary":"Mist and Fog","weatherPrimaryCoded":"::BR","cloudsCoded":"FW","icon":"fogn.png","heatindexC":-10,"heatindexF":14,"windchillC":-14,"windchillF":7,"feelslikeC":-14,"feelslikeF":7,"isDay":false,"sunrise":1417832329,"sunriseISO":"2014-12-06T08:18:49+06:00","sunset":1417865241,"sunsetISO":"2014-12-06T17:27:21+06:00","snowDepthCM":null,"snowDepthIN":null,"precipMM":null,"precipIN":null,"solradWM2":null,"light":0,"sky":19},"raw":"UCFM 051830Z 24002MPS 2300 BR FU SKC M10/M13 Q1020 R08/CLRD70 NOSIG"}]}