{"success":true,"error":null,"response":[{"id":"VDSR","loc":{"long":103.83333333333,"lat":13.416666666667},"place":{"name":"siemreap","state":"","country":"kh","pretty_name":{"city":"Siemreap|Siem Reap","region":"17","country":"Cambodia"}},"profile":{"tz":"Asia/Phnom_Penh","elevM":15,"elevFT":49},"obTimestamp":1417802400,"obDateTime":"2014-12-06T01:00:00+07:00","ob":{"timestamp":1417802400,"dateTimeISO":"2014-12-06T01:00:00+07:00","tempC":26,"tempF":79,"dewpointC":24,"dewpointF":75,"humidity":89,"pressureMB":1011,"pressureIN":29.85,"spressureMB":1009,"spressureIN":29.8,"altimeterMB":null,"altimeterIN":null,"windKTS":1,"windKPH":2,"windMPH":1,"windSpeedKTS":1,"windSpeedKPH":2,"windSpeedMPH":1,"windDirDEG":40,"windDir":"NE","windGustKTS":null,"windGustKPH":null,"windGustMPH":null,"flightRule":"LIFR","visibilityKM":null,"visibilityMI":null,"weather":"Partly Cloudy","weatherShort":"Partly Cloudy","weatherCoded":"::SC","weatherPrimary":"Partly Cloudy","weatherPrimaryCoded":"::SC","cloudsCoded":"SC","icon":"pcloudyn.png","heatindexC":26,"heatindexF":79,"windchillC":26,"windchillF":79,"feelslikeC":26,"feelslikeF":79,"isDay":false,"sunrise":1417821270,"sunriseISO":"2014-12-06T06:14:30+07:00","sunset":1417862205,"sunsetISO":"2014-12-06T17:36:45+07:00","snowDepthCM":null,"snowDepthIN":null,"precipMM":null,"precipIN":null,"solradWM2":null,"light":0,"sky":44},"raw":"VDSR 051800Z 04001KT 9999 FEW020 SCT040 26/24 Q1011"},{"id":"VDPP","loc":{"long":104.83333333333,"lat":11.55},"place":{"name":"phnom-penh/poche","state":"","country":"kh","pretty_name":{"city":"Phnom-Penh|Phum? Prey Snu?l","region":"KL","country":"Cambodia"}},"profile":{"tz":"Asia/Phnom_Penh","elevM":10,"elevFT":33},"obTimestamp":1417802400,"obDateTime":"2014-12-06T01:00:00+07:00","ob":{"timestamp":1417802400,"dateTimeISO":"2014-12-06T01:00:00+07:00","tempC":28,"tempF":82,"dewpointC":25,"dewpointF":77,"humidity":84,"pressureMB":1011,"pressureIN":29.85,"spressureMB":1010,"spressureIN":29.83,"altimeterMB":null,"altimeterIN":null,"windKTS":2,"windKPH":4,"windMPH":2,"windSpeedKTS":2,"windSpeedKPH":4,"windSpeedMPH":2,"windDirDEG":0,"windDir":"N","windGustKTS":null,"windGustKPH":null,"windGustMPH":null,"flightRule":"LIFR","visibilityKM":9,"visibilityMI":5.59,"weather":"Partly Cloudy","weatherShort":"Partly Cloudy","weatherCoded":"::SC","weatherPrimary":"Partly Cloudy","weatherPrimaryCoded":"::SC","cloudsCoded":"SC","icon":"pcloudyn.png","heatindexC":32,"heatindexF":90,"windchillC":28,"windchillF":82,"feelslikeC":32,"feelslikeF":90,"isDay":false,"sunrise":1417820836,"sunriseISO":"2014-12-06T06:07:16+07:00","sunset":1417862159,"sunsetISO":"2014-12-06T17:35:59+07:00","snowDepthCM":null,"snowDepthIN":null,"precipMM":null,"precipIN":null,"solradWM2":null,"light":0,"sky":44},"raw":"VDPP 051800Z VRB02KT 9000 SCT017 28/25 Q1011"}]}