{"success":true,"error":null,"response":[{"id":"FMNN","loc":{"long":48.316666666667,"lat":-13.316666666667},"place":{"name":"nosy be/fascene","state":"","country":"km","pretty_name":{"city":"Nosy Be|Andrafia","region":"D","country":"Madagascar"}},"profile":{"tz":"Indian/Antananarivo","elevM":9,"elevFT":30},"obTimestamp":1417791600,"obDateTime":"2014-12-05T18:00:00+03:00","ob":{"timestamp":1417791600,"dateTimeISO":"2014-12-05T18:00:00+03:00","tempC":30,"tempF":86,"dewpointC":18,"dewpointF":64,"humidity":49,"pressureMB":1010,"pressureIN":29.83,"spressureMB":1009,"spressureIN":29.8,"altimeterMB":null,"altimeterIN":null,"windKTS":8,"windKPH":15,"windMPH":9,"windSpeedKTS":8,"windSpeedKPH":15,"windSpeedMPH":9,"windDirDEG":230,"windDir":"SW","windGustKTS":null,"windGustKPH":null,"windGustMPH":null,"flightRule":"LIFR","visibilityKM":null,"visibilityMI":null,"weather":"Partly Cloudy","weatherShort":"Partly Cloudy","weatherCoded":"::SC","weatherPrimary":"Partly Cloudy","weatherPrimaryCoded":"::SC","cloudsCoded":"SC","icon":"pcloudy.png","heatindexC":31,"heatindexF":88,"windchillC":30,"windchillF":86,"feelslikeC":31,"feelslikeF":88,"isDay":true,"sunrise":1417745470,"sunriseISO":"2014-12-05T05:11:10+03:00","sunset":1417791819,"sunsetISO":"2014-12-05T18:03:39+03:00","snowDepthCM":null,"snowDepthIN":null,"precipMM":null,"precipIN":null,"solradWM2":null,"light":1,"sky":44},"raw":"FMNN 051500Z 23008KT 9999 SCT020 30/18 Q1010"},{"id":"FMMI","loc":{"long":47.466666666667,"lat":-18.8},"place":{"name":"antananarivo/iva","state":"","country":"km","pretty_name":{"city":"Antananarivo|Ampahibe","region":"T","country":"Madagascar"}},"profile":{"tz":"Indian/Antananarivo","elevM":1276,"elevFT":4186},"obTimestamp":1417802400,"obDateTime":"2014-12-05T21:00:00+03:00","ob":{"timestamp":1417802400,"dateTimeISO":"2014-12-05T21:00:00+03:00","tempC":22,"tempF":72,"dewpointC":17,"dewpointF":63,"humidity":73,"pressureMB":1020,"pressureIN":30.12,"spressureMB":882,"spressureIN":26.05,"altimeterMB":null,"altimeterIN":null,"windKTS":5,"windKPH":9,"windMPH":6,"windSpeedKTS":5,"windSpeedKPH":9,"windSpeedMPH":6,"windDirDEG":50,"windDir":"NE","windGustKTS":null,"windGustKPH":null,"windGustMPH":null,"flightRule":"LIFR","visibilityKM":null,"visibilityMI":null,"weather":"Partly Cloudy with Nearby Thunderstorms","weatherShort":"Scattered Storms","weatherCoded":"VC::T,::T,::SC","weatherPrimary":"Scattered Storms","weatherPrimaryCoded":"VC::T","cloudsCoded":"SC","icon":"tstormn.png","heatindexC":22,"heatindexF":72,"windchillC":22,"windchillF":72,"feelslikeC":22,"feelslikeF":72,"isDay":false,"sunrise":1417745074,"sunriseISO":"2014-12-05T05:04:34+03:00","sunset":1417792623,"sunsetISO":"2014-12-05T18:17:03+03:00","snowDepthCM":null,"snowDepthIN":null,"precipMM":null,"precipIN":null,"solradWM2":null,"light":0,"sky":44},"raw":"FMMI 051800Z 05005KT 9999 VCTS FEW020CB SCT023 22/17 Q1020 TEMPO TS"},{"id":"FMMT","loc":{"long":49.383333333333,"lat":-18.116666666667},"place":{"name":"tamatave/toamasi","state":"","country":"km","pretty_name":{"city":"Tamatave|Salazamay","region":"A","country":"Madagascar"}},"profile":{"tz":"Indian/Antananarivo","elevM":6,"elevFT":20},"obTimestamp":1417802400,"obDateTime":"2014-12-05T21:00:00+03:00","ob":{"timestamp":1417802400,"dateTimeISO":"2014-12-05T21:00:00+03:00","tempC":27,"tempF":81,"dewpointC":25,"dewpointF":77,"humidity":89,"pressureMB":1013,"pressureIN":29.91,"spressureMB":1012,"spressureIN":29.88,"altimeterMB":null,"altimeterIN":null,"windKTS":2,"windKPH":4,"windMPH":2,"windSpeedKTS":2,"windSpeedKPH":4,"windSpeedMPH":2,"windDirDEG":20,"windDir":"NNE","windGustKTS":null,"windGustKPH":null,"windGustMPH":null,"flightRule":"LIFR","visibilityKM":null,"visibilityMI":null,"weather":"Mostly Cloudy with Nearby Thunderstorms","weatherShort":"Scattered Storms","weatherCoded":"VC::T,::BK","weatherPrimary":"Scattered Storms","weatherPrimaryCoded":"VC::T","cloudsCoded":"BK","icon":"tstormn.png","heatindexC":31,"heatindexF":88,"windchillC":27,"windchillF":81,"feelslikeC":31,"feelslikeF":88,"isDay":false,"sunrise":1417744691,"sunriseISO":"2014-12-05T04:58:11+03:00","sunset":1417792086,"sunsetISO":"2014-12-05T18:08:06+03:00","snowDepthCM":null,"snowDepthIN":null,"precipMM":null,"precipIN":null,"solradWM2":null,"light":0,"sky":81},"raw":"FMMT 051800Z 02002KT 9999 VCTS SCT017CB BKN033 27/25 Q1013 NOSIG"},{"id":"FMCH","loc":{"long":43.266666666667,"lat":-11.516666666667},"place":{"name":"moroni/hahaia in","state":"","country":"km","pretty_name":{"city":"Moroni|Mbalйni","region":"-","country":"Comoros"}},"profile":{"tz":"Indian/Comoro","elevM":29,"elevFT":95},"obTimestamp":1417802400,"obDateTime":"2014-12-05T21:00:00+03:00","ob":{"timestamp":1417802400,"dateTimeISO":"2014-12-05T21:00:00+03:00","tempC":27,"tempF":81,"dewpointC":24,"dewpointF":75,"humidity":84,"pressureMB":1014,"pressureIN":29.94,"spressureMB":1011,"spressureIN":29.85,"altimeterMB":null,"altimeterIN":null,"windKTS":2,"windKPH":4,"windMPH":2,"windSpeedKTS":2,"windSpeedKPH":4,"windSpeedMPH":2,"windDirDEG":90,"windDir":"E","windGustKTS":null,"windGustKPH":null,"windGustMPH":null,"flightRule":"LIFR","visibilityKM":null,"visibilityMI":null,"weather":"Mostly Clear","weatherShort":"Mostly Clear","weatherCoded":"::FW","weatherPrimary":"Mostly Clear","weatherPrimaryCoded":"::FW","cloudsCoded":"FW","icon":"pcloudyn.png","heatindexC":31,"heatindexF":87,"windchillC":27,"windchillF":81,"feelslikeC":31,"feelslikeF":87,"isDay":false,"sunrise":1417746872,"sunriseISO":"2014-12-05T05:34:32+03:00","sunset":1417792842,"sunsetISO":"2014-12-05T18:20:42+03:00","snowDepthCM":null,"snowDepthIN":null,"precipMM":null,"precipIN":null,"solradWM2":null,"light":0,"sky":19},"raw":"FMCH 051800Z 09002KT 9999 FEW020 27/24 Q1014 NOSIG"},{"id":"FMSD","loc":{"long":46.95,"lat":-25.016666666667},"place":{"name":"ft. dauphin/tola","state":"","country":"km","pretty_name":{"city":"Ft. Dauphin|Amparihy","region":"U","country":"Madagascar"}},"profile":{"tz":"Indian/Antananarivo","elevM":9,"elevFT":30},"obTimestamp":1417802400,"obDateTime":"2014-12-05T21:00:00+03:00","ob":{"timestamp":1417802400,"dateTimeISO":"2014-12-05T21:00:00+03:00","tempC":25,"tempF":77,"dewpointC":21,"dewpointF":70,"humidity":79,"pressureMB":1015,"pressureIN":29.97,"spressureMB":1014,"spressureIN":29.94,"altimeterMB":null,"altimeterIN":null,"windKTS":0,"windKPH":0,"windMPH":0,"windSpeedKTS":0,"windSpeedKPH":0,"windSpeedMPH":0,"windDirDEG":0,"windDir":"N","windGustKTS":null,"windGustKPH":null,"windGustMPH":null,"flightRule":"LIFR","visibilityKM":null,"visibilityMI":null,"weather":"Partly Cloudy","weatherShort":"Partly Cloudy","weatherCoded":"::SC","weatherPrimary":"Partly Cloudy","weatherPrimaryCoded":"::SC","cloudsCoded":"SC","icon":"pcloudyn.png","heatindexC":25,"heatindexF":77,"windchillC":25,"windchillF":77,"feelslikeC":25,"feelslikeF":77,"isDay":false,"sunrise":1417744459,"sunriseISO":"2014-12-05T04:54:19+03:00","sunset":1417793487,"sunsetISO":"2014-12-05T18:31:27+03:00","snowDepthCM":null,"snowDepthIN":null,"precipMM":null,"precipIN":null,"solradWM2":null,"light":0,"sky":44},"raw":"FMSD 051800Z 00000KT 9999 FEW016 SCT033 25/21 Q1015"},{"id":"FMNM","loc":{"long":46.35,"lat":-15.666666666667},"place":{"name":"majunga/mahajang","state":"","country":"km","pretty_name":{"city":"Majunga|Amborovy","region":"M","country":"Madagascar"}},"profile":{"tz":"Indian/Antananarivo","elevM":18,"elevFT":59},"obTimestamp":1417802400,"obDateTime":"2014-12-05T21:00:00+03:00","ob":{"timestamp":1417802400,"dateTimeISO":"2014-12-05T21:00:00+03:00","tempC":27,"tempF":81,"dewpointC":23,"dewpointF":73,"humidity":79,"pressureMB":1011,"pressureIN":29.85,"spressureMB":1009,"spressureIN":29.8,"altimeterMB":null,"altimeterIN":null,"windKTS":10,"windKPH":19,"windMPH":12,"windSpeedKTS":10,"windSpeedKPH":19,"windSpeedMPH":12,"windDirDEG":280,"windDir":"W","windGustKTS":null,"windGustKPH":null,"windGustMPH":null,"flightRule":"LIFR","visibilityKM":null,"visibilityMI":null,"weather":"Mostly Clear","weatherShort":"Mostly Clear","weatherCoded":"::FW","weatherPrimary":"Mostly Clear","weatherPrimaryCoded":"::FW","cloudsCoded":"FW","icon":"pcloudyn.png","heatindexC":30,"heatindexF":86,"windchillC":27,"windchillF":81,"feelslikeC":30,"feelslikeF":86,"isDay":false,"sunrise":1417745690,"sunriseISO":"2014-12-05T05:14:50+03:00","sunset":1417792543,"sunsetISO":"2014-12-05T18:15:43+03:00","snowDepthCM":null,"snowDepthIN":null,"precipMM":null,"precipIN":null,"solradWM2":null,"light":0,"sky":19},"raw":"FMNM 051800Z 28010KT 9999 FEW023 27/23 Q1011 NOSIG"},{"id":"FMCZ","loc":{"long":45.266666666667,"lat":-12.8},"place":{"name":"dzaoudzi/pamanzi","state":"","country":"km","pretty_name":{"city":"Dzaoudzi|Pamanzi Be","region":"-","country":"Comoros"}},"profile":{"tz":"Indian/Comoro","elevM":7,"elevFT":23},"obTimestamp":1417804200,"obDateTime":"2014-12-05T21:30:00+03:00","ob":{"timestamp":1417804200,"dateTimeISO":"2014-12-05T21:30:00+03:00","tempC":27,"tempF":81,"dewpointC":22,"dewpointF":72,"humidity":74,"pressureMB":1013,"pressureIN":29.91,"spressureMB":1012,"spressureIN":29.88,"altimeterMB":null,"altimeterIN":null,"windKTS":5,"windKPH":9,"windMPH":6,"windSpeedKTS":5,"windSpeedKPH":9,"windSpeedMPH":6,"windDirDEG":240,"windDir":"WSW","windGustKTS":null,"windGustKPH":null,"windGustMPH":null,"flightRule":"LIFR","visibilityKM":null,"visibilityMI":null,"weather":"Mostly Clear","weatherShort":"Mostly Clear","weatherCoded":"::FW","weatherPrimary":"Mostly Clear","weatherPrimaryCoded":"::FW","cloudsCoded":"FW","icon":"pcloudyn.png","heatindexC":29,"heatindexF":85,"windchillC":27,"windchillF":81,"feelslikeC":29,"feelslikeF":85,"isDay":false,"sunrise":1417746257,"sunriseISO":"2014-12-05T05:24:17+03:00","sunset":1417792496,"sunsetISO":"2014-12-05T18:14:56+03:00","snowDepthCM":null,"snowDepthIN":null,"precipMM":null,"precipIN":null,"solradWM2":null,"sky":19,"light":0},"raw":"FMCZ 051830Z AUTO 24005KT 9999 NCD 27/22 Q1013"}]}