{"success":true,"error":null,"response":[{"id":"TKPK","loc":{"long":-62.716666666667,"lat":17.3},"place":{"name":"golden rocks/nev","state":"","country":"kn","pretty_name":{"city":"Basseterre|St Christopher|Saint Christopher|Lucas","region":"SPB","country":"Antigua and Barbuda"}},"profile":{"tz":"America/St_Kitts","elevM":48,"elevFT":157},"obTimestamp":1417802400,"obDateTime":"2014-12-05T14:00:00-04:00","ob":{"timestamp":1417802400,"dateTimeISO":"2014-12-05T14:00:00-04:00","tempC":25,"tempF":77,"dewpointC":23,"dewpointF":73,"humidity":89,"pressureMB":1012,"pressureIN":29.88,"spressureMB":1006,"spressureIN":29.71,"altimeterMB":null,"altimeterIN":null,"windKTS":0,"windKPH":0,"windMPH":0,"windSpeedKTS":0,"windSpeedKPH":0,"windSpeedMPH":0,"windDirDEG":0,"windDir":"N","windGustKTS":null,"windGustKPH":null,"windGustMPH":null,"flightRule":"LIFR","visibilityKM":null,"visibilityMI":null,"weather":"Mostly Cloudy with Light Showers","weatherShort":"Showers","weatherCoded":":L:RW,::BK","weatherPrimary":"Showers","weatherPrimaryCoded":":L:RW","cloudsCoded":"BK","icon":"showers.png","heatindexC":25,"heatindexF":77,"windchillC":25,"windchillF":77,"feelslikeC":25,"feelslikeF":77,"isDay":true,"sunrise":1417775252,"sunriseISO":"2014-12-05T06:27:32-04:00","sunset":1417815363,"sunsetISO":"2014-12-05T17:36:03-04:00","snowDepthCM":null,"snowDepthIN":null,"precipMM":null,"precipIN":null,"solradWM2":null,"light":58,"sky":81},"raw":"TKPK 051800Z 00000KT 9999 -SHRA FEW005 SCT018 BKN045 25/23 Q1012"}]}