{"success":true,"error":null,"response":[{"id":"KQGV","loc":{"long":47.516666666667,"lat":29.333333333333},"place":{"name":"ali al salem","state":"","country":"kw","pretty_name":{"city":"Ali al Salem|Al Jahra","region":"-","country":"Kuwait"}},"profile":{"tz":"Asia/Kuwait","elevM":143,"elevFT":469},"obTimestamp":1417802100,"obDateTime":"2014-12-05T20:55:00+03:00","ob":{"timestamp":1417802100,"dateTimeISO":"2014-12-05T20:55:00+03:00","tempC":15,"tempF":59,"dewpointC":6,"dewpointF":43,"humidity":55,"pressureMB":1021,"pressureIN":30.15,"spressureMB":1004,"spressureIN":29.65,"altimeterMB":1021,"altimeterIN":30.15,"windKTS":4,"windKPH":7,"windMPH":5,"windSpeedKTS":4,"windSpeedKPH":7,"windSpeedMPH":5,"windDirDEG":270,"windDir":"W","windGustKTS":null,"windGustKPH":null,"windGustMPH":null,"flightRule":"LIFR","visibilityKM":null,"visibilityMI":null,"weather":"Mostly Clear","weatherShort":"Mostly Clear","weatherCoded":"::FW","weatherPrimary":"Mostly Clear","weatherPrimaryCoded":"::FW","cloudsCoded":"FW","icon":"pcloudyn.png","heatindexC":15,"heatindexF":59,"windchillC":15,"windchillF":59,"feelslikeC":15,"feelslikeF":59,"isDay":false,"sunrise":1417750193,"sunriseISO":"2014-12-05T06:29:53+03:00","sunset":1417787480,"sunsetISO":"2014-12-05T16:51:20+03:00","snowDepthCM":null,"snowDepthIN":null,"precipMM":0,"precipIN":0,"solradWM2":null,"light":0,"sky":19},"raw":"KQGV 051755Z 27004KT 9999 FEW200 15/06 A3015 RMK SLPNO QNH1021 PA +253 52002"},{"id":"KQWM","loc":{"long":47.433333333333,"lat":29.7},"place":{"name":"camp udari","state":"","country":"kw","pretty_name":{"city":"Camp Udari|Highway of Death","region":"-","country":"Kuwait"}},"profile":{"tz":"Asia/Kuwait","elevM":130,"elevFT":427},"obTimestamp":1417802100,"obDateTime":"2014-12-05T20:55:00+03:00","ob":{"timestamp":1417802100,"dateTimeISO":"2014-12-05T20:55:00+03:00","tempC":18,"tempF":64,"dewpointC":8,"dewpointF":46,"humidity":52,"pressureMB":1020,"pressureIN":30.12,"spressureMB":1005,"spressureIN":29.68,"altimeterMB":1021,"altimeterIN":30.15,"windKTS":5,"windKPH":9,"windMPH":6,"windSpeedKTS":5,"windSpeedKPH":9,"windSpeedMPH":6,"windDirDEG":320,"windDir":"NW","windGustKTS":null,"windGustKPH":null,"windGustMPH":null,"flightRule":"LIFR","visibilityKM":null,"visibilityMI":null,"weather":"Mostly Clear","weatherShort":"Mostly Clear","weatherCoded":"::FW","weatherPrimary":"Mostly Clear","weatherPrimaryCoded":"::FW","cloudsCoded":"FW","icon":"pcloudyn.png","heatindexC":18,"heatindexF":64,"windchillC":18,"windchillF":64,"feelslikeC":18,"feelslikeF":64,"isDay":false,"sunrise":1417750261,"sunriseISO":"2014-12-05T06:31:01+03:00","sunset":1417787452,"sunsetISO":"2014-12-05T16:50:52+03:00","snowDepthCM":null,"snowDepthIN":null,"precipMM":0,"precipIN":0,"solradWM2":null,"light":0,"sky":19},"raw":"KQWM 051755Z 32005KT 9999 FEW230 18/08 A3016 RMK SLP213 QNH1021"},{"id":"OKBK","loc":{"long":47.966666666667,"lat":29.216666666667},"place":{"name":"kuwait intl (mil","state":"","country":"kw","pretty_name":{"city":"Kuwait|Al Murq?b","region":"KU","country":"Kuwait"}},"profile":{"tz":"Asia/Kuwait","elevM":55,"elevFT":180},"obTimestamp":1417802400,"obDateTime":"2014-12-05T21:00:00+03:00","ob":{"timestamp":1417802400,"dateTimeISO":"2014-12-05T21:00:00+03:00","tempC":16,"tempF":61,"dewpointC":7,"dewpointF":45,"humidity":55,"pressureMB":1020,"pressureIN":30.12,"spressureMB":1013,"spressureIN":29.91,"altimeterMB":null,"altimeterIN":null,"windKTS":0,"windKPH":0,"windMPH":0,"windSpeedKTS":0,"windSpeedKPH":0,"windSpeedMPH":0,"windDirDEG":0,"windDir":"N","windGustKTS":null,"windGustKPH":null,"windGustMPH":null,"flightRule":"LIFR","visibilityKM":7,"visibilityMI":4.35,"weather":"Mostly Clear","weatherShort":"Mostly Clear","weatherCoded":"::FW","weatherPrimary":"Mostly Clear","weatherPrimaryCoded":"::FW","cloudsCoded":"FW","icon":"pcloudyn.png","heatindexC":16,"heatindexF":61,"windchillC":16,"windchillF":61,"feelslikeC":16,"feelslikeF":61,"isDay":false,"sunrise":1417750070,"sunriseISO":"2014-12-05T06:27:50+03:00","sunset":1417787387,"sunsetISO":"2014-12-05T16:49:47+03:00","snowDepthCM":null,"snowDepthIN":null,"precipMM":null,"precipIN":null,"solradWM2":null,"light":0,"sky":19},"raw":"OKBK 051800Z 00000KT 7000 SKC 16/07 Q1020 NOSIG"}]}