{"success":true,"error":null,"response":[{"id":"MWCR","loc":{"long":-81.366666666667,"lat":19.3},"place":{"name":"grnd cayman/owen","state":"","country":"ky","pretty_name":{"city":"Owen Roberts|Tropical Gardens","region":"-","country":"Cayman Islands"}},"profile":{"tz":"America/Cayman","elevM":3,"elevFT":10},"obTimestamp":1417802040,"obDateTime":"2014-12-05T12:54:00-05:00","ob":{"timestamp":1417802040,"dateTimeISO":"2014-12-05T12:54:00-05:00","tempC":29,"tempF":84,"dewpointC":26,"dewpointF":79,"humidity":84,"pressureMB":1016,"pressureIN":30,"spressureMB":1016,"spressureIN":30,"altimeterMB":null,"altimeterIN":null,"windKTS":15,"windKPH":28,"windMPH":17,"windSpeedKTS":15,"windSpeedKPH":28,"windSpeedMPH":17,"windDirDEG":50,"windDir":"NE","windGustKTS":null,"windGustKPH":null,"windGustMPH":null,"flightRule":"LIFR","visibilityKM":null,"visibilityMI":null,"weather":"Mostly Sunny","weatherShort":"Mostly Sunny","weatherCoded":"::FW","weatherPrimary":"Mostly Sunny","weatherPrimaryCoded":"::FW","cloudsCoded":"FW","icon":"pcloudy.png","heatindexC":36,"heatindexF":96,"windchillC":29,"windchillF":84,"feelslikeC":36,"feelslikeF":96,"isDay":true,"sunrise":1417779951,"sunriseISO":"2014-12-05T06:45:51-05:00","sunset":1417819621,"sunsetISO":"2014-12-05T17:47:01-05:00","snowDepthCM":null,"snowDepthIN":null,"precipMM":null,"precipIN":null,"solradWM2":null,"light":78,"sky":19},"raw":"MWCR 051754Z 05015KT 9999 FEW018 29/26 Q1016 NOSIG"},{"id":"MWCB","loc":{"long":-79.883333333333,"lat":19.683333333333},"place":{"name":"gerrard smith","state":"","country":"ky","pretty_name":{"city":"Gerrard Smith|West End","region":"-","country":"Cayman Islands"}},"profile":{"tz":"America/Cayman","elevM":2,"elevFT":7},"obTimestamp":1417802400,"obDateTime":"2014-12-05T13:00:00-05:00","ob":{"timestamp":1417802400,"dateTimeISO":"2014-12-05T13:00:00-05:00","tempC":28,"tempF":82,"dewpointC":23,"dewpointF":73,"humidity":74,"pressureMB":1015,"pressureIN":29.97,"spressureMB":1015,"spressureIN":29.97,"altimeterMB":null,"altimeterIN":null,"windKTS":9,"windKPH":17,"windMPH":10,"windSpeedKTS":9,"windSpeedKPH":17,"windSpeedMPH":10,"windDirDEG":60,"windDir":"ENE","windGustKTS":null,"windGustKPH":null,"windGustMPH":null,"flightRule":"LIFR","visibilityKM":null,"visibilityMI":null,"weather":"Partly Cloudy","weatherShort":"Partly Cloudy","weatherCoded":"::SC","weatherPrimary":"Partly Cloudy","weatherPrimaryCoded":"::SC","cloudsCoded":"SC","icon":"pcloudy.png","heatindexC":31,"heatindexF":87,"windchillC":28,"windchillF":82,"feelslikeC":31,"feelslikeF":87,"isDay":true,"sunrise":1417779637,"sunriseISO":"2014-12-05T06:40:37-05:00","sunset":1417819222,"sunsetISO":"2014-12-05T17:40:22-05:00","snowDepthCM":null,"snowDepthIN":null,"precipMM":null,"precipIN":null,"solradWM2":null,"light":66,"sky":44},"raw":"MWCB 051800Z 06009KT 040V110 9999 SCT018 28/23 Q1015"}]}