{"success":true,"error":null,"response":[{"id":"VLVT","loc":{"long":102.56666666667,"lat":17.983333333333},"place":{"name":"vientiane/wattay","state":"","country":"la","pretty_name":{"city":"Vientiane|Ban Saphan Thong","region":"43","country":"Laos"}},"profile":{"tz":"Asia/Vientiane","elevM":171,"elevFT":561},"obTimestamp":1417795200,"obDateTime":"2014-12-05T23:00:00+07:00","ob":{"timestamp":1417795200,"dateTimeISO":"2014-12-05T23:00:00+07:00","tempC":24,"tempF":75,"dewpointC":20,"dewpointF":68,"humidity":78,"pressureMB":1014,"pressureIN":29.94,"spressureMB":994,"spressureIN":29.35,"altimeterMB":null,"altimeterIN":null,"windKTS":2,"windKPH":4,"windMPH":2,"windSpeedKTS":2,"windSpeedKPH":4,"windSpeedMPH":2,"windDirDEG":340,"windDir":"NNW","windGustKTS":null,"windGustKPH":null,"windGustMPH":null,"flightRule":"LIFR","visibilityKM":4,"visibilityMI":2.49,"weather":"Mostly Clear with Mist and Fog","weatherShort":"Mist and Fog","weatherCoded":"::BR,::FW","weatherPrimary":"Mist and Fog","weatherPrimaryCoded":"::BR","cloudsCoded":"FW","icon":"fogn.png","heatindexC":24,"heatindexF":75,"windchillC":24,"windchillF":75,"feelslikeC":24,"feelslikeF":75,"isDay":false,"sunrise":1417735625,"sunriseISO":"2014-12-05T06:27:05+07:00","sunset":1417775608,"sunsetISO":"2014-12-05T17:33:28+07:00","snowDepthCM":null,"snowDepthIN":null,"precipMM":null,"precipIN":null,"solradWM2":null,"sky":19,"light":0},"raw":"VLVT 051600Z 34002KT 4000 BR NSC 24/20 Q1014 NOSIG"}]}