{"success":true,"error":null,"response":[{"id":"OLBA","loc":{"long":35.466666666667,"lat":33.816666666667},"place":{"name":"beirut (civ/mil)","state":"","country":"lb","pretty_name":{"city":"Beirut|Mudawwarah","region":"JL","country":"Lebanon"}},"profile":{"tz":"Asia/Beirut","elevM":19,"elevFT":62},"obTimestamp":1417802400,"obDateTime":"2014-12-05T20:00:00+02:00","ob":{"timestamp":1417802400,"dateTimeISO":"2014-12-05T20:00:00+02:00","tempC":20,"tempF":68,"dewpointC":15,"dewpointF":59,"humidity":73,"pressureMB":1019,"pressureIN":30.09,"spressureMB":1017,"spressureIN":30.03,"altimeterMB":null,"altimeterIN":null,"windKTS":3,"windKPH":6,"windMPH":3,"windSpeedKTS":3,"windSpeedKPH":6,"windSpeedMPH":3,"windDirDEG":100,"windDir":"E","windGustKTS":null,"windGustKPH":null,"windGustMPH":null,"flightRule":"LIFR","visibilityKM":4,"visibilityMI":2.49,"weather":"Mostly Clear with Mist and Fog","weatherShort":"Mist and Fog","weatherCoded":"::BR,::FW","weatherPrimary":"Mist and Fog","weatherPrimaryCoded":"::BR","cloudsCoded":"FW","icon":"fogn.png","heatindexC":20,"heatindexF":68,"windchillC":20,"windchillF":68,"feelslikeC":20,"feelslikeF":68,"isDay":false,"sunrise":1417753706,"sunriseISO":"2014-12-05T06:28:26+02:00","sunset":1417789755,"sunsetISO":"2014-12-05T16:29:15+02:00","snowDepthCM":null,"snowDepthIN":null,"precipMM":null,"precipIN":null,"solradWM2":null,"light":0,"sky":19},"raw":"OLBA 051800Z 10003KT 4000 BR FEW200 20/15 Q1019"}]}