{"success":true,"error":null,"response":[{"id":"TLPL","loc":{"long":-60.95,"lat":13.75},"place":{"name":"hewanorra intl","state":"","country":"lc","pretty_name":{"city":"St Lucia Island|H’Erelle","region":"LA","country":"St Lucia"}},"profile":{"tz":"America/St_Lucia","elevM":3,"elevFT":10},"obTimestamp":1417802400,"obDateTime":"2014-12-05T14:00:00-04:00","ob":{"timestamp":1417802400,"dateTimeISO":"2014-12-05T14:00:00-04:00","tempC":29,"tempF":84,"dewpointC":23,"dewpointF":73,"humidity":70,"pressureMB":1011,"pressureIN":29.85,"spressureMB":1011,"spressureIN":29.85,"altimeterMB":null,"altimeterIN":null,"windKTS":10,"windKPH":19,"windMPH":12,"windSpeedKTS":10,"windSpeedKPH":19,"windSpeedMPH":12,"windDirDEG":130,"windDir":"SE","windGustKTS":null,"windGustKPH":null,"windGustMPH":null,"flightRule":"LIFR","visibilityKM":null,"visibilityMI":null,"weather":"Partly Cloudy","weatherShort":"Partly Cloudy","weatherCoded":"::SC","weatherPrimary":"Partly Cloudy","weatherPrimaryCoded":"::SC","cloudsCoded":"SC","icon":"pcloudy.png","heatindexC":32,"heatindexF":90,"windchillC":29,"windchillF":84,"feelslikeC":32,"feelslikeF":90,"isDay":true,"sunrise":1417774450,"sunriseISO":"2014-12-05T06:14:10-04:00","sunset":1417815317,"sunsetISO":"2014-12-05T17:35:17-04:00","snowDepthCM":null,"snowDepthIN":null,"precipMM":null,"precipIN":null,"solradWM2":null,"light":57,"sky":44},"raw":"TLPL 051800Z 13010KT 9999 SCT024 SCT040 29/23 Q1011 NOSIG"},{"id":"TLPC","loc":{"long":-61,"lat":14.016666666667},"place":{"name":"vigie/st lucia","state":"","country":"lc","pretty_name":{"city":"Castries|Vigie","region":"CA","country":"St Lucia"}},"profile":{"tz":"America/St_Lucia","elevM":2,"elevFT":7},"obTimestamp":1417802400,"obDateTime":"2014-12-05T14:00:00-04:00","ob":{"timestamp":1417802400,"dateTimeISO":"2014-12-05T14:00:00-04:00","tempC":30,"tempF":86,"dewpointC":22,"dewpointF":72,"humidity":62,"pressureMB":1011,"pressureIN":29.85,"spressureMB":1011,"spressureIN":29.85,"altimeterMB":null,"altimeterIN":null,"windKTS":6,"windKPH":11,"windMPH":7,"windSpeedKTS":6,"windSpeedKPH":11,"windSpeedMPH":7,"windDirDEG":170,"windDir":"S","windGustKTS":null,"windGustKPH":null,"windGustMPH":null,"flightRule":"LIFR","visibilityKM":null,"visibilityMI":null,"weather":"Mostly Cloudy","weatherShort":"Mostly Cloudy","weatherCoded":"::BK","weatherPrimary":"Mostly Cloudy","weatherPrimaryCoded":"::BK","cloudsCoded":"BK","icon":"mcloudy.png","heatindexC":33,"heatindexF":92,"windchillC":30,"windchillF":86,"feelslikeC":33,"feelslikeF":92,"isDay":true,"sunrise":1417774490,"sunriseISO":"2014-12-05T06:14:50-04:00","sunset":1417815301,"sunsetISO":"2014-12-05T17:35:01-04:00","snowDepthCM":null,"snowDepthIN":null,"precipMM":null,"precipIN":null,"solradWM2":null,"light":57,"sky":81},"raw":"TLPC 051800Z 17006KT 9999 FEW026 BKN042 30/22 Q1011 NOSIG"}]}