{"success":true,"error":null,"response":[{"id":"GLRB","loc":{"long":-10.333333333333,"lat":6.25},"place":{"name":"roberts intl/mon","state":"","country":"lr","pretty_name":{"city":"Monrovia|Songa Town","region":"MG","country":"Liberia"}},"profile":{"tz":"Africa/Monrovia","elevM":18,"elevFT":59},"obTimestamp":1417804200,"obDateTime":"2014-12-05T18:30:00+00:00","ob":{"timestamp":1417804200,"dateTimeISO":"2014-12-05T18:30:00+00:00","tempC":27,"tempF":81,"dewpointC":24,"dewpointF":75,"humidity":84,"pressureMB":1010,"pressureIN":29.83,"spressureMB":1008,"spressureIN":29.77,"altimeterMB":null,"altimeterIN":null,"windKTS":3,"windKPH":6,"windMPH":3,"windSpeedKTS":3,"windSpeedKPH":6,"windSpeedMPH":3,"windDirDEG":180,"windDir":"S","windGustKTS":null,"windGustKPH":null,"windGustMPH":null,"flightRule":"LIFR","visibilityKM":null,"visibilityMI":null,"weather":"Mostly Cloudy","weatherShort":"Mostly Cloudy","weatherCoded":"::BK","weatherPrimary":"Mostly Cloudy","weatherPrimaryCoded":"::BK","cloudsCoded":"BK","icon":"mcloudyn.png","heatindexC":31,"heatindexF":87,"windchillC":27,"windchillF":81,"feelslikeC":31,"feelslikeF":87,"isDay":false,"sunrise":1417761527,"sunriseISO":"2014-12-05T06:38:47+00:00","sunset":1417803928,"sunsetISO":"2014-12-05T18:25:28+00:00","snowDepthCM":null,"snowDepthIN":null,"precipMM":null,"precipIN":null,"solradWM2":null,"light":0,"sky":81},"raw":"GLRB 051830Z 18003KT 9999 FEW014 FEW024 CB BKN260 27/24 Q1010 RMK CB-N/NE"}]}