{"success":true,"error":null,"response":[{"id":"EYSA","loc":{"long":23.4,"lat":55.9},"place":{"name":"siauliai intl","state":"","country":"lt","pretty_name":{"city":"Siauliai|Akliniai","region":"-","country":"Lithuania"}},"profile":{"tz":"Europe/Vilnius","elevM":135,"elevFT":443},"obTimestamp":1417801800,"obDateTime":"2014-12-05T19:50:00+02:00","ob":{"timestamp":1417801800,"dateTimeISO":"2014-12-05T19:50:00+02:00","tempC":-2,"tempF":28,"dewpointC":-2,"dewpointF":28,"humidity":100,"pressureMB":1022,"pressureIN":30.18,"spressureMB":1005,"spressureIN":29.68,"altimeterMB":null,"altimeterIN":null,"windKTS":15,"windKPH":28,"windMPH":17,"windSpeedKTS":15,"windSpeedKPH":28,"windSpeedMPH":17,"windDirDEG":150,"windDir":"SSE","windGustKTS":null,"windGustKPH":null,"windGustMPH":null,"flightRule":"IFR","visibilityKM":7,"visibilityMI":4.35,"weather":"Cloudy","weatherShort":"Cloudy","weatherCoded":"::OV","weatherPrimary":"Cloudy","weatherPrimaryCoded":"::OV","cloudsCoded":"OV","icon":"cloudyn.png","heatindexC":-2,"heatindexF":28,"windchillC":-9,"windchillF":16,"feelslikeC":-9,"feelslikeF":16,"isDay":false,"sunrise":1417761553,"sunriseISO":"2014-12-05T08:39:13+02:00","sunset":1417787702,"sunsetISO":"2014-12-05T15:55:02+02:00","snowDepthCM":null,"snowDepthIN":null,"precipMM":null,"precipIN":null,"solradWM2":null,"light":0,"sky":100},"raw":"EYSA 051750Z 15015KT 7000 OVC005 M02/M02 Q1022 R14L/29//95 R14R/29//95"},{"id":"EYKA","loc":{"long":24.083333333333,"lat":54.966666666667},"place":{"name":"kaunas","state":"","country":"lt","pretty_name":{"city":"Kaunas Intl|Karm?lava","region":"-","country":"Lithuania"}},"profile":{"tz":"Europe/Vilnius","elevM":77,"elevFT":253},"obTimestamp":1417803600,"obDateTime":"2014-12-05T20:20:00+02:00","ob":{"timestamp":1417803600,"dateTimeISO":"2014-12-05T20:20:00+02:00","tempC":-3,"tempF":27,"dewpointC":-5,"dewpointF":23,"humidity":86,"pressureMB":1023,"pressureIN":30.21,"spressureMB":1013,"spressureIN":29.91,"altimeterMB":null,"altimeterIN":null,"windKTS":11,"windKPH":20,"windMPH":13,"windSpeedKTS":11,"windSpeedKPH":20,"windSpeedMPH":13,"windDirDEG":160,"windDir":"SSE","windGustKTS":null,"windGustKPH":null,"windGustMPH":null,"flightRule":"IFR","visibilityKM":null,"visibilityMI":null,"weather":"Cloudy","weatherShort":"Cloudy","weatherCoded":"::OV","weatherPrimary":"Cloudy","weatherPrimaryCoded":"::OV","cloudsCoded":"OV","icon":"cloudyn.png","heatindexC":-3,"heatindexF":27,"windchillC":-9,"windchillF":16,"feelslikeC":-9,"feelslikeF":16,"isDay":false,"sunrise":1417761050,"sunriseISO":"2014-12-05T08:30:50+02:00","sunset":1417787876,"sunsetISO":"2014-12-05T15:57:56+02:00","snowDepthCM":null,"snowDepthIN":null,"precipMM":null,"precipIN":null,"solradWM2":null,"light":0,"sky":100},"raw":"EYKA 051820Z 16011KT 9999 OVC005 M03/M05 Q1023 R08/0///95"},{"id":"EYVI","loc":{"long":25.283333333333,"lat":54.633333333333},"place":{"name":"vilnius intl","state":"","country":"lt","pretty_name":{"city":"Vilnius|Vilnyus|Trak? Vok?","region":"-","country":"Lithuania"}},"profile":{"tz":"Europe/Vilnius","elevM":197,"elevFT":646},"obTimestamp":1417803600,"obDateTime":"2014-12-05T20:20:00+02:00","ob":{"timestamp":1417803600,"dateTimeISO":"2014-12-05T20:20:00+02:00","tempC":-3,"tempF":27,"dewpointC":-3,"dewpointF":27,"humidity":100,"pressureMB":1024,"pressureIN":30.24,"spressureMB":999,"spressureIN":29.5,"altimeterMB":null,"altimeterIN":null,"windKTS":13,"windKPH":24,"windMPH":15,"windSpeedKTS":13,"windSpeedKPH":24,"windSpeedMPH":15,"windDirDEG":170,"windDir":"S","windGustKTS":null,"windGustKPH":null,"windGustMPH":null,"flightRule":"LIFR","visibilityKM":3,"visibilityMI":1.86,"weather":"Cloudy with Light Freezing Drizzle","weatherShort":"Freezing Drizzle","weatherCoded":":L:ZL,::BR,::OV","weatherPrimary":"Freezing Drizzle","weatherPrimaryCoded":":L:ZL","cloudsCoded":"OV","icon":"freezingrainn.png","heatindexC":-3,"heatindexF":27,"windchillC":-9,"windchillF":15,"feelslikeC":-9,"feelslikeF":15,"isDay":false,"sunrise":1417760646,"sunriseISO":"2014-12-05T08:24:06+02:00","sunset":1417787704,"sunsetISO":"2014-12-05T15:55:04+02:00","snowDepthCM":null,"snowDepthIN":null,"precipMM":null,"precipIN":null,"solradWM2":null,"light":0,"sky":100},"raw":"EYVI 051820Z 17013KT 3000 -FZDZ BR OVC003 M03/M03 Q1024 R20/4/0195 NOSIG"},{"id":"EYPA","loc":{"long":21.083333333333,"lat":55.966666666667},"place":{"name":"palanga intl","state":"","country":"lt","pretty_name":{"city":"Palanga|Paliepgiriai","region":"-","country":"Lithuania"}},"profile":{"tz":"Europe/Vilnius","elevM":10,"elevFT":33},"obTimestamp":1417803600,"obDateTime":"2014-12-05T20:20:00+02:00","ob":{"timestamp":1417803600,"dateTimeISO":"2014-12-05T20:20:00+02:00","tempC":0,"tempF":32,"dewpointC":-2,"dewpointF":28,"humidity":87,"pressureMB":1020,"pressureIN":30.12,"spressureMB":1019,"spressureIN":30.09,"altimeterMB":null,"altimeterIN":null,"windKTS":14,"windKPH":26,"windMPH":16,"windSpeedKTS":14,"windSpeedKPH":26,"windSpeedMPH":16,"windDirDEG":160,"windDir":"SSE","windGustKTS":null,"windGustKPH":null,"windGustMPH":null,"flightRule":"MVFR","visibilityKM":null,"visibilityMI":null,"weather":"Cloudy","weatherShort":"Cloudy","weatherCoded":"::OV","weatherPrimary":"Cloudy","weatherPrimaryCoded":"::OV","cloudsCoded":"OV","icon":"cloudyn.png","heatindexC":0,"heatindexF":32,"windchillC":-6,"windchillF":21,"feelslikeC":-6,"feelslikeF":21,"isDay":false,"sunrise":1417762135,"sunriseISO":"2014-12-05T08:48:55+02:00","sunset":1417788232,"sunsetISO":"2014-12-05T16:03:52+02:00","snowDepthCM":null,"snowDepthIN":null,"precipMM":null,"precipIN":null,"solradWM2":null,"light":0,"sky":100},"raw":"EYPA 051820Z 16014KT 9999 OVC010 M00/M02 Q1020 R19/1///95"}]}