{"success":true,"error":null,"response":[{"id":"EVRA","loc":{"long":23.966666666667,"lat":56.916666666667},"place":{"name":"riga airport","state":"","country":"lv","pretty_name":{"city":"Riga|Skulte","region":"RGR","country":"Latvia"}},"profile":{"tz":"Europe/Riga","elevM":10,"elevFT":33},"obTimestamp":1417803600,"obDateTime":"2014-12-05T20:20:00+02:00","ob":{"timestamp":1417803600,"dateTimeISO":"2014-12-05T20:20:00+02:00","tempC":0,"tempF":32,"dewpointC":-1,"dewpointF":30,"humidity":93,"pressureMB":1022,"pressureIN":30.18,"spressureMB":1021,"spressureIN":30.15,"altimeterMB":null,"altimeterIN":null,"windKTS":12,"windKPH":22,"windMPH":14,"windSpeedKTS":12,"windSpeedKPH":22,"windSpeedMPH":14,"windDirDEG":160,"windDir":"SSE","windGustKTS":null,"windGustKPH":null,"windGustMPH":null,"flightRule":"IFR","visibilityKM":null,"visibilityMI":null,"weather":"Cloudy","weatherShort":"Cloudy","weatherCoded":"::OV","weatherPrimary":"Cloudy","weatherPrimaryCoded":"::OV","cloudsCoded":"OV","icon":"cloudyn.png","heatindexC":0,"heatindexF":32,"windchillC":-6,"windchillF":22,"feelslikeC":-6,"feelslikeF":22,"isDay":false,"sunrise":1417761812,"sunriseISO":"2014-12-05T08:43:32+02:00","sunset":1417787170,"sunsetISO":"2014-12-05T15:46:10+02:00","snowDepthCM":null,"snowDepthIN":null,"precipMM":null,"precipIN":null,"solradWM2":null,"light":0,"sky":100},"raw":"EVRA 051820Z 16012KT 9999 OVC009 M00/M01 Q1022 R18/190095 NOSIG"},{"id":"EVVA","loc":{"long":21.55,"lat":57.35},"place":{"name":"ventpils","state":"","country":"lv","pretty_name":{"city":"Ventspils|Plekstes","region":"VSR","country":"Latvia"}},"profile":{"tz":"Europe/Riga","elevM":6,"elevFT":20},"obTimestamp":1417803600,"obDateTime":"2014-12-05T20:20:00+02:00","ob":{"timestamp":1417803600,"dateTimeISO":"2014-12-05T20:20:00+02:00","tempC":1,"tempF":34,"dewpointC":-1,"dewpointF":30,"humidity":87,"pressureMB":1020,"pressureIN":30.12,"spressureMB":1019,"spressureIN":30.09,"altimeterMB":null,"altimeterIN":null,"windKTS":9,"windKPH":17,"windMPH":10,"windSpeedKTS":9,"windSpeedKPH":17,"windSpeedMPH":10,"windDirDEG":160,"windDir":"SSE","windGustKTS":null,"windGustKPH":null,"windGustMPH":null,"flightRule":"MVFR","visibilityKM":null,"visibilityMI":null,"weather":"Cloudy","weatherShort":"Cloudy","weatherCoded":"::OV","weatherPrimary":"Cloudy","weatherPrimaryCoded":"::OV","cloudsCoded":"OV","icon":"cloudyn.png","heatindexC":1,"heatindexF":34,"windchillC":-3,"windchillF":26,"feelslikeC":-3,"feelslikeF":26,"isDay":false,"sunrise":1417762571,"sunriseISO":"2014-12-05T08:56:11+02:00","sunset":1417787572,"sunsetISO":"2014-12-05T15:52:52+02:00","snowDepthCM":null,"snowDepthIN":null,"precipMM":null,"precipIN":null,"solradWM2":null,"light":0,"sky":100},"raw":"EVVA 051820Z AUTO 16009KT 9999 OVC013 01/M01 Q1020"}]}