{"success":true,"error":null,"response":[{"id":"LWOH","loc":{"long":20.75,"lat":41.183333333333},"place":{"name":"ohrid","state":"","country":"mk","pretty_name":{"city":"Ohrid|Orman","region":"-","country":"Macedonia, the former Yugoslav Republic of"}},"profile":{"tz":"Europe/Skopje","elevM":761,"elevFT":2497},"obTimestamp":1417791600,"obDateTime":"2014-12-05T16:00:00+01:00","ob":{"timestamp":1417791600,"dateTimeISO":"2014-12-05T16:00:00+01:00","tempC":10,"tempF":50,"dewpointC":8,"dewpointF":46,"humidity":88,"pressureMB":1017,"pressureIN":30.03,"spressureMB":928,"spressureIN":27.4,"altimeterMB":null,"altimeterIN":null,"windKTS":2,"windKPH":4,"windMPH":2,"windSpeedKTS":2,"windSpeedKPH":4,"windSpeedMPH":2,"windDirDEG":290,"windDir":"WNW","windGustKTS":null,"windGustKPH":null,"windGustMPH":null,"flightRule":"MVFR","visibilityKM":null,"visibilityMI":null,"weather":"Cloudy with Light Rain","weatherShort":"Light Rain","weatherCoded":":L:R,::OV","weatherPrimary":"Light Rain","weatherPrimaryCoded":":L:R","cloudsCoded":"OV","icon":"rain.png","heatindexC":10,"heatindexF":50,"windchillC":10,"windchillF":50,"feelslikeC":10,"feelslikeF":50,"isDay":true,"sunrise":1417758434,"sunriseISO":"2014-12-05T06:47:14+01:00","sunset":1417792095,"sunsetISO":"2014-12-05T16:08:15+01:00","snowDepthCM":null,"snowDepthIN":null,"precipMM":null,"precipIN":null,"solradWM2":null,"light":2,"sky":100},"raw":"LWOH 051500Z 29002KT 9999 -RA SCT015 BKN030 OVC050 10/08 Q1017"},{"id":"LWSK","loc":{"long":21.633333333333,"lat":41.966666666667},"place":{"name":"skopje/petrovac","state":"","country":"mk","pretty_name":{"city":"Skopje|Usje","region":"-","country":"Serbia"}},"profile":{"tz":"Europe/Skopje","elevM":239,"elevFT":784},"obTimestamp":1417804200,"obDateTime":"2014-12-05T19:30:00+01:00","ob":{"timestamp":1417804200,"dateTimeISO":"2014-12-05T19:30:00+01:00","tempC":11,"tempF":52,"dewpointC":10,"dewpointF":50,"humidity":94,"pressureMB":1018,"pressureIN":30.06,"spressureMB":989,"spressureIN":29.21,"altimeterMB":null,"altimeterIN":null,"windKTS":2,"windKPH":4,"windMPH":2,"windSpeedKTS":2,"windSpeedKPH":4,"windSpeedMPH":2,"windDirDEG":130,"windDir":"SE","windGustKTS":null,"windGustKPH":null,"windGustMPH":null,"flightRule":"LIFR","visibilityKM":null,"visibilityMI":null,"weather":"Cloudy with Drizzle","weatherShort":"Drizzle","weatherCoded":"::L,::OV","weatherPrimary":"Drizzle","weatherPrimaryCoded":"::L","cloudsCoded":"OV","icon":"drizzlen.png","heatindexC":11,"heatindexF":52,"windchillC":11,"windchillF":52,"feelslikeC":11,"feelslikeF":52,"isDay":false,"sunrise":1417758365,"sunriseISO":"2014-12-05T06:46:05+01:00","sunset":1417791739,"sunsetISO":"2014-12-05T16:02:19+01:00","snowDepthCM":null,"snowDepthIN":null,"precipMM":null,"precipIN":null,"solradWM2":null,"light":0,"sky":100},"raw":"LWSK 051830Z 13002KT 9999 DZ SCT020 OVC040 11/10 Q1018 NOSIG"}]}