{"success":true,"error":null,"response":[{"id":"VYMD","loc":{"long":95.983333333333,"lat":21.7},"place":{"name":"mandalay","state":"","country":"mm","pretty_name":{"city":"Mandalay Intl|Yekha","region":"MD","country":"Myanmar"}},"profile":{"tz":"Asia/Rangoon","elevM":91,"elevFT":299},"obTimestamp":1417804200,"obDateTime":"2014-12-06T01:00:00+06:30","ob":{"timestamp":1417804200,"dateTimeISO":"2014-12-06T01:00:00+06:30","tempC":18,"tempF":64,"dewpointC":16,"dewpointF":61,"humidity":88,"pressureMB":1014,"pressureIN":29.94,"spressureMB":1003,"spressureIN":29.62,"altimeterMB":null,"altimeterIN":null,"windKTS":0,"windKPH":0,"windMPH":0,"windSpeedKTS":0,"windSpeedKPH":0,"windSpeedMPH":0,"windDirDEG":0,"windDir":"N","windGustKTS":null,"windGustKPH":null,"windGustMPH":null,"flightRule":"LIFR","visibilityKM":5,"visibilityMI":3.11,"weather":"Mostly Clear with Mist and Fog","weatherShort":"Mist and Fog","weatherCoded":"::BR,::FW","weatherPrimary":"Mist and Fog","weatherPrimaryCoded":"::BR","cloudsCoded":"FW","icon":"fogn.png","heatindexC":18,"heatindexF":64,"windchillC":18,"windchillF":64,"feelslikeC":18,"feelslikeF":64,"isDay":false,"sunrise":1417824059,"sunriseISO":"2014-12-06T06:30:59+06:30","sunset":1417863186,"sunsetISO":"2014-12-06T17:23:06+06:30","snowDepthCM":null,"snowDepthIN":null,"precipMM":null,"precipIN":null,"solradWM2":null,"sky":19,"light":0},"raw":"VYMD 051830Z 00000KT 5000 BR NSC 18/16 Q1014 NOSIG"}]}