{"success":true,"error":null,"response":[{"id":"VMMC","loc":{"long":113.58333333333,"lat":22.15},"place":{"name":"macao/macau","state":"","country":"mo","pretty_name":{"city":"Macao|Macaou|Zhuojiacun","region":"-","country":"Macau"}},"profile":{"tz":"Asia/Macau","elevM":6,"elevFT":20},"obTimestamp":1417804200,"obDateTime":"2014-12-06T02:30:00+08:00","ob":{"timestamp":1417804200,"dateTimeISO":"2014-12-06T02:30:00+08:00","tempC":17,"tempF":63,"dewpointC":8,"dewpointF":46,"humidity":56,"pressureMB":1020,"pressureIN":30.12,"spressureMB":1019,"spressureIN":30.09,"altimeterMB":null,"altimeterIN":null,"windKTS":11,"windKPH":20,"windMPH":13,"windSpeedKTS":11,"windSpeedKPH":20,"windSpeedMPH":13,"windDirDEG":30,"windDir":"NNE","windGustKTS":null,"windGustKPH":null,"windGustMPH":null,"flightRule":"LIFR","visibilityKM":null,"visibilityMI":null,"weather":"Mostly Clear","weatherShort":"Mostly Clear","weatherCoded":"::FW","weatherPrimary":"Mostly Clear","weatherPrimaryCoded":"::FW","cloudsCoded":"FW","icon":"pcloudyn.png","heatindexC":17,"heatindexF":63,"windchillC":17,"windchillF":63,"feelslikeC":17,"feelslikeF":63,"isDay":false,"sunrise":1417819882,"sunriseISO":"2014-12-06T06:51:22+08:00","sunset":1417858909,"sunsetISO":"2014-12-06T17:41:49+08:00","snowDepthCM":null,"snowDepthIN":null,"precipMM":null,"precipIN":null,"solradWM2":null,"light":0,"sky":19},"raw":"VMMC 051830Z 03011KT 9999 FEW040 17/08 Q1020 NOSIG"}]}