{"success":true,"error":null,"response":[{"id":"GQPP","loc":{"long":-17.016666666667,"lat":20.916666666667},"place":{"name":"nouadhibou","state":"","country":"mr","pretty_name":{"city":"Nouadhibou","region":"DN","country":"Mauritania"}},"profile":{"tz":"Africa/Nouakchott","elevM":3,"elevFT":10},"obTimestamp":1417802400,"obDateTime":"2014-12-05T18:00:00+00:00","ob":{"timestamp":1417802400,"dateTimeISO":"2014-12-05T18:00:00+00:00","tempC":23,"tempF":73,"dewpointC":12,"dewpointF":54,"humidity":50,"pressureMB":1016,"pressureIN":30,"spressureMB":1016,"spressureIN":30,"altimeterMB":null,"altimeterIN":null,"windKTS":12,"windKPH":22,"windMPH":14,"windSpeedKTS":12,"windSpeedKPH":22,"windSpeedMPH":14,"windDirDEG":360,"windDir":"N","windGustKTS":null,"windGustKPH":null,"windGustMPH":null,"flightRule":"LIFR","visibilityKM":6,"visibilityMI":3.73,"weather":"Mostly Sunny with Blowing Sand","weatherShort":"Blowing Sand","weatherCoded":"::BN,::FW","weatherPrimary":"Blowing Sand","weatherPrimaryCoded":"::BN","cloudsCoded":"FW","icon":"hazy.png","heatindexC":23,"heatindexF":73,"windchillC":23,"windchillF":73,"feelslikeC":23,"feelslikeF":73,"isDay":true,"sunrise":1417764674,"sunriseISO":"2014-12-05T07:31:14+00:00","sunset":1417803991,"sunsetISO":"2014-12-05T18:26:31+00:00","snowDepthCM":null,"snowDepthIN":null,"precipMM":null,"precipIN":null,"solradWM2":null,"sky":19,"light":7},"raw":"GQPP 051800Z 36012KT 6000 DRSA NSC 23/12 Q1016 NOSIG"},{"id":"GQNI","loc":{"long":-7.2666666666667,"lat":16.6},"place":{"name":"nema","state":"","country":"mr","pretty_name":{"city":"Nema|Nйma","region":"HC","country":"Mali"}},"profile":{"tz":"Africa/Nouakchott","elevM":269,"elevFT":883},"obTimestamp":1417802400,"obDateTime":"2014-12-05T18:00:00+00:00","ob":{"timestamp":1417802400,"dateTimeISO":"2014-12-05T18:00:00+00:00","tempC":32,"tempF":90,"dewpointC":7,"dewpointF":45,"humidity":21,"pressureMB":1014,"pressureIN":29.94,"spressureMB":984,"spressureIN":29.06,"altimeterMB":null,"altimeterIN":null,"windKTS":6,"windKPH":11,"windMPH":7,"windSpeedKTS":6,"windSpeedKPH":11,"windSpeedMPH":7,"windDirDEG":80,"windDir":"E","windGustKTS":null,"windGustKPH":null,"windGustMPH":null,"flightRule":"LIFR","visibilityKM":8,"visibilityMI":4.97,"weather":"Mostly Clear","weatherShort":"Mostly Clear","weatherCoded":"::FW","weatherPrimary":"Mostly Clear","weatherPrimaryCoded":"::FW","cloudsCoded":"FW","icon":"pcloudyn.png","heatindexC":32,"heatindexF":90,"windchillC":32,"windchillF":90,"feelslikeC":32,"feelslikeF":90,"isDay":false,"sunrise":1417761857,"sunriseISO":"2014-12-05T06:44:17+00:00","sunset":1417802126,"sunsetISO":"2014-12-05T17:55:26+00:00","snowDepthCM":null,"snowDepthIN":null,"precipMM":null,"precipIN":null,"solradWM2":null,"sky":19,"light":0},"raw":"GQNI 051800Z 08006KT 8000 NSC 32/07 Q1014"},{"id":"GQPA","loc":{"long":-13.066666666667,"lat":20.516666666667},"place":{"name":"atar","state":"","country":"mr","pretty_name":{"city":"Atar|Mnвзоr","region":"AD","country":"Mauritania"}},"profile":{"tz":"Africa/Nouakchott","elevM":224,"elevFT":735},"obTimestamp":1417802400,"obDateTime":"2014-12-05T18:00:00+00:00","ob":{"timestamp":1417802400,"dateTimeISO":"2014-12-05T18:00:00+00:00","tempC":25,"tempF":77,"dewpointC":5,"dewpointF":41,"humidity":28,"pressureMB":1017,"pressureIN":30.03,"spressureMB":991,"spressureIN":29.26,"altimeterMB":null,"altimeterIN":null,"windKTS":12,"windKPH":22,"windMPH":14,"windSpeedKTS":12,"windSpeedKPH":22,"windSpeedMPH":14,"windDirDEG":40,"windDir":"NE","windGustKTS":null,"windGustKPH":null,"windGustMPH":null,"flightRule":"LIFR","visibilityKM":8,"visibilityMI":4.97,"weather":"Mostly Sunny","weatherShort":"Mostly Sunny","weatherCoded":"::FW","weatherPrimary":"Mostly Sunny","weatherPrimaryCoded":"::FW","cloudsCoded":"FW","icon":"pcloudy.png","heatindexC":25,"heatindexF":77,"windchillC":25,"windchillF":77,"feelslikeC":25,"feelslikeF":77,"isDay":true,"sunrise":1417763680,"sunriseISO":"2014-12-05T07:14:40+00:00","sunset":1417803088,"sunsetISO":"2014-12-05T18:11:28+00:00","snowDepthCM":null,"snowDepthIN":null,"precipMM":null,"precipIN":null,"solradWM2":null,"sky":19,"light":3},"raw":"GQPA 051800Z 04012KT 8000 VBLDU 25/05 Q1017"},{"id":"GQNN","loc":{"long":-15.933333333333,"lat":18.1},"place":{"name":"nouakchott","state":"","country":"mr","pretty_name":{"city":"Nouakchott|Ksar","region":"TR","country":"Mauritania"}},"profile":{"tz":"Africa/Nouakchott","elevM":3,"elevFT":10},"obTimestamp":1417804200,"obDateTime":"2014-12-05T18:30:00+00:00","ob":{"timestamp":1417804200,"dateTimeISO":"2014-12-05T18:30:00+00:00","tempC":28,"tempF":82,"dewpointC":5,"dewpointF":41,"humidity":23,"pressureMB":1013,"pressureIN":29.91,"spressureMB":1013,"spressureIN":29.91,"altimeterMB":null,"altimeterIN":null,"windKTS":8,"windKPH":15,"windMPH":9,"windSpeedKTS":8,"windSpeedKPH":15,"windSpeedMPH":9,"windDirDEG":60,"windDir":"ENE","windGustKTS":null,"windGustKPH":null,"windGustMPH":null,"flightRule":"LIFR","visibilityKM":8,"visibilityMI":4.97,"weather":"Mostly Clear","weatherShort":"Mostly Clear","weatherCoded":"::FW","weatherPrimary":"Mostly Clear","weatherPrimaryCoded":"::FW","cloudsCoded":"FW","icon":"pcloudyn.png","heatindexC":28,"heatindexF":82,"windchillC":28,"windchillF":82,"feelslikeC":28,"feelslikeF":82,"isDay":false,"sunrise":1417764100,"sunriseISO":"2014-12-05T07:21:40+00:00","sunset":1417804044,"sunsetISO":"2014-12-05T18:27:24+00:00","snowDepthCM":null,"snowDepthIN":null,"precipMM":null,"precipIN":null,"solradWM2":null,"sky":19,"light":0},"raw":"GQNN 051830Z 06008KT 8000 NSC 28/05 Q1013 NOSIG"}]}