{"success":true,"error":null,"response":[{"id":"LMML","loc":{"long":14.466666666667,"lat":35.85},"place":{"name":"luqa/malta","state":"","country":"mt","pretty_name":{"city":"Luqa|Ta’ Bir Miftu?","region":"-","country":"Malta"}},"profile":{"tz":"Europe/Malta","elevM":91,"elevFT":299},"obTimestamp":1417803300,"obDateTime":"2014-12-05T19:15:00+01:00","ob":{"timestamp":1417803300,"dateTimeISO":"2014-12-05T19:15:00+01:00","tempC":16,"tempF":61,"dewpointC":11,"dewpointF":52,"humidity":72,"pressureMB":1018,"pressureIN":30.06,"spressureMB":1007,"spressureIN":29.74,"altimeterMB":null,"altimeterIN":null,"windKTS":7,"windKPH":13,"windMPH":8,"windSpeedKTS":7,"windSpeedKPH":13,"windSpeedMPH":8,"windDirDEG":300,"windDir":"WNW","windGustKTS":null,"windGustKPH":null,"windGustMPH":null,"flightRule":"LIFR","visibilityKM":null,"visibilityMI":null,"weather":"Mostly Clear","weatherShort":"Mostly Clear","weatherCoded":"::FW","weatherPrimary":"Mostly Clear","weatherPrimaryCoded":"::FW","cloudsCoded":"FW","icon":"pcloudyn.png","heatindexC":16,"heatindexF":61,"windchillC":16,"windchillF":61,"feelslikeC":16,"feelslikeF":61,"isDay":false,"sunrise":1417759055,"sunriseISO":"2014-12-05T06:57:35+01:00","sunset":1417794491,"sunsetISO":"2014-12-05T16:48:11+01:00","snowDepthCM":null,"snowDepthIN":null,"precipMM":null,"precipIN":null,"solradWM2":null,"light":0,"sky":19},"raw":"LMML 051815Z 30007KT 9999 FEW023 16/11 Q1018 NOSIG"}]}