{"success":true,"error":null,"response":[{"id":"FQIN","loc":{"long":35.366666666667,"lat":-23.866666666667},"place":{"name":"inhambane","state":"","country":"mz","pretty_name":{"city":"Inhambane","region":"IN","country":"Mozambique"}},"profile":{"tz":"Africa/Maputo","elevM":15,"elevFT":49},"obTimestamp":1417784400,"obDateTime":"2014-12-05T15:00:00+02:00","ob":{"timestamp":1417784400,"dateTimeISO":"2014-12-05T15:00:00+02:00","tempC":28,"tempF":82,"dewpointC":20,"dewpointF":68,"humidity":62,"pressureMB":1016,"pressureIN":30,"spressureMB":1014,"spressureIN":29.94,"altimeterMB":null,"altimeterIN":null,"windKTS":15,"windKPH":28,"windMPH":17,"windSpeedKTS":15,"windSpeedKPH":28,"windSpeedMPH":17,"windDirDEG":180,"windDir":"S","windGustKTS":null,"windGustKPH":null,"windGustMPH":null,"flightRule":"LIFR","visibilityKM":null,"visibilityMI":null,"weather":"Partly Cloudy","weatherShort":"Partly Cloudy","weatherCoded":"::SC","weatherPrimary":"Partly Cloudy","weatherPrimaryCoded":"::SC","cloudsCoded":"SC","icon":"pcloudy.png","heatindexC":29,"heatindexF":85,"windchillC":28,"windchillF":82,"feelslikeC":29,"feelslikeF":85,"isDay":true,"sunrise":1417747382,"sunriseISO":"2014-12-05T04:43:02+02:00","sunset":1417796127,"sunsetISO":"2014-12-05T18:15:27+02:00","snowDepthCM":null,"snowDepthIN":null,"precipMM":null,"precipIN":null,"solradWM2":null,"light":34,"sky":44},"raw":"FQIN 051300Z 18015KT 9999 SCT020 28/20 Q1016"},{"id":"FQLC","loc":{"long":35.25,"lat":-13.266666666667},"place":{"name":"lichinga","state":"","country":"mz","pretty_name":{"city":"Lichinga|Momade","region":"NI","country":"Mozambique"}},"profile":{"tz":"Africa/Maputo","elevM":1365,"elevFT":4478},"obTimestamp":1417795200,"obDateTime":"2014-12-05T18:00:00+02:00","ob":{"timestamp":1417795200,"dateTimeISO":"2014-12-05T18:00:00+02:00","tempC":26,"tempF":79,"dewpointC":12,"dewpointF":54,"humidity":42,"pressureMB":1019,"pressureIN":30.09,"spressureMB":874,"spressureIN":25.81,"altimeterMB":null,"altimeterIN":null,"windKTS":8,"windKPH":15,"windMPH":9,"windSpeedKTS":8,"windSpeedKPH":15,"windSpeedMPH":9,"windDirDEG":110,"windDir":"ESE","windGustKTS":null,"windGustKPH":null,"windGustMPH":null,"flightRule":"LIFR","visibilityKM":null,"visibilityMI":null,"weather":"Mostly Clear","weatherShort":"Mostly Clear","weatherCoded":"::FW","weatherPrimary":"Mostly Clear","weatherPrimaryCoded":"::FW","cloudsCoded":"FW","icon":"pcloudyn.png","heatindexC":26,"heatindexF":79,"windchillC":26,"windchillF":79,"feelslikeC":26,"feelslikeF":79,"isDay":false,"sunrise":1417748613,"sunriseISO":"2014-12-05T05:03:33+02:00","sunset":1417794952,"sunsetISO":"2014-12-05T17:55:52+02:00","snowDepthCM":null,"snowDepthIN":null,"precipMM":null,"precipIN":null,"solradWM2":null,"light":0,"sky":19},"raw":"FQLC 051600Z 11008KT 9999 FEW015 FEW020CB 26/12 Q1019 RMK CB TO S"},{"id":"FQVL","loc":{"long":35.316666666667,"lat":-22},"place":{"name":"vilanculos","state":"","country":"mz","pretty_name":{"city":"Vilanculos|Vilankulo","region":"IN","country":"Mozambique"}},"profile":{"tz":"Africa/Maputo","elevM":21,"elevFT":69},"obTimestamp":1417795200,"obDateTime":"2014-12-05T18:00:00+02:00","ob":{"timestamp":1417795200,"dateTimeISO":"2014-12-05T18:00:00+02:00","tempC":24,"tempF":75,"dewpointC":19,"dewpointF":66,"humidity":74,"pressureMB":1015,"pressureIN":29.97,"spressureMB":1013,"spressureIN":29.91,"altimeterMB":null,"altimeterIN":null,"windKTS":11,"windKPH":20,"windMPH":13,"windSpeedKTS":11,"windSpeedKPH":20,"windSpeedMPH":13,"windDirDEG":130,"windDir":"SE","windGustKTS":null,"windGustKPH":null,"windGustMPH":null,"flightRule":"LIFR","visibilityKM":null,"visibilityMI":null,"weather":"Mostly Sunny","weatherShort":"Mostly Sunny","weatherCoded":"::FW","weatherPrimary":"Mostly Sunny","weatherPrimaryCoded":"::FW","cloudsCoded":"FW","icon":"pcloudy.png","heatindexC":24,"heatindexF":75,"windchillC":24,"windchillF":75,"feelslikeC":24,"feelslikeF":75,"isDay":true,"sunrise":1417747620,"sunriseISO":"2014-12-05T04:47:00+02:00","sunset":1417795913,"sunsetISO":"2014-12-05T18:11:53+02:00","snowDepthCM":null,"snowDepthIN":null,"precipMM":null,"precipIN":null,"solradWM2":null,"light":2,"sky":19},"raw":"FQVL 051600Z 13011KT 100V170 9999 FEW020 24/19 Q1015"},{"id":"FQNP","loc":{"long":39.266666666667,"lat":-15.083333333333},"place":{"name":"nampula","state":"","country":"mz","pretty_name":{"city":"Nampula|Namicopo","region":"NA","country":"Mozambique"}},"profile":{"tz":"Africa/Maputo","elevM":441,"elevFT":1447},"obTimestamp":1417798800,"obDateTime":"2014-12-05T19:00:00+02:00","ob":{"timestamp":1417798800,"dateTimeISO":"2014-12-05T19:00:00+02:00","tempC":29,"tempF":84,"dewpointC":20,"dewpointF":68,"humidity":58,"pressureMB":1014,"pressureIN":29.94,"spressureMB":965,"spressureIN":28.5,"altimeterMB":null,"altimeterIN":null,"windKTS":14,"windKPH":26,"windMPH":16,"windSpeedKTS":14,"windSpeedKPH":26,"windSpeedMPH":16,"windDirDEG":130,"windDir":"SE","windGustKTS":null,"windGustKPH":null,"windGustMPH":null,"flightRule":"LIFR","visibilityKM":null,"visibilityMI":null,"weather":"Partly Cloudy","weatherShort":"Partly Cloudy","weatherCoded":"::SC","weatherPrimary":"Partly Cloudy","weatherPrimaryCoded":"::SC","cloudsCoded":"SC","icon":"pcloudyn.png","heatindexC":31,"heatindexF":87,"windchillC":29,"windchillF":84,"feelslikeC":31,"feelslikeF":87,"isDay":false,"sunrise":1417747454,"sunriseISO":"2014-12-05T04:44:14+02:00","sunset":1417794182,"sunsetISO":"2014-12-05T17:43:02+02:00","snowDepthCM":null,"snowDepthIN":null,"precipMM":null,"precipIN":null,"solradWM2":null,"light":0,"sky":44},"raw":"FQNP 051700Z 13014KT 9999 FEW020 SCT100 BKN/// 29/20 Q1014"},{"id":"FQPB","loc":{"long":40.5,"lat":-12.966666666667},"place":{"name":"pemba","state":"","country":"mz","pretty_name":{"city":"Pemba|Chibobar","region":"CD","country":"Mozambique"}},"profile":{"tz":"Africa/Maputo","elevM":50,"elevFT":164},"obTimestamp":1417798800,"obDateTime":"2014-12-05T19:00:00+02:00","ob":{"timestamp":1417798800,"dateTimeISO":"2014-12-05T19:00:00+02:00","tempC":27,"tempF":81,"dewpointC":25,"dewpointF":77,"humidity":89,"pressureMB":1011,"pressureIN":29.85,"spressureMB":1005,"spressureIN":29.68,"altimeterMB":null,"altimeterIN":null,"windKTS":11,"windKPH":20,"windMPH":13,"windSpeedKTS":11,"windSpeedKPH":20,"windSpeedMPH":13,"windDirDEG":60,"windDir":"ENE","windGustKTS":null,"windGustKPH":null,"windGustMPH":null,"flightRule":"LIFR","visibilityKM":null,"visibilityMI":null,"weather":"Mostly Clear","weatherShort":"Mostly Clear","weatherCoded":"::FW","weatherPrimary":"Mostly Clear","weatherPrimaryCoded":"::FW","cloudsCoded":"FW","icon":"pcloudyn.png","heatindexC":31,"heatindexF":88,"windchillC":27,"windchillF":81,"feelslikeC":31,"feelslikeF":88,"isDay":false,"sunrise":1417747385,"sunriseISO":"2014-12-05T04:43:05+02:00","sunset":1417793660,"sunsetISO":"2014-12-05T17:34:20+02:00","snowDepthCM":null,"snowDepthIN":null,"precipMM":null,"precipIN":null,"solradWM2":null,"light":0,"sky":19},"raw":"FQPB 051700Z 06011KT 9999 FEW025 27/25 Q1011"},{"id":"FQBR","loc":{"long":34.883333333333,"lat":-19.8},"place":{"name":"beira","state":"","country":"mz","pretty_name":{"city":"Beira|Lactic?nia","region":"SO","country":"Mozambique"}},"profile":{"tz":"Africa/Maputo","elevM":16,"elevFT":52},"obTimestamp":1417802400,"obDateTime":"2014-12-05T20:00:00+02:00","ob":{"timestamp":1417802400,"dateTimeISO":"2014-12-05T20:00:00+02:00","tempC":25,"tempF":77,"dewpointC":21,"dewpointF":70,"humidity":79,"pressureMB":1014,"pressureIN":29.94,"spressureMB":1012,"spressureIN":29.88,"altimeterMB":null,"altimeterIN":null,"windKTS":11,"windKPH":20,"windMPH":13,"windSpeedKTS":11,"windSpeedKPH":20,"windSpeedMPH":13,"windDirDEG":60,"windDir":"ENE","windGustKTS":null,"windGustKPH":null,"windGustMPH":null,"flightRule":"LIFR","visibilityKM":null,"visibilityMI":null,"weather":"Mostly Clear","weatherShort":"Mostly Clear","weatherCoded":"::FW","weatherPrimary":"Mostly Clear","weatherPrimaryCoded":"::FW","cloudsCoded":"FW","icon":"pcloudyn.png","heatindexC":25,"heatindexF":77,"windchillC":25,"windchillF":77,"feelslikeC":25,"feelslikeF":77,"isDay":false,"sunrise":1417747981,"sunriseISO":"2014-12-05T04:53:01+02:00","sunset":1417795760,"sunsetISO":"2014-12-05T18:09:20+02:00","snowDepthCM":null,"snowDepthIN":null,"precipMM":null,"precipIN":null,"solradWM2":null,"light":0,"sky":19},"raw":"FQBR 051800Z 06011KT 9999 FEW020 25/21 Q1014"},{"id":"FQMA","loc":{"long":32.566666666667,"lat":-25.916666666667},"place":{"name":"maputo/mavalane","state":"","country":"mz","pretty_name":{"city":"Maputo|Polana Cimento ”B”","region":"MP","country":"Mozambique"}},"profile":{"tz":"Africa/Maputo","elevM":44,"elevFT":144},"obTimestamp":1417802400,"obDateTime":"2014-12-05T20:00:00+02:00","ob":{"timestamp":1417802400,"dateTimeISO":"2014-12-05T20:00:00+02:00","tempC":25,"tempF":77,"dewpointC":19,"dewpointF":66,"humidity":69,"pressureMB":1020,"pressureIN":30.12,"spressureMB":1015,"spressureIN":29.97,"altimeterMB":null,"altimeterIN":null,"windKTS":9,"windKPH":17,"windMPH":10,"windSpeedKTS":9,"windSpeedKPH":17,"windSpeedMPH":10,"windDirDEG":150,"windDir":"SSE","windGustKTS":null,"windGustKPH":null,"windGustMPH":null,"flightRule":"MVFR","visibilityKM":null,"visibilityMI":null,"weather":"Mostly Cloudy","weatherShort":"Mostly Cloudy","weatherCoded":"::BK","weatherPrimary":"Mostly Cloudy","weatherPrimaryCoded":"::BK","cloudsCoded":"BK","icon":"mcloudyn.png","heatindexC":25,"heatindexF":77,"windchillC":25,"windchillF":77,"feelslikeC":25,"feelslikeF":77,"isDay":false,"sunrise":1417747797,"sunriseISO":"2014-12-05T04:49:57+02:00","sunset":1417797056,"sunsetISO":"2014-12-05T18:30:56+02:00","snowDepthCM":null,"snowDepthIN":null,"precipMM":null,"precipIN":null,"solradWM2":null,"light":0,"sky":81},"raw":"FQMA 051800Z 15009KT 9999 BKN025 25/19 Q1020 NOSIG"},{"id":"FQCH","loc":{"long":33.433333333333,"lat":-19.15},"place":{"name":"chimoio","state":"","country":"mz","pretty_name":{"city":"Chimoio","region":"MN","country":"Mozambique"}},"profile":{"tz":"Africa/Maputo","elevM":732,"elevFT":2402},"obTimestamp":1417802400,"obDateTime":"2014-12-05T20:00:00+02:00","ob":{"timestamp":1417802400,"dateTimeISO":"2014-12-05T20:00:00+02:00","tempC":25,"tempF":77,"dewpointC":15,"dewpointF":59,"humidity":54,"pressureMB":1019,"pressureIN":30.09,"spressureMB":938,"spressureIN":27.7,"altimeterMB":null,"altimeterIN":null,"windKTS":8,"windKPH":15,"windMPH":9,"windSpeedKTS":8,"windSpeedKPH":15,"windSpeedMPH":9,"windDirDEG":100,"windDir":"E","windGustKTS":null,"windGustKPH":null,"windGustMPH":null,"flightRule":"LIFR","visibilityKM":11.265408,"visibilityMI":7,"weather":"Mostly Clear","weatherShort":"Mostly Clear","weatherCoded":"::FW","weatherPrimary":"Mostly Clear","weatherPrimaryCoded":"::FW","cloudsCoded":"FW","icon":"pcloudyn.png","heatindexC":25,"heatindexF":77,"windchillC":25,"windchillF":77,"feelslikeC":25,"feelslikeF":77,"isDay":false,"sunrise":1417748403,"sunriseISO":"2014-12-05T05:00:03+02:00","sunset":1417796034,"sunsetISO":"2014-12-05T18:13:54+02:00","snowDepthCM":null,"snowDepthIN":null,"precipMM":null,"precipIN":null,"solradWM2":null,"sky":19,"light":0},"raw":"FQCH 051800Z 10008KT CAVOK 25/15 Q1019"},{"id":"FQQL","loc":{"long":36.866666666667,"lat":-17.866666666667},"place":{"name":"quelimane","state":"","country":"mz","pretty_name":{"city":"Quelimane","region":"ZA","country":"Mozambique"}},"profile":{"tz":"Africa/Maputo","elevM":16,"elevFT":52},"obTimestamp":1417802400,"obDateTime":"2014-12-05T20:00:00+02:00","ob":{"timestamp":1417802400,"dateTimeISO":"2014-12-05T20:00:00+02:00","tempC":26,"tempF":79,"dewpointC":20,"dewpointF":68,"humidity":70,"pressureMB":1015,"pressureIN":29.97,"spressureMB":1013,"spressureIN":29.91,"altimeterMB":null,"altimeterIN":null,"windKTS":7,"windKPH":13,"windMPH":8,"windSpeedKTS":7,"windSpeedKPH":13,"windSpeedMPH":8,"windDirDEG":140,"windDir":"SE","windGustKTS":null,"windGustKPH":null,"windGustMPH":null,"flightRule":"LIFR","visibilityKM":null,"visibilityMI":null,"weather":"Mostly Clear","weatherShort":"Mostly Clear","weatherCoded":"::FW","weatherPrimary":"Mostly Clear","weatherPrimaryCoded":"::FW","cloudsCoded":"FW","icon":"pcloudyn.png","heatindexC":26,"heatindexF":79,"windchillC":26,"windchillF":79,"feelslikeC":26,"feelslikeF":79,"isDay":false,"sunrise":1417747724,"sunriseISO":"2014-12-05T04:48:44+02:00","sunset":1417795065,"sunsetISO":"2014-12-05T17:57:45+02:00","snowDepthCM":null,"snowDepthIN":null,"precipMM":null,"precipIN":null,"solradWM2":null,"light":0,"sky":19},"raw":"FQQL 051800Z 14007KT 9999 FEW020 26/20 Q1015"}]}