{"success":true,"error":null,"response":[{"id":"DRRN","loc":{"long":2.1666666666667,"lat":13.466666666667},"place":{"name":"niamey (civ/mil)","state":"","country":"ne","pretty_name":{"city":"Niamey|Gondokйrй","region":"8","country":"Niger"}},"profile":{"tz":"Africa/Niamey","elevM":227,"elevFT":745},"obTimestamp":1417802400,"obDateTime":"2014-12-05T19:00:00+01:00","ob":{"timestamp":1417802400,"dateTimeISO":"2014-12-05T19:00:00+01:00","tempC":31,"tempF":88,"dewpointC":-5,"dewpointF":23,"humidity":9,"pressureMB":1011,"pressureIN":29.85,"spressureMB":986,"spressureIN":29.12,"altimeterMB":null,"altimeterIN":null,"windKTS":5,"windKPH":9,"windMPH":6,"windSpeedKTS":5,"windSpeedKPH":9,"windSpeedMPH":6,"windDirDEG":60,"windDir":"ENE","windGustKTS":null,"windGustKPH":null,"windGustMPH":null,"flightRule":"LIFR","visibilityKM":8,"visibilityMI":4.97,"weather":"Mostly Clear","weatherShort":"Mostly Clear","weatherCoded":"::FW","weatherPrimary":"Mostly Clear","weatherPrimaryCoded":"::FW","cloudsCoded":"FW","icon":"pcloudyn.png","heatindexC":31,"heatindexF":88,"windchillC":31,"windchillF":88,"feelslikeC":31,"feelslikeF":88,"isDay":false,"sunrise":1417759259,"sunriseISO":"2014-12-05T07:00:59+01:00","sunset":1417800192,"sunsetISO":"2014-12-05T18:23:12+01:00","snowDepthCM":null,"snowDepthIN":null,"precipMM":null,"precipIN":null,"solradWM2":null,"sky":19,"light":0},"raw":"DRRN 051800Z 06005KT 8000 NSC 31/M05 Q1011 NOSIG"},{"id":"DRZR","loc":{"long":8.9666666666667,"lat":13.766666666667},"place":{"name":"zinder","state":"","country":"ne","pretty_name":{"city":"Zinder|Kachй-ni","region":"7","country":"Niger"}},"profile":{"tz":"Africa/Niamey","elevM":453,"elevFT":1486},"obTimestamp":1417802400,"obDateTime":"2014-12-05T19:00:00+01:00","ob":{"timestamp":1417802400,"dateTimeISO":"2014-12-05T19:00:00+01:00","tempC":29,"tempF":84,"dewpointC":1,"dewpointF":34,"humidity":16,"pressureMB":1013,"pressureIN":29.91,"spressureMB":963,"spressureIN":28.44,"altimeterMB":null,"altimeterIN":null,"windKTS":4,"windKPH":7,"windMPH":5,"windSpeedKTS":4,"windSpeedKPH":7,"windSpeedMPH":5,"windDirDEG":20,"windDir":"NNE","windGustKTS":null,"windGustKPH":null,"windGustMPH":null,"flightRule":"LIFR","visibilityKM":11.265408,"visibilityMI":7,"weather":"Mostly Clear","weatherShort":"Mostly Clear","weatherCoded":"::FW","weatherPrimary":"Mostly Clear","weatherPrimaryCoded":"::FW","cloudsCoded":"FW","icon":"pcloudyn.png","heatindexC":29,"heatindexF":84,"windchillC":29,"windchillF":84,"feelslikeC":29,"feelslikeF":84,"isDay":false,"sunrise":1417757658,"sunriseISO":"2014-12-05T06:34:18+01:00","sunset":1417798529,"sunsetISO":"2014-12-05T17:55:29+01:00","snowDepthCM":null,"snowDepthIN":null,"precipMM":null,"precipIN":null,"solradWM2":null,"sky":19,"light":0},"raw":"DRZR 051800Z 02004KT CAVOK 29/01 Q1013"},{"id":"DRZA","loc":{"long":8,"lat":16.966666666667},"place":{"name":"agadez south (mi","state":"","country":"ne","pretty_name":{"city":"Agadez|Agades","region":"1","country":"Niger"}},"profile":{"tz":"Africa/Niamey","elevM":502,"elevFT":1647},"obTimestamp":1417802400,"obDateTime":"2014-12-05T19:00:00+01:00","ob":{"timestamp":1417802400,"dateTimeISO":"2014-12-05T19:00:00+01:00","tempC":26,"tempF":79,"dewpointC":-3,"dewpointF":27,"humidity":15,"pressureMB":1015,"pressureIN":29.97,"spressureMB":959,"spressureIN":28.32,"altimeterMB":null,"altimeterIN":null,"windKTS":8,"windKPH":15,"windMPH":9,"windSpeedKTS":8,"windSpeedKPH":15,"windSpeedMPH":9,"windDirDEG":120,"windDir":"ESE","windGustKTS":null,"windGustKPH":null,"windGustMPH":null,"flightRule":"LIFR","visibilityKM":11.265408,"visibilityMI":7,"weather":"Mostly Clear","weatherShort":"Mostly Clear","weatherCoded":"::FW","weatherPrimary":"Mostly Clear","weatherPrimaryCoded":"::FW","cloudsCoded":"FW","icon":"pcloudyn.png","heatindexC":26,"heatindexF":79,"windchillC":26,"windchillF":79,"feelslikeC":26,"feelslikeF":79,"isDay":false,"sunrise":1417758230,"sunriseISO":"2014-12-05T06:43:50+01:00","sunset":1417798421,"sunsetISO":"2014-12-05T17:53:41+01:00","snowDepthCM":null,"snowDepthIN":null,"precipMM":null,"precipIN":null,"solradWM2":null,"sky":19,"light":0},"raw":"DRZA 051800Z 12008KT CAVOK 26/M03 Q1015"},{"id":"KQAZ","loc":{"long":7.9833333333333,"lat":16.983333333333},"place":{"name":"agadez","state":"","country":"ne","pretty_name":null},"profile":{"tz":"Africa/Niamey","elevM":492,"elevFT":1614},"obTimestamp":1417804200,"obDateTime":"2014-12-05T19:30:00+01:00","ob":{"timestamp":1417804200,"dateTimeISO":"2014-12-05T19:30:00+01:00","tempC":26,"tempF":79,"dewpointC":-4,"dewpointF":25,"humidity":13,"pressureMB":1012,"pressureIN":29.88,"spressureMB":957,"spressureIN":28.26,"altimeterMB":1015,"altimeterIN":29.97,"windKTS":3,"windKPH":6,"windMPH":3,"windSpeedKTS":3,"windSpeedKPH":6,"windSpeedMPH":3,"windDirDEG":120,"windDir":"ESE","windGustKTS":null,"windGustKPH":null,"windGustMPH":null,"flightRule":"LIFR","visibilityKM":null,"visibilityMI":null,"weather":"Clear","weatherShort":"Clear","weatherCoded":"::CL","weatherPrimary":"Clear","weatherPrimaryCoded":"::CL","cloudsCoded":"CL","icon":"sunnyn.png","heatindexC":26,"heatindexF":79,"windchillC":26,"windchillF":79,"feelslikeC":26,"feelslikeF":79,"isDay":false,"sunrise":1417758235,"sunriseISO":"2014-12-05T06:43:55+01:00","sunset":1417798423,"sunsetISO":"2014-12-05T17:53:43+01:00","snowDepthCM":null,"snowDepthIN":null,"precipMM":null,"precipIN":null,"solradWM2":null,"light":0,"sky":0},"raw":"KQAZ 051830Z AUTO 12003KT 9999 CLR 26/M04 A2996 RMK CDP03565 CLR"}]}