{"success":true,"error":null,"response":[{"id":"DNPO","loc":{"long":7.0166666666667,"lat":4.8333333333333},"place":{"name":"port harcourt","state":"","country":"ng","pretty_name":{"city":"Port Harcourt|Aligbolu","region":"RI","country":"Nigeria"}},"profile":{"tz":"Africa/Lagos","elevM":18,"elevFT":59},"obTimestamp":1417784400,"obDateTime":"2014-12-05T14:00:00+01:00","ob":{"timestamp":1417784400,"dateTimeISO":"2014-12-05T14:00:00+01:00","tempC":31,"tempF":88,"dewpointC":25,"dewpointF":77,"humidity":70,"pressureMB":1010,"pressureIN":29.83,"spressureMB":1008,"spressureIN":29.77,"altimeterMB":null,"altimeterIN":null,"windKTS":6,"windKPH":11,"windMPH":7,"windSpeedKTS":6,"windSpeedKPH":11,"windSpeedMPH":7,"windDirDEG":300,"windDir":"WNW","windGustKTS":null,"windGustKPH":null,"windGustMPH":null,"flightRule":"MVFR","visibilityKM":null,"visibilityMI":null,"weather":"Mostly Cloudy","weatherShort":"Mostly Cloudy","weatherCoded":"::BK","weatherPrimary":"Mostly Cloudy","weatherPrimaryCoded":"::BK","cloudsCoded":"BK","icon":"mcloudy.png","heatindexC":38,"heatindexF":100,"windchillC":31,"windchillF":88,"feelslikeC":38,"feelslikeF":100,"isDay":true,"sunrise":1417757219,"sunriseISO":"2014-12-05T06:26:59+01:00","sunset":1417799904,"sunsetISO":"2014-12-05T18:18:24+01:00","snowDepthCM":null,"snowDepthIN":null,"precipMM":null,"precipIN":null,"solradWM2":null,"light":60,"sky":81},"raw":"DNPO 051300Z 30006KT BKN014 FEW023CB 31/25 Q1010 NOSIG"},{"id":"DNKN","loc":{"long":8.5166666666667,"lat":12.05},"place":{"name":"kano/mallam amin","state":"","country":"ng","pretty_name":{"city":"Kano|Takurza","region":"KN","country":"Nigeria"}},"profile":{"tz":"Africa/Lagos","elevM":481,"elevFT":1578},"obTimestamp":1417802400,"obDateTime":"2014-12-05T19:00:00+01:00","ob":{"timestamp":1417802400,"dateTimeISO":"2014-12-05T19:00:00+01:00","tempC":21,"tempF":70,"dewpointC":10,"dewpointF":50,"humidity":50,"pressureMB":1014,"pressureIN":29.94,"spressureMB":959,"spressureIN":28.32,"altimeterMB":null,"altimeterIN":null,"windKTS":7,"windKPH":13,"windMPH":8,"windSpeedKTS":7,"windSpeedKPH":13,"windSpeedMPH":8,"windDirDEG":60,"windDir":"ENE","windGustKTS":null,"windGustKPH":null,"windGustMPH":null,"flightRule":"LIFR","visibilityKM":8,"visibilityMI":4.97,"weather":"Mostly Clear","weatherShort":"Mostly Clear","weatherCoded":"::FW","weatherPrimary":"Mostly Clear","weatherPrimaryCoded":"::FW","cloudsCoded":"FW","icon":"pcloudyn.png","heatindexC":21,"heatindexF":70,"windchillC":21,"windchillF":70,"feelslikeC":21,"feelslikeF":70,"isDay":false,"sunrise":1417757588,"sunriseISO":"2014-12-05T06:33:08+01:00","sunset":1417798815,"sunsetISO":"2014-12-05T18:00:15+01:00","snowDepthCM":null,"snowDepthIN":null,"precipMM":null,"precipIN":null,"solradWM2":null,"sky":19,"light":0},"raw":"DNKN 051800Z 06007KT 8000 NSC 21/10 Q1014 NOSIG"}]}