{"success":true,"error":null,"response":[{"id":"MNPC","loc":{"long":-83.383333333333,"lat":14.05},"place":{"name":"puerto cabezas(","state":"","country":"ni","pretty_name":{"city":"Puerto Cabezas|Maniwatla","region":"-","country":"Nicaragua"}},"profile":{"tz":"America/Managua","elevM":16,"elevFT":52},"obTimestamp":1417802400,"obDateTime":"2014-12-05T12:00:00-06:00","ob":{"timestamp":1417802400,"dateTimeISO":"2014-12-05T12:00:00-06:00","tempC":29,"tempF":84,"dewpointC":26,"dewpointF":79,"humidity":84,"pressureMB":1012,"pressureIN":29.88,"spressureMB":1010,"spressureIN":29.83,"altimeterMB":null,"altimeterIN":null,"windKTS":8,"windKPH":15,"windMPH":9,"windSpeedKTS":8,"windSpeedKPH":15,"windSpeedMPH":9,"windDirDEG":60,"windDir":"ENE","windGustKTS":null,"windGustKPH":null,"windGustMPH":null,"flightRule":"LIFR","visibilityKM":7,"visibilityMI":4.35,"weather":"Partly Cloudy with Areas of Rain","weatherShort":"Scattered Showers","weatherCoded":"VC::R,::SC","weatherPrimary":"Scattered Showers","weatherPrimaryCoded":"VC::R","cloudsCoded":"SC","icon":"pcloudyr.png","heatindexC":36,"heatindexF":96,"windchillC":29,"windchillF":84,"feelslikeC":36,"feelslikeF":96,"isDay":true,"sunrise":1417779870,"sunriseISO":"2014-12-05T05:44:30-06:00","sunset":1417820672,"sunsetISO":"2014-12-05T17:04:32-06:00","snowDepthCM":null,"snowDepthIN":null,"precipMM":null,"precipIN":null,"solradWM2":null,"light":68,"sky":44},"raw":"MNPC 051800Z 06008KT 7000 VCRA SCT016TCU SCT100 29/26 Q1012 TCURA/SE/SW"},{"id":"MNMG","loc":{"long":-86.166666666667,"lat":12.15},"place":{"name":"managua/augusto","state":"","country":"ni","pretty_name":{"city":"Managua|Santa Elena","region":"MN","country":"Nicaragua"}},"profile":{"tz":"America/Managua","elevM":59,"elevFT":194},"obTimestamp":1417802400,"obDateTime":"2014-12-05T12:00:00-06:00","ob":{"timestamp":1417802400,"dateTimeISO":"2014-12-05T12:00:00-06:00","tempC":32,"tempF":90,"dewpointC":21,"dewpointF":70,"humidity":52,"pressureMB":1011,"pressureIN":29.85,"spressureMB":1004,"spressureIN":29.65,"altimeterMB":1011,"altimeterIN":29.85,"windKTS":10,"windKPH":19,"windMPH":12,"windSpeedKTS":10,"windSpeedKPH":19,"windSpeedMPH":12,"windDirDEG":70,"windDir":"ENE","windGustKTS":null,"windGustKPH":null,"windGustMPH":null,"flightRule":"LIFR","visibilityKM":null,"visibilityMI":null,"weather":"Partly Cloudy","weatherShort":"Partly Cloudy","weatherCoded":"::SC","weatherPrimary":"Partly Cloudy","weatherPrimaryCoded":"::SC","cloudsCoded":"SC","icon":"pcloudy.png","heatindexC":36,"heatindexF":96,"windchillC":32,"windchillF":90,"feelslikeC":36,"feelslikeF":96,"isDay":true,"sunrise":1417780340,"sunriseISO":"2014-12-05T05:52:20-06:00","sunset":1417821538,"sunsetISO":"2014-12-05T17:18:58-06:00","snowDepthCM":null,"snowDepthIN":null,"precipMM":null,"precipIN":null,"solradWM2":null,"light":68,"sky":44},"raw":"MNMG 051800Z 07010KT 9999 FEW023 SCT080 32/21 Q1011 A2986 NOSIG"},{"id":"MNJG","loc":{"long":-86.016666666667,"lat":13.083333333333},"place":{"name":"jinotega","state":"","country":"ni","pretty_name":{"city":"Jinotega|Valle La Tejera","region":"JI","country":"Nicaragua"}},"profile":{"tz":"America/Managua","elevM":985,"elevFT":3232},"obTimestamp":1417802400,"obDateTime":"2014-12-05T12:00:00-06:00","ob":{"timestamp":1417802400,"dateTimeISO":"2014-12-05T12:00:00-06:00","tempC":23,"tempF":73,"dewpointC":19,"dewpointF":66,"humidity":78,"pressureMB":1013,"pressureIN":29.91,"spressureMB":905,"spressureIN":26.72,"altimeterMB":null,"altimeterIN":null,"windKTS":6,"windKPH":11,"windMPH":7,"windSpeedKTS":6,"windSpeedKPH":11,"windSpeedMPH":7,"windDirDEG":360,"windDir":"N","windGustKTS":null,"windGustKPH":null,"windGustMPH":null,"flightRule":"MVFR","visibilityKM":null,"visibilityMI":null,"weather":"Mostly Cloudy","weatherShort":"Mostly Cloudy","weatherCoded":"::BK","weatherPrimary":"Mostly Cloudy","weatherPrimaryCoded":"::BK","cloudsCoded":"BK","icon":"mcloudy.png","heatindexC":23,"heatindexF":73,"windchillC":23,"windchillF":73,"feelslikeC":23,"feelslikeF":73,"isDay":true,"sunrise":1417780401,"sunriseISO":"2014-12-05T05:53:21-06:00","sunset":1417821406,"sunsetISO":"2014-12-05T17:16:46-06:00","snowDepthCM":null,"snowDepthIN":null,"precipMM":null,"precipIN":null,"solradWM2":null,"light":68,"sky":81},"raw":"MNJG 051800Z 36006KT 9999 BKN019 23/19 Q1013"},{"id":"MNCH","loc":{"long":-87.116666666667,"lat":12.616666666667},"place":{"name":"chinandega","state":"","country":"ni","pretty_name":{"city":"Chinandega|La Virgen del Camino","region":"CD","country":"Nicaragua"}},"profile":{"tz":"America/Managua","elevM":53,"elevFT":174},"obTimestamp":1417802400,"obDateTime":"2014-12-05T12:00:00-06:00","ob":{"timestamp":1417802400,"dateTimeISO":"2014-12-05T12:00:00-06:00","tempC":33,"tempF":91,"dewpointC":20,"dewpointF":68,"humidity":46,"pressureMB":1011,"pressureIN":29.85,"spressureMB":1005,"spressureIN":29.68,"altimeterMB":null,"altimeterIN":null,"windKTS":4,"windKPH":7,"windMPH":5,"windSpeedKTS":4,"windSpeedKPH":7,"windSpeedMPH":5,"windDirDEG":40,"windDir":"NE","windGustKTS":null,"windGustKPH":null,"windGustMPH":null,"flightRule":"LIFR","visibilityKM":null,"visibilityMI":null,"weather":"Mostly Sunny","weatherShort":"Mostly Sunny","weatherCoded":"::FW","weatherPrimary":"Mostly Sunny","weatherPrimaryCoded":"::FW","cloudsCoded":"FW","icon":"pcloudy.png","heatindexC":35,"heatindexF":95,"windchillC":33,"windchillF":91,"feelslikeC":35,"feelslikeF":95,"isDay":true,"sunrise":1417780617,"sunriseISO":"2014-12-05T05:56:57-06:00","sunset":1417821718,"sunsetISO":"2014-12-05T17:21:58-06:00","snowDepthCM":null,"snowDepthIN":null,"precipMM":null,"precipIN":null,"solradWM2":null,"light":80,"sky":19},"raw":"MNCH 051800Z 04004KT 9999 FEW025 33/20 Q1011"},{"id":"MNBL","loc":{"long":-83.766666666667,"lat":12},"place":{"name":"bluefields","state":"","country":"ni","pretty_name":{"city":"Bluefields","region":"LE","country":"Nicaragua"}},"profile":{"tz":"America/Managua","elevM":5,"elevFT":16},"obTimestamp":1417802400,"obDateTime":"2014-12-05T12:00:00-06:00","ob":{"timestamp":1417802400,"dateTimeISO":"2014-12-05T12:00:00-06:00","tempC":27,"tempF":81,"dewpointC":25,"dewpointF":77,"humidity":89,"pressureMB":1013,"pressureIN":29.91,"spressureMB":1012,"spressureIN":29.88,"altimeterMB":null,"altimeterIN":null,"windKTS":8,"windKPH":15,"windMPH":9,"windSpeedKTS":8,"windSpeedKPH":15,"windSpeedMPH":9,"windDirDEG":360,"windDir":"N","windGustKTS":null,"windGustKPH":null,"windGustMPH":null,"flightRule":"MVFR","visibilityKM":8,"visibilityMI":4.97,"weather":"Mostly Cloudy with Areas of Rain","weatherShort":"Scattered Showers","weatherCoded":"VC::R,::BK","weatherPrimary":"Scattered Showers","weatherPrimaryCoded":"VC::R","cloudsCoded":"BK","icon":"mcloudyr.png","heatindexC":31,"heatindexF":88,"windchillC":27,"windchillF":81,"feelslikeC":31,"feelslikeF":88,"isDay":true,"sunrise":1417779749,"sunriseISO":"2014-12-05T05:42:29-06:00","sunset":1417820978,"sunsetISO":"2014-12-05T17:09:38-06:00","snowDepthCM":null,"snowDepthIN":null,"precipMM":null,"precipIN":null,"solradWM2":null,"light":68,"sky":81},"raw":"MNBL 051800Z 36008KT 8000 VCRA FEW017CB BKN020 27/25 Q1013 CBRA/E/SE"},{"id":"MNJU","loc":{"long":-85.366666666667,"lat":12.083333333333},"place":{"name":"juigalpa","state":"","country":"ni","pretty_name":{"city":"Juigalpa|El Salto","region":"CT","country":"Nicaragua"}},"profile":{"tz":"America/Managua","elevM":90,"elevFT":295},"obTimestamp":1417802400,"obDateTime":"2014-12-05T12:00:00-06:00","ob":{"timestamp":1417802400,"dateTimeISO":"2014-12-05T12:00:00-06:00","tempC":31,"tempF":88,"dewpointC":23,"dewpointF":73,"humidity":62,"pressureMB":1012,"pressureIN":29.88,"spressureMB":1002,"spressureIN":29.59,"altimeterMB":null,"altimeterIN":null,"windKTS":10,"windKPH":19,"windMPH":12,"windSpeedKTS":10,"windSpeedKPH":19,"windSpeedMPH":12,"windDirDEG":60,"windDir":"ENE","windGustKTS":null,"windGustKPH":null,"windGustMPH":null,"flightRule":"LIFR","visibilityKM":null,"visibilityMI":null,"weather":"Partly Cloudy","weatherShort":"Partly Cloudy","weatherCoded":"::SC","weatherPrimary":"Partly Cloudy","weatherPrimaryCoded":"::SC","cloudsCoded":"SC","icon":"pcloudy.png","heatindexC":36,"heatindexF":96,"windchillC":31,"windchillF":88,"feelslikeC":36,"feelslikeF":96,"isDay":true,"sunrise":1417780141,"sunriseISO":"2014-12-05T05:49:01-06:00","sunset":1417821353,"sunsetISO":"2014-12-05T17:15:53-06:00","snowDepthCM":null,"snowDepthIN":null,"precipMM":null,"precipIN":null,"solradWM2":null,"light":68,"sky":44},"raw":"MNJU 051800Z 06010KT 9999 SCT020 SCT080 31/23 Q1012"},{"id":"MNRS","loc":{"long":-85.816666666667,"lat":11.416666666667},"place":{"name":"rivas","state":"","country":"ni","pretty_name":{"city":"Rivas|La Chocolata","region":"RV","country":"Nicaragua"}},"profile":{"tz":"America/Managua","elevM":53,"elevFT":174},"obTimestamp":1417802400,"obDateTime":"2014-12-05T12:00:00-06:00","ob":{"timestamp":1417802400,"dateTimeISO":"2014-12-05T12:00:00-06:00","tempC":29,"tempF":84,"dewpointC":23,"dewpointF":73,"humidity":70,"pressureMB":1012,"pressureIN":29.88,"spressureMB":1006,"spressureIN":29.71,"altimeterMB":null,"altimeterIN":null,"windKTS":4,"windKPH":7,"windMPH":5,"windSpeedKTS":4,"windSpeedKPH":7,"windSpeedMPH":5,"windDirDEG":100,"windDir":"E","windGustKTS":null,"windGustKPH":null,"windGustMPH":null,"flightRule":"MVFR","visibilityKM":null,"visibilityMI":null,"weather":"Mostly Cloudy","weatherShort":"Mostly Cloudy","weatherCoded":"::BK","weatherPrimary":"Mostly Cloudy","weatherPrimaryCoded":"::BK","cloudsCoded":"BK","icon":"mcloudy.png","heatindexC":32,"heatindexF":90,"windchillC":29,"windchillF":84,"feelslikeC":32,"feelslikeF":90,"isDay":true,"sunrise":1417780181,"sunriseISO":"2014-12-05T05:49:41-06:00","sunset":1417821530,"sunsetISO":"2014-12-05T17:18:50-06:00","snowDepthCM":null,"snowDepthIN":null,"precipMM":null,"precipIN":null,"solradWM2":null,"light":68,"sky":81},"raw":"MNRS 051800Z 10004KT 9999 BKN018 29/23 Q1012"}]}