{"success":true,"error":null,"response":[{"id":"VNKT","loc":{"long":85.366666666667,"lat":27.683333333333},"place":{"name":"kathmandu intl a","state":"","country":"np","pretty_name":{"city":"Kathmandu|Thapagaun","region":"BA","country":"Nepal"}},"profile":{"tz":"Asia/Kathmandu","elevM":1337,"elevFT":4386},"obTimestamp":1417801800,"obDateTime":"2014-12-05T23:35:00+05:45","ob":{"timestamp":1417801800,"dateTimeISO":"2014-12-05T23:35:00+05:45","tempC":10,"tempF":50,"dewpointC":9,"dewpointF":48,"humidity":94,"pressureMB":1021,"pressureIN":30.15,"spressureMB":871,"spressureIN":25.72,"altimeterMB":null,"altimeterIN":null,"windKTS":0,"windKPH":0,"windMPH":0,"windSpeedKTS":0,"windSpeedKPH":0,"windSpeedMPH":0,"windDirDEG":0,"windDir":"N","windGustKTS":null,"windGustKPH":null,"windGustMPH":null,"flightRule":"LIFR","visibilityKM":5,"visibilityMI":3.11,"weather":"Partly Cloudy with Mist and Fog","weatherShort":"Mist and Fog","weatherCoded":"::BR,::SC","weatherPrimary":"Mist and Fog","weatherPrimaryCoded":"::BR","cloudsCoded":"SC","icon":"fogn.png","heatindexC":10,"heatindexF":50,"windchillC":10,"windchillF":50,"feelslikeC":10,"feelslikeF":50,"isDay":false,"sunrise":1417740887,"sunriseISO":"2014-12-05T06:39:47+05:45","sunset":1417778607,"sunsetISO":"2014-12-05T17:08:27+05:45","snowDepthCM":null,"snowDepthIN":null,"precipMM":null,"precipIN":null,"solradWM2":null,"light":0,"sky":44},"raw":"VNKT 051750Z 00000KT 5000 BR FEW020 SCT100 10/09 Q1021 NOSIG"}]}