{"success":true,"error":null,"response":[{"id":"NZAA","loc":{"long":174.8,"lat":-37.016666666667},"place":{"name":"auckland intl ar","state":"","country":"nz","pretty_name":{"city":"Auckland|Mangere East","region":"AUK","country":"New Zealand"}},"profile":{"tz":"Pacific/Auckland","elevM":6,"elevFT":20},"obTimestamp":1417804200,"obDateTime":"2014-12-06T07:30:00+13:00","ob":{"timestamp":1417804200,"dateTimeISO":"2014-12-06T07:30:00+13:00","tempC":16,"tempF":61,"dewpointC":14,"dewpointF":57,"humidity":88,"pressureMB":1023,"pressureIN":30.21,"spressureMB":1022,"spressureIN":30.18,"altimeterMB":null,"altimeterIN":null,"windKTS":5,"windKPH":9,"windMPH":6,"windSpeedKTS":5,"windSpeedKPH":9,"windSpeedMPH":6,"windDirDEG":170,"windDir":"S","windGustKTS":null,"windGustKPH":null,"windGustMPH":null,"flightRule":"LIFR","visibilityKM":null,"visibilityMI":null,"weather":"Mostly Sunny","weatherShort":"Mostly Sunny","weatherCoded":"::FW","weatherPrimary":"Mostly Sunny","weatherPrimaryCoded":"::FW","cloudsCoded":"FW","icon":"pcloudy.png","heatindexC":16,"heatindexF":61,"windchillC":16,"windchillF":61,"feelslikeC":16,"feelslikeF":61,"isDay":true,"sunrise":1417798445,"sunriseISO":"2014-12-06T05:54:05+13:00","sunset":1417850944,"sunsetISO":"2014-12-06T20:29:04+13:00","snowDepthCM":null,"snowDepthIN":null,"precipMM":null,"precipIN":null,"solradWM2":null,"sky":19,"light":18},"raw":"NZAA 051830Z AUTO 17005KT 9999 OVC019/// 16/14 Q1023 NOSIG"},{"id":"NZCH","loc":{"long":172.55,"lat":-43.466666666667},"place":{"name":"christchurch int","state":"","country":"nz","pretty_name":{"city":"Christchurch|Harewood","region":"CAN","country":"New Zealand"}},"profile":{"tz":"Pacific/Auckland","elevM":34,"elevFT":112},"obTimestamp":1417804200,"obDateTime":"2014-12-06T07:30:00+13:00","ob":{"timestamp":1417804200,"dateTimeISO":"2014-12-06T07:30:00+13:00","tempC":11,"tempF":52,"dewpointC":9,"dewpointF":48,"humidity":88,"pressureMB":1020,"pressureIN":30.12,"spressureMB":1016,"spressureIN":30,"altimeterMB":null,"altimeterIN":null,"windKTS":11,"windKPH":20,"windMPH":13,"windSpeedKTS":11,"windSpeedKPH":20,"windSpeedMPH":13,"windDirDEG":60,"windDir":"ENE","windGustKTS":null,"windGustKPH":null,"windGustMPH":null,"flightRule":"LIFR","visibilityKM":null,"visibilityMI":null,"weather":"Partly Cloudy","weatherShort":"Partly Cloudy","weatherCoded":"::SC","weatherPrimary":"Partly Cloudy","weatherPrimaryCoded":"::SC","cloudsCoded":"SC","icon":"pcloudy.png","heatindexC":11,"heatindexF":52,"windchillC":11,"windchillF":52,"feelslikeC":11,"feelslikeF":52,"isDay":true,"sunrise":1417797767,"sunriseISO":"2014-12-06T05:42:47+13:00","sunset":1417852702,"sunsetISO":"2014-12-06T20:58:22+13:00","snowDepthCM":null,"snowDepthIN":null,"precipMM":null,"precipIN":null,"solradWM2":null,"light":16,"sky":44},"raw":"NZCH 051830Z AUTO 06011KT 9999 OVC014/// 11/09 Q1020 BECMG SCT014"},{"id":"NZWN","loc":{"long":174.8,"lat":-41.316666666667},"place":{"name":"wellington intl","state":"","country":"nz","pretty_name":{"city":"Wellington|Rongotai","region":"WGN","country":"New Zealand"}},"profile":{"tz":"Pacific/Auckland","elevM":7,"elevFT":23},"obTimestamp":1417804200,"obDateTime":"2014-12-06T07:30:00+13:00","ob":{"timestamp":1417804200,"dateTimeISO":"2014-12-06T07:30:00+13:00","tempC":12,"tempF":54,"dewpointC":7,"dewpointF":45,"humidity":72,"pressureMB":1022,"pressureIN":30.18,"spressureMB":1021,"spressureIN":30.15,"altimeterMB":null,"altimeterIN":null,"windKTS":9,"windKPH":17,"windMPH":10,"windSpeedKTS":9,"windSpeedKPH":17,"windSpeedMPH":10,"windDirDEG":20,"windDir":"NNE","windGustKTS":null,"windGustKPH":null,"windGustMPH":null,"flightRule":"LIFR","visibilityKM":null,"visibilityMI":null,"weather":"Mostly Sunny","weatherShort":"Mostly Sunny","weatherCoded":"::FW","weatherPrimary":"Mostly Sunny","weatherPrimaryCoded":"::FW","cloudsCoded":"FW","icon":"pcloudy.png","heatindexC":12,"heatindexF":54,"windchillC":12,"windchillF":54,"feelslikeC":12,"feelslikeF":54,"isDay":true,"sunrise":1417797665,"sunriseISO":"2014-12-06T05:41:05+13:00","sunset":1417851724,"sunsetISO":"2014-12-06T20:42:04+13:00","snowDepthCM":null,"snowDepthIN":null,"precipMM":null,"precipIN":null,"solradWM2":null,"sky":19,"light":20},"raw":"NZWN 051830Z AUTO 02009KT 9999 OVC029/// 12/07 Q1022 NOSIG"}]}