{"success":true,"error":null,"response":[{"id":"OOMS","loc":{"long":58.266666666667,"lat":23.566666666667},"place":{"name":"seeb intl/muscat","state":"","country":"om","pretty_name":{"city":"Muscat|Murtafaat al Matar","region":"-","country":"Oman"}},"profile":{"tz":"Asia/Muscat","elevM":8,"elevFT":26},"obTimestamp":1417801800,"obDateTime":"2014-12-05T21:50:00+04:00","ob":{"timestamp":1417801800,"dateTimeISO":"2014-12-05T21:50:00+04:00","tempC":23,"tempF":73,"dewpointC":18,"dewpointF":64,"humidity":74,"pressureMB":1018,"pressureIN":30.06,"spressureMB":1017,"spressureIN":30.03,"altimeterMB":null,"altimeterIN":null,"windKTS":2,"windKPH":4,"windMPH":2,"windSpeedKTS":2,"windSpeedKPH":4,"windSpeedMPH":2,"windDirDEG":160,"windDir":"SSE","windGustKTS":null,"windGustKPH":null,"windGustMPH":null,"flightRule":"LIFR","visibilityKM":11.265408,"visibilityMI":7,"weather":"Mostly Clear","weatherShort":"Mostly Clear","weatherCoded":"::FW","weatherPrimary":"Mostly Clear","weatherPrimaryCoded":"::FW","cloudsCoded":"FW","icon":"pcloudyn.png","heatindexC":23,"heatindexF":73,"windchillC":23,"windchillF":73,"feelslikeC":23,"feelslikeF":73,"isDay":false,"sunrise":1417746897,"sunriseISO":"2014-12-05T06:34:57+04:00","sunset":1417785613,"sunsetISO":"2014-12-05T17:20:13+04:00","snowDepthCM":null,"snowDepthIN":null,"precipMM":null,"precipIN":null,"solradWM2":null,"sky":19,"light":0},"raw":"OOMS 051750Z 16002KT CAVOK 23/18 Q1018 NOSIG"},{"id":"OOSA","loc":{"long":54.066666666667,"lat":17.016666666667},"place":{"name":"salalah","state":"","country":"om","pretty_name":{"city":"Salalah","region":"-","country":"Oman"}},"profile":{"tz":"Asia/Muscat","elevM":20,"elevFT":66},"obTimestamp":1417801800,"obDateTime":"2014-12-05T21:50:00+04:00","ob":{"timestamp":1417801800,"dateTimeISO":"2014-12-05T21:50:00+04:00","tempC":24,"tempF":75,"dewpointC":7,"dewpointF":45,"humidity":34,"pressureMB":1017,"pressureIN":30.03,"spressureMB":1015,"spressureIN":29.97,"altimeterMB":null,"altimeterIN":null,"windKTS":5,"windKPH":9,"windMPH":6,"windSpeedKTS":5,"windSpeedKPH":9,"windSpeedMPH":6,"windDirDEG":330,"windDir":"NNW","windGustKTS":null,"windGustKPH":null,"windGustMPH":null,"flightRule":"LIFR","visibilityKM":null,"visibilityMI":null,"weather":"Mostly Clear","weatherShort":"Mostly Clear","weatherCoded":"::FW","weatherPrimary":"Mostly Clear","weatherPrimaryCoded":"::FW","cloudsCoded":"FW","icon":"pcloudyn.png","heatindexC":24,"heatindexF":75,"windchillC":24,"windchillF":75,"feelslikeC":24,"feelslikeF":75,"isDay":false,"sunrise":1417747170,"sunriseISO":"2014-12-05T06:39:30+04:00","sunset":1417787356,"sunsetISO":"2014-12-05T17:49:16+04:00","snowDepthCM":null,"snowDepthIN":null,"precipMM":null,"precipIN":null,"solradWM2":null,"sky":19,"light":0},"raw":"OOSA 051750Z AUTO 33005KT 9999 24/07 Q1017"},{"id":"KQTH","loc":{"long":54.016666666667,"lat":17.666666666667},"place":{"name":"thumrait","state":"","country":"om","pretty_name":null},"profile":{"tz":"Asia/Muscat","elevM":465,"elevFT":1526},"obTimestamp":1417802100,"obDateTime":"2014-12-05T21:55:00+04:00","ob":{"timestamp":1417802100,"dateTimeISO":"2014-12-05T21:55:00+04:00","tempC":19,"tempF":66,"dewpointC":8,"dewpointF":46,"humidity":49,"pressureMB":1021,"pressureIN":30.15,"spressureMB":967,"spressureIN":28.56,"altimeterMB":1022,"altimeterIN":30.18,"windKTS":1,"windKPH":2,"windMPH":1,"windSpeedKTS":1,"windSpeedKPH":2,"windSpeedMPH":1,"windDirDEG":280,"windDir":"W","windGustKTS":null,"windGustKPH":null,"windGustMPH":null,"flightRule":"LIFR","visibilityKM":null,"visibilityMI":null,"weather":"Clear","weatherShort":"Clear","weatherCoded":"::CL","weatherPrimary":"Clear","weatherPrimaryCoded":"::CL","cloudsCoded":"CL","icon":"sunnyn.png","heatindexC":19,"heatindexF":66,"windchillC":19,"windchillF":66,"feelslikeC":19,"feelslikeF":66,"isDay":false,"sunrise":1417747252,"sunriseISO":"2014-12-05T06:40:52+04:00","sunset":1417787298,"sunsetISO":"2014-12-05T17:48:18+04:00","snowDepthCM":null,"snowDepthIN":null,"precipMM":0,"precipIN":0,"solradWM2":null,"light":0,"sky":0},"raw":"KQTH 051755Z AUTO 28001KT 9999 CLR 19/08 A3018 RMK AO2 SLP209 T01870079 52009"}]}