{"success":true,"error":null,"response":[{"id":"RPMD","loc":{"long":125.65,"lat":7.1166666666667},"place":{"name":"davao/francisco","state":"","country":"ph","pretty_name":{"city":"Davao|Lanang","region":"DAS","country":"Philippines"}},"profile":{"tz":"Asia/Manila","elevM":18,"elevFT":59},"obTimestamp":1417788000,"obDateTime":"2014-12-05T22:00:00+08:00","ob":{"timestamp":1417788000,"dateTimeISO":"2014-12-05T22:00:00+08:00","tempC":27,"tempF":81,"dewpointC":24,"dewpointF":75,"humidity":84,"pressureMB":1009,"pressureIN":29.8,"spressureMB":1007,"spressureIN":29.74,"altimeterMB":null,"altimeterIN":null,"windKTS":3,"windKPH":6,"windMPH":3,"windSpeedKTS":3,"windSpeedKPH":6,"windSpeedMPH":3,"windDirDEG":280,"windDir":"W","windGustKTS":null,"windGustKPH":null,"windGustMPH":null,"flightRule":"MVFR","visibilityKM":3.8,"visibilityMI":2.36,"weather":"Mostly Cloudy","weatherShort":"Mostly Cloudy","weatherCoded":"::BK","weatherPrimary":"Mostly Cloudy","weatherPrimaryCoded":"::BK","cloudsCoded":"BK","icon":"mcloudyn.png","heatindexC":31,"heatindexF":87,"windchillC":27,"windchillF":81,"feelslikeC":31,"feelslikeF":87,"isDay":false,"sunrise":1417728957,"sunriseISO":"2014-12-05T05:35:57+08:00","sunset":1417771191,"sunsetISO":"2014-12-05T17:19:51+08:00","snowDepthCM":null,"snowDepthIN":null,"precipMM":null,"precipIN":null,"solradWM2":null,"light":0,"sky":81},"raw":"RPMD 051400Z 28003KT 3800 BKN016 SCT090 BKN290 27/24 Q1009 RMK A2980"},{"id":"KQEA","loc":{"long":122.06666666667,"lat":6.9333333333333},"place":{"name":"edwin andrews ab","state":"","country":"ph","pretty_name":null},"profile":{"tz":"Asia/Manila","elevM":10,"elevFT":33},"obTimestamp":1417799400,"obDateTime":"2014-12-06T01:10:00+08:00","ob":{"timestamp":1417799400,"dateTimeISO":"2014-12-06T01:10:00+08:00","tempC":24,"tempF":75,"dewpointC":21,"dewpointF":70,"humidity":83,"pressureMB":1009,"pressureIN":29.8,"spressureMB":1008,"spressureIN":29.77,"altimeterMB":1009,"altimeterIN":29.8,"windKTS":0,"windKPH":0,"windMPH":0,"windSpeedKTS":0,"windSpeedKPH":0,"windSpeedMPH":0,"windDirDEG":0,"windDir":"N","windGustKTS":null,"windGustKPH":null,"windGustMPH":null,"flightRule":"LIFR","visibilityKM":null,"visibilityMI":null,"weather":"Mostly Clear","weatherShort":"Mostly Clear","weatherCoded":"::FW","weatherPrimary":"Mostly Clear","weatherPrimaryCoded":"::FW","cloudsCoded":"FW","icon":"pcloudyn.png","heatindexC":24,"heatindexF":75,"windchillC":24,"windchillF":75,"feelslikeC":24,"feelslikeF":75,"isDay":false,"sunrise":1417816228,"sunriseISO":"2014-12-06T05:50:28+08:00","sunset":1417858490,"sunsetISO":"2014-12-06T17:34:50+08:00","snowDepthCM":null,"snowDepthIN":null,"precipMM":0,"precipIN":0,"solradWM2":null,"sky":19,"light":0},"raw":"KQEA 051710Z AUTO 00000KT 24/21 A2979 RMK AO2 SLP086 PWINO TSNO $"},{"id":"RPVM","loc":{"long":123.98333333333,"lat":10.316666666667},"place":{"name":"mactan-cebu","state":"","country":"ph","pretty_name":{"city":"Masbate|Cagba","region":"MAS","country":"Philippines"}},"profile":{"tz":"Asia/Manila","elevM":10,"elevFT":33},"obTimestamp":1417802400,"obDateTime":"2014-12-06T02:00:00+08:00","ob":{"timestamp":1417802400,"dateTimeISO":"2014-12-06T02:00:00+08:00","tempC":27,"tempF":81,"dewpointC":22,"dewpointF":72,"humidity":74,"pressureMB":1008,"pressureIN":29.77,"spressureMB":1007,"spressureIN":29.74,"altimeterMB":null,"altimeterIN":null,"windKTS":3,"windKPH":6,"windMPH":3,"windSpeedKTS":3,"windSpeedKPH":6,"windSpeedMPH":3,"windDirDEG":320,"windDir":"NW","windGustKTS":null,"windGustKPH":null,"windGustMPH":null,"flightRule":"LIFR","visibilityKM":null,"visibilityMI":null,"weather":"Mostly Cloudy","weatherShort":"Mostly Cloudy","weatherCoded":"::BK","weatherPrimary":"Mostly Cloudy","weatherPrimaryCoded":"::BK","cloudsCoded":"BK","icon":"mcloudyn.png","heatindexC":29,"heatindexF":85,"windchillC":27,"windchillF":81,"feelslikeC":29,"feelslikeF":85,"isDay":false,"sunrise":1417816111,"sunriseISO":"2014-12-06T05:48:31+08:00","sunset":1417857688,"sunsetISO":"2014-12-06T17:21:28+08:00","snowDepthCM":null,"snowDepthIN":null,"precipMM":null,"precipIN":null,"solradWM2":null,"light":0,"sky":81},"raw":"RPVM 051800Z 32003KT 9999 FEW020 SCT100 BKN250 27/22 Q1008 RMK A2977"},{"id":"RPMZ","loc":{"long":122.06666666667,"lat":6.9166666666667},"place":{"name":"zamboanga (civ/a","state":"","country":"ph","pretty_name":{"city":"Zamboanga|Cawa Cawa","region":"ZSI","country":"Philippines"}},"profile":{"tz":"Asia/Manila","elevM":6,"elevFT":20},"obTimestamp":1417802400,"obDateTime":"2014-12-06T02:00:00+08:00","ob":{"timestamp":1417802400,"dateTimeISO":"2014-12-06T02:00:00+08:00","tempC":24,"tempF":75,"dewpointC":23,"dewpointF":73,"humidity":94,"pressureMB":1010,"pressureIN":29.83,"spressureMB":1009,"spressureIN":29.8,"altimeterMB":null,"altimeterIN":null,"windKTS":0,"windKPH":0,"windMPH":0,"windSpeedKTS":0,"windSpeedKPH":0,"windSpeedMPH":0,"windDirDEG":0,"windDir":"N","windGustKTS":null,"windGustKPH":null,"windGustMPH":null,"flightRule":"LIFR","visibilityKM":null,"visibilityMI":null,"weather":"Mostly Cloudy","weatherShort":"Mostly Cloudy","weatherCoded":"::BK","weatherPrimary":"Mostly Cloudy","weatherPrimaryCoded":"::BK","cloudsCoded":"BK","icon":"mcloudyn.png","heatindexC":24,"heatindexF":75,"windchillC":24,"windchillF":75,"feelslikeC":24,"feelslikeF":75,"isDay":false,"sunrise":1417816227,"sunriseISO":"2014-12-06T05:50:27+08:00","sunset":1417858492,"sunsetISO":"2014-12-06T17:34:52+08:00","snowDepthCM":null,"snowDepthIN":null,"precipMM":null,"precipIN":null,"solradWM2":null,"light":0,"sky":81},"raw":"RPMZ 051800Z 00000KT 9999 FEW017 BKN300 24/23 Q1010 RMK A2983"},{"id":"RPLC","loc":{"long":120.58333333333,"lat":15.166666666667},"place":{"name":"angeles/pampanga","state":"","country":"ph","pretty_name":{"city":"Angeles City|Culayo","region":"PAM","country":"Philippines"}},"profile":{"tz":"Asia/Manila","elevM":196,"elevFT":643},"obTimestamp":1417802400,"obDateTime":"2014-12-06T02:00:00+08:00","ob":{"timestamp":1417802400,"dateTimeISO":"2014-12-06T02:00:00+08:00","tempC":25,"tempF":77,"dewpointC":22,"dewpointF":72,"humidity":83,"pressureMB":1012,"pressureIN":29.88,"spressureMB":990,"spressureIN":29.23,"altimeterMB":null,"altimeterIN":null,"windKTS":5,"windKPH":9,"windMPH":6,"windSpeedKTS":5,"windSpeedKPH":9,"windSpeedMPH":6,"windDirDEG":330,"windDir":"NNW","windGustKTS":null,"windGustKPH":null,"windGustMPH":null,"flightRule":"LIFR","visibilityKM":null,"visibilityMI":null,"weather":"Cloudy","weatherShort":"Cloudy","weatherCoded":"::OV","weatherPrimary":"Cloudy","weatherPrimaryCoded":"::OV","cloudsCoded":"OV","icon":"cloudyn.png","heatindexC":25,"heatindexF":77,"windchillC":25,"windchillF":77,"feelslikeC":25,"feelslikeF":77,"isDay":false,"sunrise":1417817431,"sunriseISO":"2014-12-06T06:10:31+08:00","sunset":1417858000,"sunsetISO":"2014-12-06T17:26:40+08:00","snowDepthCM":null,"snowDepthIN":null,"precipMM":null,"precipIN":null,"solradWM2":null,"light":0,"sky":100},"raw":"RPLC 051800Z 33005KT 9999 SCT042 OVC100 25/22 Q1012 RMK NOSIG A2989"},{"id":"RPLL","loc":{"long":121,"lat":14.516666666667},"place":{"name":"ninoy aquino int","state":"","country":"ph","pretty_name":{"city":"Manila|Airport Village","region":"NCR","country":"Philippines"}},"profile":{"tz":"Asia/Manila","elevM":21,"elevFT":69},"obTimestamp":1417802400,"obDateTime":"2014-12-06T02:00:00+08:00","ob":{"timestamp":1417802400,"dateTimeISO":"2014-12-06T02:00:00+08:00","tempC":25,"tempF":77,"dewpointC":23,"dewpointF":73,"humidity":89,"pressureMB":1010,"pressureIN":29.83,"spressureMB":1008,"spressureIN":29.77,"altimeterMB":null,"altimeterIN":null,"windKTS":0,"windKPH":0,"windMPH":0,"windSpeedKTS":0,"windSpeedKPH":0,"windSpeedMPH":0,"windDirDEG":0,"windDir":"N","windGustKTS":null,"windGustKPH":null,"windGustMPH":null,"flightRule":"LIFR","visibilityKM":null,"visibilityMI":null,"weather":"Partly Cloudy","weatherShort":"Partly Cloudy","weatherCoded":"::SC","weatherPrimary":"Partly Cloudy","weatherPrimaryCoded":"::SC","cloudsCoded":"SC","icon":"pcloudyn.png","heatindexC":25,"heatindexF":77,"windchillC":25,"windchillF":77,"feelslikeC":25,"feelslikeF":77,"isDay":false,"sunrise":1417817262,"sunriseISO":"2014-12-06T06:07:42+08:00","sunset":1417857969,"sunsetISO":"2014-12-06T17:26:09+08:00","snowDepthCM":null,"snowDepthIN":null,"precipMM":null,"precipIN":null,"solradWM2":null,"light":0,"sky":44},"raw":"RPLL 051800Z 00000KT 9999 FEW025 SCT090 25/23 Q1010 NOSIG RMK A2983"},{"id":"RPLB","loc":{"long":120.26666666667,"lat":14.8},"place":{"name":"olongapo/subic","state":"","country":"ph","pretty_name":{"city":"Olongapo|Olongapo City","region":"BAN","country":"Philippines"}},"profile":{"tz":"Asia/Manila","elevM":17,"elevFT":56},"obTimestamp":1417802400,"obDateTime":"2014-12-06T02:00:00+08:00","ob":{"timestamp":1417802400,"dateTimeISO":"2014-12-06T02:00:00+08:00","tempC":25,"tempF":77,"dewpointC":21,"dewpointF":70,"humidity":79,"pressureMB":1010,"pressureIN":29.83,"spressureMB":1008,"spressureIN":29.77,"altimeterMB":null,"altimeterIN":null,"windKTS":0,"windKPH":0,"windMPH":0,"windSpeedKTS":0,"windSpeedKPH":0,"windSpeedMPH":0,"windDirDEG":0,"windDir":"N","windGustKTS":null,"windGustKPH":null,"windGustMPH":null,"flightRule":"LIFR","visibilityKM":null,"visibilityMI":null,"weather":"Mostly Cloudy","weatherShort":"Mostly Cloudy","weatherCoded":"::BK","weatherPrimary":"Mostly Cloudy","weatherPrimaryCoded":"::BK","cloudsCoded":"BK","icon":"mcloudyn.png","heatindexC":25,"heatindexF":77,"windchillC":25,"windchillF":77,"feelslikeC":25,"feelslikeF":77,"isDay":false,"sunrise":1417817468,"sunriseISO":"2014-12-06T06:11:08+08:00","sunset":1417858115,"sunsetISO":"2014-12-06T17:28:35+08:00","snowDepthCM":null,"snowDepthIN":null,"precipMM":null,"precipIN":null,"solradWM2":null,"light":0,"sky":81},"raw":"RPLB 051800Z 00000KT 9999 FEW020 BKN080 25/21 Q1010 NOSIG RMK A2983"},{"id":"RPLI","loc":{"long":120.51666666667,"lat":18.166666666667},"place":{"name":"laoag intl(ph-ar","state":"","country":"ph","pretty_name":{"city":"Laoag|Tasod","region":"ILN","country":"Philippines"}},"profile":{"tz":"Asia/Manila","elevM":5,"elevFT":16},"obTimestamp":1417802400,"obDateTime":"2014-12-06T02:00:00+08:00","ob":{"timestamp":1417802400,"dateTimeISO":"2014-12-06T02:00:00+08:00","tempC":24,"tempF":75,"dewpointC":18,"dewpointF":64,"humidity":69,"pressureMB":1012,"pressureIN":29.88,"spressureMB":1011,"spressureIN":29.85,"altimeterMB":null,"altimeterIN":null,"windKTS":8,"windKPH":15,"windMPH":9,"windSpeedKTS":8,"windSpeedKPH":15,"windSpeedMPH":9,"windDirDEG":20,"windDir":"NNE","windGustKTS":null,"windGustKPH":null,"windGustMPH":null,"flightRule":"LIFR","visibilityKM":null,"visibilityMI":null,"weather":"Mostly Cloudy","weatherShort":"Mostly Cloudy","weatherCoded":"::BK","weatherPrimary":"Mostly Cloudy","weatherPrimaryCoded":"::BK","cloudsCoded":"BK","icon":"mcloudyn.png","heatindexC":24,"heatindexF":75,"windchillC":24,"windchillF":75,"feelslikeC":24,"feelslikeF":75,"isDay":false,"sunrise":1417817770,"sunriseISO":"2014-12-06T06:16:10+08:00","sunset":1417857693,"sunsetISO":"2014-12-06T17:21:33+08:00","snowDepthCM":null,"snowDepthIN":null,"precipMM":null,"precipIN":null,"solradWM2":null,"light":0,"sky":81},"raw":"RPLI 051800Z 02008KT 9999 FEW019 BKN100 24/18 Q1012 NOSIG RMK A2988"}]}