{"success":true,"error":null,"response":[{"id":"SGAS","loc":{"long":-57.516666666667,"lat":-25.25},"place":{"name":"asuncion/silvio","state":"","country":"py","pretty_name":{"city":"Asuncion|La Mercedes","region":"PH","country":"Paraguay"}},"profile":{"tz":"America/Asuncion","elevM":101,"elevFT":331},"obTimestamp":1417802400,"obDateTime":"2014-12-05T15:00:00-03:00","ob":{"timestamp":1417802400,"dateTimeISO":"2014-12-05T15:00:00-03:00","tempC":33,"tempF":91,"dewpointC":22,"dewpointF":72,"humidity":52,"pressureMB":1010,"pressureIN":29.83,"spressureMB":999,"spressureIN":29.5,"altimeterMB":null,"altimeterIN":null,"windKTS":5,"windKPH":9,"windMPH":6,"windSpeedKTS":5,"windSpeedKPH":9,"windSpeedMPH":6,"windDirDEG":40,"windDir":"NE","windGustKTS":null,"windGustKPH":null,"windGustMPH":null,"flightRule":"LIFR","visibilityKM":null,"visibilityMI":null,"weather":"Partly Cloudy","weatherShort":"Partly Cloudy","weatherCoded":"::SC","weatherPrimary":"Partly Cloudy","weatherPrimaryCoded":"::SC","cloudsCoded":"SC","icon":"pcloudy.png","heatindexC":37,"heatindexF":98,"windchillC":33,"windchillF":91,"feelslikeC":37,"feelslikeF":98,"isDay":true,"sunrise":1417769506,"sunriseISO":"2014-12-05T05:51:46-03:00","sunset":1417818611,"sunsetISO":"2014-12-05T19:30:11-03:00","snowDepthCM":null,"snowDepthIN":null,"precipMM":null,"precipIN":null,"solradWM2":null,"light":58,"sky":44},"raw":"SGAS 051800Z 04005KT 290V080 9999 SCT033 33/22 Q1010"},{"id":"SGES","loc":{"long":-54.85,"lat":-25.45},"place":{"name":"guarany","state":"","country":"py","pretty_name":{"city":"Ciudad del Este|Colonia Fйlix de Azara","region":"AN","country":"Paraguay"}},"profile":{"tz":"America/Asuncion","elevM":849,"elevFT":2785},"obTimestamp":1417802400,"obDateTime":"2014-12-05T15:00:00-03:00","ob":{"timestamp":1417802400,"dateTimeISO":"2014-12-05T15:00:00-03:00","tempC":30,"tempF":86,"dewpointC":19,"dewpointF":66,"humidity":52,"pressureMB":1013,"pressureIN":29.91,"spressureMB":921,"spressureIN":27.2,"altimeterMB":null,"altimeterIN":null,"windKTS":13,"windKPH":24,"windMPH":15,"windSpeedKTS":13,"windSpeedKPH":24,"windSpeedMPH":15,"windDirDEG":50,"windDir":"NE","windGustKTS":null,"windGustKPH":null,"windGustMPH":null,"flightRule":"LIFR","visibilityKM":null,"visibilityMI":null,"weather":"Partly Cloudy","weatherShort":"Partly Cloudy","weatherCoded":"::SC","weatherPrimary":"Partly Cloudy","weatherPrimaryCoded":"::SC","cloudsCoded":"SC","icon":"pcloudy.png","heatindexC":31,"heatindexF":88,"windchillC":30,"windchillF":86,"feelslikeC":31,"feelslikeF":88,"isDay":true,"sunrise":1417768840,"sunriseISO":"2014-12-05T05:40:40-03:00","sunset":1417817996,"sunsetISO":"2014-12-05T19:19:56-03:00","snowDepthCM":null,"snowDepthIN":null,"precipMM":null,"precipIN":null,"solradWM2":null,"light":57,"sky":44},"raw":"SGES 051800Z 05013KT 360V080 9999 SCT033 30/19 Q1013"}]}