{"success":true,"error":null,"response":[{"id":"KQIR","loc":{"long":51.316666666667,"lat":25.116666666667},"place":{"name":"al udeid","state":"","country":"qa","pretty_name":{"city":"Al Udeid|Umm az Zub?r","region":"-","country":"Qatar"}},"profile":{"tz":"Asia/Qatar","elevM":40,"elevFT":131},"obTimestamp":1417802280,"obDateTime":"2014-12-05T20:58:00+03:00","ob":{"timestamp":1417802280,"dateTimeISO":"2014-12-05T20:58:00+03:00","tempC":19,"tempF":66,"dewpointC":17,"dewpointF":63,"humidity":88,"pressureMB":1020,"pressureIN":30.12,"spressureMB":1015,"spressureIN":29.97,"altimeterMB":1020,"altimeterIN":30.12,"windKTS":7,"windKPH":13,"windMPH":8,"windSpeedKTS":7,"windSpeedKPH":13,"windSpeedMPH":8,"windDirDEG":330,"windDir":"NNW","windGustKTS":null,"windGustKPH":null,"windGustMPH":null,"flightRule":"LIFR","visibilityKM":null,"visibilityMI":null,"weather":"Partly Cloudy","weatherShort":"Partly Cloudy","weatherCoded":"::SC","weatherPrimary":"Partly Cloudy","weatherPrimaryCoded":"::SC","cloudsCoded":"SC","icon":"pcloudyn.png","heatindexC":19,"heatindexF":66,"windchillC":19,"windchillF":66,"feelslikeC":19,"feelslikeF":66,"isDay":false,"sunrise":1417748752,"sunriseISO":"2014-12-05T06:05:52+03:00","sunset":1417787097,"sunsetISO":"2014-12-05T16:44:57+03:00","snowDepthCM":null,"snowDepthIN":null,"precipMM":0,"precipIN":0,"solradWM2":null,"light":0,"tempMax6hrC":25.4,"tempMax6hrF":78,"tempMin6hrC":19,"tempMin6hrF":66,"sky":44},"raw":"KQIR 051758Z 33007KT 9999 SCT100 19/17 A3011 RMK AO2A SLP198 T01900170 10254 20190 50003 $"},{"id":"OTBD","loc":{"long":51.566666666667,"lat":25.25},"place":{"name":"doha intl airpor","state":"","country":"qa","pretty_name":{"city":"Doha|An Najmah","region":"DW","country":"Qatar"}},"profile":{"tz":"Asia/Qatar","elevM":10,"elevFT":33},"obTimestamp":1417802400,"obDateTime":"2014-12-05T21:00:00+03:00","ob":{"timestamp":1417802400,"dateTimeISO":"2014-12-05T21:00:00+03:00","tempC":22,"tempF":72,"dewpointC":17,"dewpointF":63,"humidity":73,"pressureMB":1020,"pressureIN":30.12,"spressureMB":1019,"spressureIN":30.09,"altimeterMB":null,"altimeterIN":null,"windKTS":6,"windKPH":11,"windMPH":7,"windSpeedKTS":6,"windSpeedKPH":11,"windSpeedMPH":7,"windDirDEG":330,"windDir":"NNW","windGustKTS":null,"windGustKPH":null,"windGustMPH":null,"flightRule":"LIFR","visibilityKM":11.265408,"visibilityMI":7,"weather":"Mostly Clear","weatherShort":"Mostly Clear","weatherCoded":"::FW","weatherPrimary":"Mostly Clear","weatherPrimaryCoded":"::FW","cloudsCoded":"FW","icon":"pcloudyn.png","heatindexC":22,"heatindexF":72,"windchillC":22,"windchillF":72,"feelslikeC":22,"feelslikeF":72,"isDay":false,"sunrise":1417748708,"sunriseISO":"2014-12-05T06:05:08+03:00","sunset":1417787021,"sunsetISO":"2014-12-05T16:43:41+03:00","snowDepthCM":null,"snowDepthIN":null,"precipMM":null,"precipIN":null,"solradWM2":null,"sky":19,"light":0},"raw":"OTBD 051800Z 33006KT 280V350 CAVOK 22/17 Q1020 NOSIG"}]}