{"success":true,"error":null,"response":[{"id":"HRYR","loc":{"long":30.116666666667,"lat":-1.9666666666667},"place":{"name":"kigali","state":"","country":"rw","pretty_name":{"city":"Kigali|Rwimbogo","region":"-","country":"Rwanda"}},"profile":{"tz":"Africa/Kigali","elevM":1497,"elevFT":4911},"obTimestamp":1417804200,"obDateTime":"2014-12-05T20:30:00+02:00","ob":{"timestamp":1417804200,"dateTimeISO":"2014-12-05T20:30:00+02:00","tempC":24,"tempF":75,"dewpointC":18,"dewpointF":64,"humidity":69,"pressureMB":1020,"pressureIN":30.12,"spressureMB":861,"spressureIN":25.43,"altimeterMB":null,"altimeterIN":null,"windKTS":5,"windKPH":9,"windMPH":6,"windSpeedKTS":5,"windSpeedKPH":9,"windSpeedMPH":6,"windDirDEG":30,"windDir":"NNE","windGustKTS":null,"windGustKPH":null,"windGustMPH":null,"flightRule":"LIFR","visibilityKM":null,"visibilityMI":null,"weather":"Partly Cloudy","weatherShort":"Partly Cloudy","weatherCoded":"::SC","weatherPrimary":"Partly Cloudy","weatherPrimaryCoded":"::SC","cloudsCoded":"SC","icon":"pcloudyn.png","heatindexC":24,"heatindexF":75,"windchillC":24,"windchillF":75,"feelslikeC":24,"feelslikeF":75,"isDay":false,"sunrise":1417750998,"sunriseISO":"2014-12-05T05:43:18+02:00","sunset":1417795032,"sunsetISO":"2014-12-05T17:57:12+02:00","snowDepthCM":null,"snowDepthIN":null,"precipMM":null,"precipIN":null,"solradWM2":null,"light":0,"sky":44},"raw":"HRYR 051830Z 03005KT 9999 SCT025 24/18 Q1020 NOSIG"}]}