{"success":true,"error":null,"response":[{"id":"AGGH","loc":{"long":160.05,"lat":-9.4166666666667},"place":{"name":"honiara/henderso","state":"","country":"sb","pretty_name":{"city":"Honiara|Motombulu","region":"-","country":"Solomon Islands"}},"profile":{"tz":"Pacific/Guadalcanal","elevM":9,"elevFT":30},"obTimestamp":1417802400,"obDateTime":"2014-12-06T05:00:00+11:00","ob":{"timestamp":1417802400,"dateTimeISO":"2014-12-06T05:00:00+11:00","tempC":22,"tempF":72,"dewpointC":20,"dewpointF":68,"humidity":88,"pressureMB":1005,"pressureIN":29.68,"spressureMB":1004,"spressureIN":29.65,"altimeterMB":null,"altimeterIN":null,"windKTS":3,"windKPH":6,"windMPH":3,"windSpeedKTS":3,"windSpeedKPH":6,"windSpeedMPH":3,"windDirDEG":180,"windDir":"S","windGustKTS":null,"windGustKPH":null,"windGustMPH":null,"flightRule":"LIFR","visibilityKM":null,"visibilityMI":null,"weather":"Mostly Clear","weatherShort":"Mostly Clear","weatherCoded":"::FW","weatherPrimary":"Mostly Clear","weatherPrimaryCoded":"::FW","cloudsCoded":"FW","icon":"pcloudyn.png","heatindexC":22,"heatindexF":72,"windchillC":22,"windchillF":72,"feelslikeC":22,"feelslikeF":72,"isDay":false,"sunrise":1417805468,"sunriseISO":"2014-12-06T05:51:08+11:00","sunset":1417851007,"sunsetISO":"2014-12-06T18:30:07+11:00","snowDepthCM":null,"snowDepthIN":null,"precipMM":null,"precipIN":null,"solradWM2":null,"light":0,"sky":19},"raw":"AGGH 051800Z 18003KT 9999 FEW014 22/20 Q1005"}]}