{"success":true,"error":null,"response":[{"id":"FHAW","loc":{"long":-14.4,"lat":-7.9666666666667},"place":{"name":"wide awake field","state":"","country":"sh","pretty_name":{"city":"Ascension Island|Thornton","region":"-","country":"Saint Helena"}},"profile":{"tz":"Atlantic/St_Helena","elevM":79,"elevFT":259},"obTimestamp":1417801800,"obDateTime":"2014-12-05T17:50:00+00:00","ob":{"timestamp":1417801800,"dateTimeISO":"2014-12-05T17:50:00+00:00","tempC":25,"tempF":77,"dewpointC":19,"dewpointF":66,"humidity":69,"pressureMB":1014,"pressureIN":29.94,"spressureMB":1005,"spressureIN":29.68,"altimeterMB":null,"altimeterIN":null,"windKTS":18,"windKPH":33,"windMPH":21,"windSpeedKTS":18,"windSpeedKPH":33,"windSpeedMPH":21,"windDirDEG":140,"windDir":"SE","windGustKTS":null,"windGustKPH":null,"windGustMPH":null,"flightRule":"LIFR","visibilityKM":null,"visibilityMI":null,"weather":"Mostly Sunny","weatherShort":"Mostly Sunny","weatherCoded":"::FW","weatherPrimary":"Mostly Sunny","weatherPrimaryCoded":"::FW","cloudsCoded":"FW","icon":"pcloudy.png","heatindexC":25,"heatindexF":77,"windchillC":25,"windchillF":77,"feelslikeC":25,"feelslikeF":77,"isDay":true,"sunrise":1417761084,"sunriseISO":"2014-12-05T06:31:24+00:00","sunset":1417806324,"sunsetISO":"2014-12-05T19:05:24+00:00","snowDepthCM":null,"snowDepthIN":null,"precipMM":null,"precipIN":null,"solradWM2":null,"light":16,"sky":19},"raw":"FHAW 051750Z 14018KT 9999 FEW016 25/19 Q1014 BLU NOSIG"}]}