{"success":true,"error":null,"response":[{"id":"LJMB","loc":{"long":15.666666666667,"lat":46.466666666667},"place":{"name":"maribor","state":"","country":"si","pretty_name":{"city":"Maribor|Skoke","region":"-","country":"Slovenia"}},"profile":{"tz":"Europe/Ljubljana","elevM":265,"elevFT":869},"obTimestamp":1417804200,"obDateTime":"2014-12-05T19:30:00+01:00","ob":{"timestamp":1417804200,"dateTimeISO":"2014-12-05T19:30:00+01:00","tempC":5,"tempF":41,"dewpointC":4,"dewpointF":39,"humidity":93,"pressureMB":1018,"pressureIN":30.06,"spressureMB":985,"spressureIN":29.09,"altimeterMB":null,"altimeterIN":null,"windKTS":1,"windKPH":2,"windMPH":1,"windSpeedKTS":1,"windSpeedKPH":2,"windSpeedMPH":1,"windDirDEG":200,"windDir":"SSW","windGustKTS":null,"windGustKPH":null,"windGustMPH":null,"flightRule":"MVFR","visibilityKM":4,"visibilityMI":2.49,"weather":"Cloudy with Mist and Fog","weatherShort":"Mist and Fog","weatherCoded":"::BR,::OV","weatherPrimary":"Mist and Fog","weatherPrimaryCoded":"::BR","cloudsCoded":"OV","icon":"fogn.png","heatindexC":5,"heatindexF":41,"windchillC":5,"windchillF":41,"feelslikeC":5,"feelslikeF":41,"isDay":false,"sunrise":1417760714,"sunriseISO":"2014-12-05T07:25:14+01:00","sunset":1417792256,"sunsetISO":"2014-12-05T16:10:56+01:00","snowDepthCM":null,"snowDepthIN":null,"precipMM":null,"precipIN":null,"solradWM2":null,"light":0,"sky":100},"raw":"LJMB 051830Z 20001KT 4000 BR OVC010 05/04 Q1018"},{"id":"LJLJ","loc":{"long":14.466666666667,"lat":46.216666666667},"place":{"name":"ljubljana/brnik","state":"","country":"si","pretty_name":{"city":"Ljubljana|Spodnji Brnik","region":"-","country":"Slovenia"}},"profile":{"tz":"Europe/Ljubljana","elevM":385,"elevFT":1263},"obTimestamp":1417804200,"obDateTime":"2014-12-05T19:30:00+01:00","ob":{"timestamp":1417804200,"dateTimeISO":"2014-12-05T19:30:00+01:00","tempC":4,"tempF":39,"dewpointC":4,"dewpointF":39,"humidity":100,"pressureMB":1017,"pressureIN":30.03,"spressureMB":970,"spressureIN":28.64,"altimeterMB":null,"altimeterIN":null,"windKTS":2,"windKPH":4,"windMPH":2,"windSpeedKTS":2,"windSpeedKPH":4,"windSpeedMPH":2,"windDirDEG":230,"windDir":"SW","windGustKTS":null,"windGustKPH":null,"windGustMPH":null,"flightRule":"MVFR","visibilityKM":5,"visibilityMI":3.11,"weather":"Cloudy with Mist and Fog","weatherShort":"Mist and Fog","weatherCoded":"::BR,::OV","weatherPrimary":"Mist and Fog","weatherPrimaryCoded":"::BR","cloudsCoded":"OV","icon":"fogn.png","heatindexC":4,"heatindexF":39,"windchillC":4,"windchillF":39,"feelslikeC":4,"feelslikeF":39,"isDay":false,"sunrise":1417760947,"sunriseISO":"2014-12-05T07:29:07+01:00","sunset":1417792599,"sunsetISO":"2014-12-05T16:16:39+01:00","snowDepthCM":null,"snowDepthIN":null,"precipMM":null,"precipIN":null,"solradWM2":null,"light":0,"sky":100},"raw":"LJLJ 051830Z 23002KT 5000 BR SCT004 BKN015 OVC030 04/04 Q1017 NOSIG"},{"id":"LJCE","loc":{"long":15.516666666667,"lat":45.9},"place":{"name":"cerklje","state":"","country":"si","pretty_name":{"city":"Cerklje|Zasap","region":"-","country":"Slovenia"}},"profile":{"tz":"Europe/Ljubljana","elevM":155,"elevFT":509},"obTimestamp":1417804200,"obDateTime":"2014-12-05T19:30:00+01:00","ob":{"timestamp":1417804200,"dateTimeISO":"2014-12-05T19:30:00+01:00","tempC":5,"tempF":41,"dewpointC":4,"dewpointF":39,"humidity":93,"pressureMB":1018,"pressureIN":30.06,"spressureMB":999,"spressureIN":29.5,"altimeterMB":null,"altimeterIN":null,"windKTS":0,"windKPH":0,"windMPH":0,"windSpeedKTS":0,"windSpeedKPH":0,"windSpeedMPH":0,"windDirDEG":0,"windDir":"N","windGustKTS":null,"windGustKPH":null,"windGustMPH":null,"flightRule":"MVFR","visibilityKM":6,"visibilityMI":3.73,"weather":"Cloudy","weatherShort":"Cloudy","weatherCoded":"::OV","weatherPrimary":"Cloudy","weatherPrimaryCoded":"::OV","cloudsCoded":"OV","icon":"cloudyn.png","heatindexC":5,"heatindexF":41,"windchillC":5,"windchillF":41,"feelslikeC":5,"feelslikeF":41,"isDay":false,"sunrise":1417760625,"sunriseISO":"2014-12-05T07:23:45+01:00","sunset":1417792417,"sunsetISO":"2014-12-05T16:13:37+01:00","snowDepthCM":null,"snowDepthIN":null,"precipMM":null,"precipIN":null,"solradWM2":null,"light":0,"sky":100},"raw":"LJCE 051830Z 00000KT 6000 OVC015 05/04 Q1018 RMK WHT"},{"id":"LJPZ","loc":{"long":13.616666666667,"lat":45.466666666667},"place":{"name":"portoroz","state":"","country":"si","pretty_name":{"city":"Portoroz|Fjesa","region":"-","country":"Slovenia"}},"profile":{"tz":"Europe/Zagreb","elevM":2,"elevFT":7},"obTimestamp":1417804200,"obDateTime":"2014-12-05T19:30:00+01:00","ob":{"timestamp":1417804200,"dateTimeISO":"2014-12-05T19:30:00+01:00","tempC":11,"tempF":52,"dewpointC":9,"dewpointF":48,"humidity":88,"pressureMB":1014,"pressureIN":29.94,"spressureMB":1014,"spressureIN":29.94,"altimeterMB":null,"altimeterIN":null,"windKTS":4,"windKPH":7,"windMPH":5,"windSpeedKTS":4,"windSpeedKPH":7,"windSpeedMPH":5,"windDirDEG":110,"windDir":"ESE","windGustKTS":null,"windGustKPH":null,"windGustMPH":null,"flightRule":"MVFR","visibilityKM":null,"visibilityMI":null,"weather":"Mostly Cloudy","weatherShort":"Mostly Cloudy","weatherCoded":"::BK","weatherPrimary":"Mostly Cloudy","weatherPrimaryCoded":"::BK","cloudsCoded":"BK","icon":"mcloudyn.png","heatindexC":11,"heatindexF":52,"windchillC":11,"windchillF":52,"feelslikeC":11,"feelslikeF":52,"isDay":false,"sunrise":1417760988,"sunriseISO":"2014-12-05T07:29:48+01:00","sunset":1417792966,"sunsetISO":"2014-12-05T16:22:46+01:00","snowDepthCM":null,"snowDepthIN":null,"precipMM":null,"precipIN":null,"solradWM2":null,"light":0,"sky":81},"raw":"LJPZ 051830Z 11004KT 9999 BKN027 11/09 Q1014"}]}