{"success":true,"error":null,"response":[{"id":"LZKZ","loc":{"long":21.233333333333,"lat":48.666666666667},"place":{"name":"kosice barca","state":"","country":"sk","pretty_name":{"city":"Kosice|Po?ov","region":"-","country":"Slovakia"}},"profile":{"tz":"Europe/Bratislava","elevM":232,"elevFT":761},"obTimestamp":1419301800,"obDateTime":"2014-12-23T03:30:00+01:00","ob":{"timestamp":1419301800,"dateTimeISO":"2014-12-23T03:30:00+01:00","tempC":2,"tempF":36,"dewpointC":1,"dewpointF":34,"humidity":93,"pressureMB":1014,"pressureIN":29.94,"spressureMB":985,"spressureIN":29.09,"altimeterMB":null,"altimeterIN":null,"windKTS":4,"windKPH":7,"windMPH":5,"windSpeedKTS":4,"windSpeedKPH":7,"windSpeedMPH":5,"windDirDEG":150,"windDir":"SSE","windGustKTS":null,"windGustKPH":null,"windGustMPH":null,"flightRule":"LIFR","visibilityKM":11.265408,"visibilityMI":7,"weather":"Mostly Clear","weatherShort":"Mostly Clear","weatherCoded":"::FW","weatherPrimary":"Mostly Clear","weatherPrimaryCoded":"::FW","cloudsCoded":"FW","icon":"pcloudyn.png","heatindexC":2,"heatindexF":36,"windchillC":0,"windchillF":32,"feelslikeC":0,"feelslikeF":32,"isDay":false,"sunrise":1419315954,"sunriseISO":"2014-12-23T07:25:54+01:00","sunset":1419345762,"sunsetISO":"2014-12-23T15:42:42+01:00","snowDepthCM":null,"snowDepthIN":null,"precipMM":null,"precipIN":null,"solradWM2":null,"sky":19,"light":0},"raw":"LZKZ 230230Z 15004KT CAVOK 02/01 Q1014"},{"id":"LZIB","loc":{"long":17.216666666667,"lat":48.166666666667},"place":{"name":"bratislava ivank","state":"","country":"sk","pretty_name":{"city":"Bratislava|Bratislava - Vajnory","region":"-","country":"Slovakia"}},"profile":{"tz":"Europe/Bratislava","elevM":134,"elevFT":440},"obTimestamp":1419301800,"obDateTime":"2014-12-23T03:30:00+01:00","ob":{"timestamp":1419301800,"dateTimeISO":"2014-12-23T03:30:00+01:00","tempC":10,"tempF":50,"dewpointC":3,"dewpointF":37,"humidity":62,"pressureMB":1020,"pressureIN":30.12,"spressureMB":1004,"spressureIN":29.65,"altimeterMB":null,"altimeterIN":null,"windKTS":3,"windKPH":6,"windMPH":3,"windSpeedKTS":3,"windSpeedKPH":6,"windSpeedMPH":3,"windDirDEG":280,"windDir":"W","windGustKTS":null,"windGustKPH":null,"windGustMPH":null,"flightRule":"LIFR","visibilityKM":11.265408,"visibilityMI":7,"weather":"Mostly Clear","weatherShort":"Mostly Clear","weatherCoded":"::FW","weatherPrimary":"Mostly Clear","weatherPrimaryCoded":"::FW","cloudsCoded":"FW","icon":"pcloudyn.png","heatindexC":10,"heatindexF":50,"windchillC":10,"windchillF":50,"feelslikeC":10,"feelslikeF":50,"isDay":false,"sunrise":1419316789,"sunriseISO":"2014-12-23T07:39:49+01:00","sunset":1419346856,"sunsetISO":"2014-12-23T16:00:56+01:00","snowDepthCM":null,"snowDepthIN":null,"precipMM":null,"precipIN":null,"solradWM2":null,"sky":19,"light":0},"raw":"LZIB 230230Z 28003KT 230V320 CAVOK 10/03 Q1020"},{"id":"LZSL","loc":{"long":19.133333333333,"lat":48.633333333333},"place":{"name":"sliac","state":"","country":"sk","pretty_name":{"city":"Sliac|Hronsek","region":"-","country":"Slovakia"}},"profile":{"tz":"Europe/Bratislava","elevM":313,"elevFT":1027},"obTimestamp":1419301800,"obDateTime":"2014-12-23T03:30:00+01:00","ob":{"timestamp":1419301800,"dateTimeISO":"2014-12-23T03:30:00+01:00","tempC":8,"tempF":46,"dewpointC":3,"dewpointF":37,"humidity":71,"pressureMB":1016,"pressureIN":30,"spressureMB":978,"spressureIN":28.88,"altimeterMB":null,"altimeterIN":null,"windKTS":5,"windKPH":9,"windMPH":6,"windSpeedKTS":5,"windSpeedKPH":9,"windSpeedMPH":6,"windDirDEG":170,"windDir":"S","windGustKTS":null,"windGustKPH":null,"windGustMPH":null,"flightRule":"MVFR","visibilityKM":null,"visibilityMI":null,"weather":"Cloudy","weatherShort":"Cloudy","weatherCoded":"::OV","weatherPrimary":"Cloudy","weatherPrimaryCoded":"::OV","cloudsCoded":"OV","icon":"cloudyn.png","heatindexC":8,"heatindexF":46,"windchillC":8,"windchillF":46,"feelslikeC":8,"feelslikeF":46,"isDay":false,"sunrise":1419316449,"sunriseISO":"2014-12-23T07:34:09+01:00","sunset":1419346275,"sunsetISO":"2014-12-23T15:51:15+01:00","snowDepthCM":null,"snowDepthIN":null,"precipMM":null,"precipIN":null,"solradWM2":null,"light":0,"sky":100},"raw":"LZSL 230230Z 17005KT 120V240 9999 OVC027 08/03 Q1016"},{"id":"LZZI","loc":{"long":18.616666666667,"lat":49.233333333333},"place":{"name":"zilina","state":"","country":"sk","pretty_name":{"city":"Zilina|Ve?kб Koteљovб","region":"ZI","country":"Slovenia"}},"profile":{"tz":"Europe/Bratislava","elevM":311,"elevFT":1020},"obTimestamp":1419301800,"obDateTime":"2014-12-23T03:30:00+01:00","ob":{"timestamp":1419301800,"dateTimeISO":"2014-12-23T03:30:00+01:00","tempC":7,"tempF":45,"dewpointC":4,"dewpointF":39,"humidity":81,"pressureMB":1016,"pressureIN":30,"spressureMB":978,"spressureIN":28.88,"altimeterMB":null,"altimeterIN":null,"windKTS":10,"windKPH":19,"windMPH":12,"windSpeedKTS":10,"windSpeedKPH":19,"windSpeedMPH":12,"windDirDEG":250,"windDir":"WSW","windGustKTS":null,"windGustKPH":null,"windGustMPH":null,"flightRule":"MVFR","visibilityKM":null,"visibilityMI":null,"weather":"Cloudy with Light Rain","weatherShort":"Light Rain","weatherCoded":":L:R,::OV","weatherPrimary":"Light Rain","weatherPrimaryCoded":":L:R","cloudsCoded":"OV","icon":"rainn.png","heatindexC":7,"heatindexF":45,"windchillC":7,"windchillF":45,"feelslikeC":7,"feelslikeF":45,"isDay":false,"sunrise":1419316733,"sunriseISO":"2014-12-23T07:38:53+01:00","sunset":1419346240,"sunsetISO":"2014-12-23T15:50:40+01:00","snowDepthCM":null,"snowDepthIN":null,"precipMM":null,"precipIN":null,"solradWM2":null,"light":0,"sky":100},"raw":"LZZI 230230Z 25010KT 9999 -RA OVC027 07/04 Q1016"},{"id":"LZTT","loc":{"long":20.25,"lat":49.066666666667},"place":{"name":"poprad/tatry","state":"","country":"sk","pretty_name":{"city":"Poprad|Spiљskб Teplica","region":"-","country":"Slovakia"}},"profile":{"tz":"Europe/Bratislava","elevM":707,"elevFT":2320},"obTimestamp":1419301800,"obDateTime":"2014-12-23T03:30:00+01:00","ob":{"timestamp":1419301800,"dateTimeISO":"2014-12-23T03:30:00+01:00","tempC":5,"tempF":41,"dewpointC":3,"dewpointF":37,"humidity":87,"pressureMB":1012,"pressureIN":29.88,"spressureMB":928,"spressureIN":27.4,"altimeterMB":null,"altimeterIN":null,"windKTS":17,"windKPH":31,"windMPH":20,"windSpeedKTS":17,"windSpeedKPH":31,"windSpeedMPH":20,"windDirDEG":250,"windDir":"WSW","windGustKTS":null,"windGustKPH":null,"windGustMPH":null,"flightRule":"LIFR","visibilityKM":null,"visibilityMI":null,"weather":"Mostly Cloudy","weatherShort":"Mostly Cloudy","weatherCoded":"::BK","weatherPrimary":"Mostly Cloudy","weatherPrimaryCoded":"::BK","cloudsCoded":"BK","icon":"mcloudyn.png","heatindexC":5,"heatindexF":41,"windchillC":5,"windchillF":41,"feelslikeC":5,"feelslikeF":41,"isDay":false,"sunrise":1419316296,"sunriseISO":"2014-12-23T07:31:36+01:00","sunset":1419345892,"sunsetISO":"2014-12-23T15:44:52+01:00","snowDepthCM":null,"snowDepthIN":null,"precipMM":null,"precipIN":null,"solradWM2":null,"light":0,"sky":81},"raw":"LZTT 230230Z 25017KT 9999 FEW016 BKN063 05/03 Q1012"},{"id":"LZPP","loc":{"long":17.833333333333,"lat":48.616666666667},"place":{"name":"piestany","state":"","country":"sk","pretty_name":{"city":"Piestany|Pieљ?any","region":"-","country":"Slovakia"}},"profile":{"tz":"Europe/Bratislava","elevM":161,"elevFT":528},"obTimestamp":1419301800,"obDateTime":"2014-12-23T03:30:00+01:00","ob":{"timestamp":1419301800,"dateTimeISO":"2014-12-23T03:30:00+01:00","tempC":9,"tempF":48,"dewpointC":4,"dewpointF":39,"humidity":71,"pressureMB":1018,"pressureIN":30.06,"spressureMB":998,"spressureIN":29.47,"altimeterMB":null,"altimeterIN":null,"windKTS":6,"windKPH":11,"windMPH":7,"windSpeedKTS":6,"windSpeedKPH":11,"windSpeedMPH":7,"windDirDEG":260,"windDir":"W","windGustKTS":null,"windGustKPH":null,"windGustMPH":null,"flightRule":"LIFR","visibilityKM":null,"visibilityMI":null,"weather":"Mostly Clear","weatherShort":"Mostly Clear","weatherCoded":"::FW","weatherPrimary":"Mostly Clear","weatherPrimaryCoded":"::FW","cloudsCoded":"FW","icon":"pcloudyn.png","heatindexC":9,"heatindexF":48,"windchillC":9,"windchillF":48,"feelslikeC":9,"feelslikeF":48,"isDay":false,"sunrise":1419316757,"sunriseISO":"2014-12-23T07:39:17+01:00","sunset":1419346592,"sunsetISO":"2014-12-23T15:56:32+01:00","snowDepthCM":null,"snowDepthIN":null,"precipMM":null,"precipIN":null,"solradWM2":null,"sky":19,"light":0},"raw":"LZPP 230230Z AUTO 26006KT 220V310 9999 BKN110/// OVC130/// 09/04 Q1018"}]}