{"success":true,"error":null,"response":[{"id":"LZKZ","loc":{"long":21.233333333333,"lat":48.666666666667},"place":{"name":"kosice barca","state":"","country":"sk","pretty_name":{"city":"Kosice|Po?ov","region":"-","country":"Slovakia"}},"profile":{"tz":"Europe/Bratislava","elevM":232,"elevFT":761},"obTimestamp":1417804200,"obDateTime":"2014-12-05T19:30:00+01:00","ob":{"timestamp":1417804200,"dateTimeISO":"2014-12-05T19:30:00+01:00","tempC":2,"tempF":36,"dewpointC":1,"dewpointF":34,"humidity":93,"pressureMB":1020,"pressureIN":30.12,"spressureMB":991,"spressureIN":29.26,"altimeterMB":null,"altimeterIN":null,"windKTS":3,"windKPH":6,"windMPH":3,"windSpeedKTS":3,"windSpeedKPH":6,"windSpeedMPH":3,"windDirDEG":40,"windDir":"NE","windGustKTS":null,"windGustKPH":null,"windGustMPH":null,"flightRule":"LIFR","visibilityKM":11.265408,"visibilityMI":7,"weather":"Mostly Clear","weatherShort":"Mostly Clear","weatherCoded":"::FW","weatherPrimary":"Mostly Clear","weatherPrimaryCoded":"::FW","cloudsCoded":"FW","icon":"pcloudyn.png","heatindexC":2,"heatindexF":36,"windchillC":1,"windchillF":34,"feelslikeC":1,"feelslikeF":34,"isDay":false,"sunrise":1417759892,"sunriseISO":"2014-12-05T07:11:32+01:00","sunset":1417790405,"sunsetISO":"2014-12-05T15:40:05+01:00","snowDepthCM":null,"snowDepthIN":null,"precipMM":null,"precipIN":null,"solradWM2":null,"sky":19,"light":0},"raw":"LZKZ 051830Z 04003KT CAVOK 02/01 Q1020"},{"id":"LZIB","loc":{"long":17.216666666667,"lat":48.166666666667},"place":{"name":"bratislava ivank","state":"","country":"sk","pretty_name":{"city":"Bratislava|Bratislava - Vajnory","region":"-","country":"Slovakia"}},"profile":{"tz":"Europe/Bratislava","elevM":134,"elevFT":440},"obTimestamp":1417804200,"obDateTime":"2014-12-05T19:30:00+01:00","ob":{"timestamp":1417804200,"dateTimeISO":"2014-12-05T19:30:00+01:00","tempC":6,"tempF":43,"dewpointC":5,"dewpointF":41,"humidity":93,"pressureMB":1019,"pressureIN":30.09,"spressureMB":1002,"spressureIN":29.59,"altimeterMB":null,"altimeterIN":null,"windKTS":3,"windKPH":6,"windMPH":3,"windSpeedKTS":3,"windSpeedKPH":6,"windSpeedMPH":3,"windDirDEG":60,"windDir":"ENE","windGustKTS":null,"windGustKPH":null,"windGustMPH":null,"flightRule":"MVFR","visibilityKM":8,"visibilityMI":4.97,"weather":"Cloudy with Light Rain","weatherShort":"Light Rain","weatherCoded":":L:R,::OV","weatherPrimary":"Light Rain","weatherPrimaryCoded":":L:R","cloudsCoded":"OV","icon":"rainn.png","heatindexC":6,"heatindexF":43,"windchillC":6,"windchillF":43,"feelslikeC":6,"feelslikeF":43,"isDay":false,"sunrise":1417760735,"sunriseISO":"2014-12-05T07:25:35+01:00","sunset":1417791490,"sunsetISO":"2014-12-05T15:58:10+01:00","snowDepthCM":null,"snowDepthIN":null,"precipMM":null,"precipIN":null,"solradWM2":null,"light":0,"sky":100},"raw":"LZIB 051830Z 06003KT 8000 -RA FEW010 OVC020 06/05 Q1019 NOSIG"},{"id":"LZSL","loc":{"long":19.133333333333,"lat":48.633333333333},"place":{"name":"sliac","state":"","country":"sk","pretty_name":{"city":"Sliac|Hronsek","region":"-","country":"Slovakia"}},"profile":{"tz":"Europe/Bratislava","elevM":313,"elevFT":1027},"obTimestamp":1417804200,"obDateTime":"2014-12-05T19:30:00+01:00","ob":{"timestamp":1417804200,"dateTimeISO":"2014-12-05T19:30:00+01:00","tempC":2,"tempF":36,"dewpointC":1,"dewpointF":34,"humidity":93,"pressureMB":1019,"pressureIN":30.09,"spressureMB":980,"spressureIN":28.94,"altimeterMB":null,"altimeterIN":null,"windKTS":1,"windKPH":2,"windMPH":1,"windSpeedKTS":1,"windSpeedKPH":2,"windSpeedMPH":1,"windDirDEG":0,"windDir":"N","windGustKTS":null,"windGustKPH":null,"windGustMPH":null,"flightRule":"LIFR","visibilityKM":3,"visibilityMI":1.86,"weather":"Mostly Clear with Mist and Fog","weatherShort":"Mist and Fog","weatherCoded":"::BR,::FW","weatherPrimary":"Mist and Fog","weatherPrimaryCoded":"::BR","cloudsCoded":"FW","icon":"fogn.png","heatindexC":2,"heatindexF":36,"windchillC":2,"windchillF":36,"feelslikeC":2,"feelslikeF":36,"isDay":false,"sunrise":1417760388,"sunriseISO":"2014-12-05T07:19:48+01:00","sunset":1417790917,"sunsetISO":"2014-12-05T15:48:37+01:00","snowDepthCM":null,"snowDepthIN":null,"precipMM":null,"precipIN":null,"solradWM2":null,"light":0,"sky":19},"raw":"LZSL 051830Z VRB01KT 3000 BR FEW001 02/01 Q1019"},{"id":"LZZI","loc":{"long":18.616666666667,"lat":49.233333333333},"place":{"name":"zilina","state":"","country":"sk","pretty_name":{"city":"Zilina|Ve?kб Koteљovб","region":"ZI","country":"Slovenia"}},"profile":{"tz":"Europe/Bratislava","elevM":311,"elevFT":1020},"obTimestamp":1417804200,"obDateTime":"2014-12-05T19:30:00+01:00","ob":{"timestamp":1417804200,"dateTimeISO":"2014-12-05T19:30:00+01:00","tempC":4,"tempF":39,"dewpointC":4,"dewpointF":39,"humidity":100,"pressureMB":1019,"pressureIN":30.09,"spressureMB":981,"spressureIN":28.97,"altimeterMB":null,"altimeterIN":null,"windKTS":2,"windKPH":4,"windMPH":2,"windSpeedKTS":2,"windSpeedKPH":4,"windSpeedMPH":2,"windDirDEG":0,"windDir":"N","windGustKTS":null,"windGustKPH":null,"windGustMPH":null,"flightRule":"LIFR","visibilityKM":6,"visibilityMI":3.73,"weather":"Mostly Cloudy","weatherShort":"Mostly Cloudy","weatherCoded":"::BK","weatherPrimary":"Mostly Cloudy","weatherPrimaryCoded":"::BK","cloudsCoded":"BK","icon":"mcloudyn.png","heatindexC":4,"heatindexF":39,"windchillC":4,"windchillF":39,"feelslikeC":4,"feelslikeF":39,"isDay":false,"sunrise":1417760662,"sunriseISO":"2014-12-05T07:24:22+01:00","sunset":1417790891,"sunsetISO":"2014-12-05T15:48:11+01:00","snowDepthCM":null,"snowDepthIN":null,"precipMM":null,"precipIN":null,"solradWM2":null,"light":0,"sky":81},"raw":"LZZI 051830Z VRB02KT 6000 FEW032 BKN092 04/04 Q1019"},{"id":"LZTT","loc":{"long":20.25,"lat":49.066666666667},"place":{"name":"poprad/tatry","state":"","country":"sk","pretty_name":{"city":"Poprad|Spiљskб Teplica","region":"-","country":"Slovakia"}},"profile":{"tz":"Europe/Bratislava","elevM":707,"elevFT":2320},"obTimestamp":1417804200,"obDateTime":"2014-12-05T19:30:00+01:00","ob":{"timestamp":1417804200,"dateTimeISO":"2014-12-05T19:30:00+01:00","tempC":-2,"tempF":28,"dewpointC":-2,"dewpointF":28,"humidity":100,"pressureMB":1019,"pressureIN":30.09,"spressureMB":933,"spressureIN":27.55,"altimeterMB":null,"altimeterIN":null,"windKTS":4,"windKPH":7,"windMPH":5,"windSpeedKTS":4,"windSpeedKPH":7,"windSpeedMPH":5,"windDirDEG":300,"windDir":"WNW","windGustKTS":null,"windGustKPH":null,"windGustMPH":null,"flightRule":"LIFR","visibilityKM":6,"visibilityMI":3.73,"weather":"Mostly Clear","weatherShort":"Mostly Clear","weatherCoded":"::FW","weatherPrimary":"Mostly Clear","weatherPrimaryCoded":"::FW","cloudsCoded":"FW","icon":"pcloudyn.png","heatindexC":-2,"heatindexF":28,"windchillC":-6,"windchillF":22,"feelslikeC":-6,"feelslikeF":22,"isDay":false,"sunrise":1417760228,"sunriseISO":"2014-12-05T07:17:08+01:00","sunset":1417790541,"sunsetISO":"2014-12-05T15:42:21+01:00","snowDepthCM":null,"snowDepthIN":null,"precipMM":null,"precipIN":null,"solradWM2":null,"light":0,"sky":19},"raw":"LZTT 051830Z 30004KT 6000 FEW002 M02/M02 Q1019"},{"id":"LZPP","loc":{"long":17.833333333333,"lat":48.616666666667},"place":{"name":"piestany","state":"","country":"sk","pretty_name":{"city":"Piestany|Pieљ?any","region":"-","country":"Slovakia"}},"profile":{"tz":"Europe/Bratislava","elevM":161,"elevFT":528},"obTimestamp":1417804200,"obDateTime":"2014-12-05T19:30:00+01:00","ob":{"timestamp":1417804200,"dateTimeISO":"2014-12-05T19:30:00+01:00","tempC":8,"tempF":46,"dewpointC":3,"dewpointF":37,"humidity":71,"pressureMB":1019,"pressureIN":30.09,"spressureMB":999,"spressureIN":29.5,"altimeterMB":null,"altimeterIN":null,"windKTS":3,"windKPH":6,"windMPH":3,"windSpeedKTS":3,"windSpeedKPH":6,"windSpeedMPH":3,"windDirDEG":150,"windDir":"SSE","windGustKTS":null,"windGustKPH":null,"windGustMPH":null,"flightRule":"MVFR","visibilityKM":null,"visibilityMI":null,"weather":"Cloudy","weatherShort":"Cloudy","weatherCoded":"::OV","weatherPrimary":"Cloudy","weatherPrimaryCoded":"::OV","cloudsCoded":"OV","icon":"cloudyn.png","heatindexC":8,"heatindexF":46,"windchillC":8,"windchillF":46,"feelslikeC":8,"feelslikeF":46,"isDay":false,"sunrise":1417760696,"sunriseISO":"2014-12-05T07:24:56+01:00","sunset":1417791233,"sunsetISO":"2014-12-05T15:53:53+01:00","snowDepthCM":null,"snowDepthIN":null,"precipMM":null,"precipIN":null,"solradWM2":null,"light":0,"sky":100},"raw":"LZPP 051830Z 15003KT 110V180 9999 OVC030 08/03 Q1019"}]}