{"success":true,"error":null,"response":[{"id":"GFLL","loc":{"long":-13.183333333333,"lat":8.6166666666667},"place":{"name":"freetown/lungi","state":"","country":"sl","pretty_name":{"city":"Freetown|Kambia","region":"N","country":"Sierra Leone"}},"profile":{"tz":"Africa/Freetown","elevM":27,"elevFT":89},"obTimestamp":1417802400,"obDateTime":"2014-12-05T18:00:00+00:00","ob":{"timestamp":1417802400,"dateTimeISO":"2014-12-05T18:00:00+00:00","tempC":29,"tempF":84,"dewpointC":24,"dewpointF":75,"humidity":74,"pressureMB":1009,"pressureIN":29.8,"spressureMB":1006,"spressureIN":29.71,"altimeterMB":null,"altimeterIN":null,"windKTS":4,"windKPH":7,"windMPH":5,"windSpeedKTS":4,"windSpeedKPH":7,"windSpeedMPH":5,"windDirDEG":270,"windDir":"W","windGustKTS":null,"windGustKPH":null,"windGustMPH":null,"flightRule":"LIFR","visibilityKM":null,"visibilityMI":null,"weather":"Partly Cloudy","weatherShort":"Partly Cloudy","weatherCoded":"::SC","weatherPrimary":"Partly Cloudy","weatherPrimaryCoded":"::SC","cloudsCoded":"SC","icon":"pcloudy.png","heatindexC":33,"heatindexF":92,"windchillC":29,"windchillF":84,"feelslikeC":33,"feelslikeF":92,"isDay":true,"sunrise":1417762449,"sunriseISO":"2014-12-05T06:54:09+00:00","sunset":1417804375,"sunsetISO":"2014-12-05T18:32:55+00:00","snowDepthCM":null,"snowDepthIN":null,"precipMM":null,"precipIN":null,"solradWM2":null,"light":7,"sky":44},"raw":"GFLL 051800Z 27004KT 9999 SCT015 FEW027CB 29/24 Q1009 RMK CB-NE"}]}