{"success":true,"error":null,"response":[{"id":"SMZO","loc":{"long":-55.183333333333,"lat":5.8166666666667},"place":{"name":"paramaribo","state":"","country":"sr","pretty_name":{"city":"Zorg En Hoop|Meerzorg","region":"PM","country":"Suriname"}},"profile":{"tz":"America/Paramaribo","elevM":10,"elevFT":33},"obTimestamp":1417802400,"obDateTime":"2014-12-05T15:00:00-03:00","ob":{"timestamp":1417802400,"dateTimeISO":"2014-12-05T15:00:00-03:00","tempC":30,"tempF":86,"dewpointC":23,"dewpointF":73,"humidity":66,"pressureMB":1009,"pressureIN":29.8,"spressureMB":1008,"spressureIN":29.77,"altimeterMB":null,"altimeterIN":null,"windKTS":15,"windKPH":28,"windMPH":17,"windSpeedKTS":15,"windSpeedKPH":28,"windSpeedMPH":17,"windDirDEG":100,"windDir":"E","windGustKTS":null,"windGustKPH":null,"windGustMPH":null,"flightRule":"LIFR","visibilityKM":8,"visibilityMI":4.97,"weather":"Partly Cloudy with Showers Nearby","weatherShort":"Showers Nearby","weatherCoded":"VC::RW,::RW,::SC","weatherPrimary":"Showers Nearby","weatherPrimaryCoded":"VC::RW","cloudsCoded":"SC","icon":"pcloudyrw.png","heatindexC":34,"heatindexF":93,"windchillC":30,"windchillF":86,"feelslikeC":34,"feelslikeF":93,"isDay":true,"sunrise":1417772255,"sunriseISO":"2014-12-05T06:37:35-03:00","sunset":1417814741,"sunsetISO":"2014-12-05T18:25:41-03:00","snowDepthCM":null,"snowDepthIN":null,"precipMM":null,"precipIN":null,"solradWM2":null,"light":55,"sky":44},"raw":"SMZO 051800Z 10015KT 8000 VCSH SCT018CB SCT025 30/23 Q1009 TEMPO 5000 SHRA"},{"id":"SMJP","loc":{"long":-55.166666666667,"lat":5.45},"place":{"name":"johan a. pengel","state":"","country":"sr","pretty_name":{"city":"Johan A. Pengel|Zanderij","region":"PA","country":"Suriname"}},"profile":{"tz":"America/Paramaribo","elevM":16,"elevFT":52},"obTimestamp":1417804560,"obDateTime":"2014-12-05T15:36:00-03:00","ob":{"timestamp":1417804560,"dateTimeISO":"2014-12-05T15:36:00-03:00","tempC":24,"tempF":75,"dewpointC":23,"dewpointF":73,"humidity":94,"pressureMB":1010,"pressureIN":29.83,"spressureMB":1008,"spressureIN":29.77,"altimeterMB":null,"altimeterIN":null,"windKTS":12,"windKPH":22,"windMPH":14,"windSpeedKTS":12,"windSpeedKPH":22,"windSpeedMPH":14,"windDirDEG":70,"windDir":"ENE","windGustKTS":null,"windGustKPH":null,"windGustMPH":null,"flightRule":"MVFR","visibilityKM":3,"visibilityMI":1.86,"weather":"Mostly Cloudy with Thunderstorms","weatherShort":"Scattered Storms","weatherCoded":"::T,::BK","weatherPrimary":"Scattered Storms","weatherPrimaryCoded":"::T","cloudsCoded":"BK","icon":"tstorm.png","heatindexC":24,"heatindexF":75,"windchillC":24,"windchillF":75,"feelslikeC":24,"feelslikeF":75,"isDay":true,"sunrise":1417772214,"sunriseISO":"2014-12-05T06:36:54-03:00","sunset":1417814774,"sunsetISO":"2014-12-05T18:26:14-03:00","snowDepthCM":null,"snowDepthIN":null,"precipMM":null,"precipIN":null,"solradWM2":null,"light":34,"sky":81},"raw":"SMJP 051836Z 07012KT 3000 TSRA FEW012 FEW015CB BKN025 24/23 Q1010 NOSIG"}]}