{"success":true,"error":null,"response":[{"id":"FPST","loc":{"long":6.7166666666667,"lat":0.36666666666667},"place":{"name":"sao tome il/sala","state":"","country":"st","pretty_name":{"city":"Sao Tome Il|Nazarй","region":"S","country":"Sao Tome and Principe"}},"profile":{"tz":"Africa/Sao_Tome","elevM":13,"elevFT":43},"obTimestamp":1417802400,"obDateTime":"2014-12-05T18:00:00+00:00","ob":{"timestamp":1417802400,"dateTimeISO":"2014-12-05T18:00:00+00:00","tempC":27,"tempF":81,"dewpointC":24,"dewpointF":75,"humidity":84,"pressureMB":1011,"pressureIN":29.85,"spressureMB":1010,"spressureIN":29.83,"altimeterMB":null,"altimeterIN":null,"windKTS":6,"windKPH":11,"windMPH":7,"windSpeedKTS":6,"windSpeedKPH":11,"windSpeedMPH":7,"windDirDEG":330,"windDir":"NNW","windGustKTS":null,"windGustKPH":null,"windGustMPH":null,"flightRule":"LIFR","visibilityKM":null,"visibilityMI":null,"weather":"Mostly Cloudy","weatherShort":"Mostly Cloudy","weatherCoded":"::BK","weatherPrimary":"Mostly Cloudy","weatherPrimaryCoded":"::BK","cloudsCoded":"BK","icon":"mcloudyn.png","heatindexC":31,"heatindexF":87,"windchillC":27,"windchillF":81,"feelslikeC":31,"feelslikeF":87,"isDay":false,"sunrise":1417756849,"sunriseISO":"2014-12-05T05:20:49+00:00","sunset":1417800420,"sunsetISO":"2014-12-05T17:27:00+00:00","snowDepthCM":null,"snowDepthIN":null,"precipMM":null,"precipIN":null,"solradWM2":null,"light":0,"sky":81},"raw":"FPST 051800Z 33006KT 9999 FEW017CB BKN033 27/24 Q1011 NOSIG"}]}