{"success":true,"error":null,"response":[{"id":"MSLP","loc":{"long":-89.05,"lat":13.433333333333},"place":{"name":"el salvador int","state":"","country":"sv","pretty_name":{"city":"El Salvador|San Francisco Amatepe","region":"PZ","country":"El Salvador"}},"profile":{"tz":"America/El_Salvador","elevM":25,"elevFT":82},"obTimestamp":1417801800,"obDateTime":"2014-12-05T11:50:00-06:00","ob":{"timestamp":1417801800,"dateTimeISO":"2014-12-05T11:50:00-06:00","tempC":34,"tempF":93,"dewpointC":20,"dewpointF":68,"humidity":44,"pressureMB":1011,"pressureIN":29.85,"spressureMB":1008,"spressureIN":29.77,"altimeterMB":1011,"altimeterIN":29.85,"windKTS":10,"windKPH":19,"windMPH":12,"windSpeedKTS":10,"windSpeedKPH":19,"windSpeedMPH":12,"windDirDEG":10,"windDir":"N","windGustKTS":null,"windGustKPH":null,"windGustMPH":null,"flightRule":"LIFR","visibilityKM":11.265408,"visibilityMI":7,"weather":"Mostly Sunny","weatherShort":"Mostly Sunny","weatherCoded":"::FW","weatherPrimary":"Mostly Sunny","weatherPrimaryCoded":"::FW","cloudsCoded":"FW","icon":"pcloudy.png","heatindexC":36,"heatindexF":97,"windchillC":34,"windchillF":93,"feelslikeC":36,"feelslikeF":97,"isDay":true,"sunrise":1417781166,"sunriseISO":"2014-12-05T06:06:06-06:00","sunset":1417822097,"sunsetISO":"2014-12-05T17:28:17-06:00","snowDepthCM":null,"snowDepthIN":null,"precipMM":null,"precipIN":null,"solradWM2":null,"sky":19,"light":81},"raw":"MSLP 051750Z 01010KT 330V050 CAVOK 34/20 Q1011 A2986"},{"id":"MSSS","loc":{"long":-89.116666666667,"lat":13.7},"place":{"name":"ilopango/s.salv","state":"","country":"sv","pretty_name":{"city":"Ilopango","region":"SS","country":"El Salvador"}},"profile":{"tz":"America/El_Salvador","elevM":616,"elevFT":2021},"obTimestamp":1417801800,"obDateTime":"2014-12-05T11:50:00-06:00","ob":{"timestamp":1417801800,"dateTimeISO":"2014-12-05T11:50:00-06:00","tempC":29,"tempF":84,"dewpointC":20,"dewpointF":68,"humidity":58,"pressureMB":1013,"pressureIN":29.91,"spressureMB":945,"spressureIN":27.91,"altimeterMB":1017,"altimeterIN":30.03,"windKTS":12,"windKPH":22,"windMPH":14,"windSpeedKTS":12,"windSpeedKPH":22,"windSpeedMPH":14,"windDirDEG":350,"windDir":"N","windGustKTS":null,"windGustKPH":null,"windGustMPH":null,"flightRule":"LIFR","visibilityKM":11.265408,"visibilityMI":7,"weather":"Mostly Sunny","weatherShort":"Mostly Sunny","weatherCoded":"::FW","weatherPrimary":"Mostly Sunny","weatherPrimaryCoded":"::FW","cloudsCoded":"FW","icon":"pcloudy.png","heatindexC":31,"heatindexF":87,"windchillC":29,"windchillF":84,"feelslikeC":31,"feelslikeF":87,"isDay":true,"sunrise":1417781210,"sunriseISO":"2014-12-05T06:06:50-06:00","sunset":1417822085,"sunsetISO":"2014-12-05T17:28:05-06:00","snowDepthCM":null,"snowDepthIN":null,"precipMM":null,"precipIN":null,"solradWM2":null,"sky":19,"light":81},"raw":"MSSS 051750Z 35012KT CAVOK 29/20 Q1016 A3002"},{"id":"MSSA","loc":{"long":-89.566666666667,"lat":13.966666666667},"place":{"name":"santa ana","state":"","country":"sv","pretty_name":{"city":"Santa Ana","region":"SA","country":"El Salvador"}},"profile":{"tz":"America/El_Salvador","elevM":725,"elevFT":2379},"obTimestamp":1417801800,"obDateTime":"2014-12-05T11:50:00-06:00","ob":{"timestamp":1417801800,"dateTimeISO":"2014-12-05T11:50:00-06:00","tempC":30,"tempF":86,"dewpointC":18,"dewpointF":64,"humidity":49,"pressureMB":1014,"pressureIN":29.94,"spressureMB":935,"spressureIN":27.61,"altimeterMB":1020,"altimeterIN":30.12,"windKTS":4,"windKPH":7,"windMPH":5,"windSpeedKTS":4,"windSpeedKPH":7,"windSpeedMPH":5,"windDirDEG":310,"windDir":"NW","windGustKTS":null,"windGustKPH":null,"windGustMPH":null,"flightRule":"LIFR","visibilityKM":11.265408,"visibilityMI":7,"weather":"Mostly Sunny","weatherShort":"Mostly Sunny","weatherCoded":"::FW","weatherPrimary":"Mostly Sunny","weatherPrimaryCoded":"::FW","cloudsCoded":"FW","icon":"pcloudy.png","heatindexC":31,"heatindexF":88,"windchillC":30,"windchillF":86,"feelslikeC":31,"feelslikeF":88,"isDay":true,"sunrise":1417781346,"sunriseISO":"2014-12-05T06:09:06-06:00","sunset":1417822165,"sunsetISO":"2014-12-05T17:29:25-06:00","snowDepthCM":null,"snowDepthIN":null,"precipMM":null,"precipIN":null,"solradWM2":null,"sky":19,"light":81},"raw":"MSSA 051750Z 31004KT CAVOK 30/18 Q1020 A3013"},{"id":"MSAC","loc":{"long":-89.833333333333,"lat":13.566666666667},"place":{"name":"acajutla/sonson","state":"","country":"sv","pretty_name":{"city":"Acajutla","region":"SO","country":"El Salvador"}},"profile":{"tz":"America/El_Salvador","elevM":15,"elevFT":49},"obTimestamp":1417801800,"obDateTime":"2014-12-05T11:50:00-06:00","ob":{"timestamp":1417801800,"dateTimeISO":"2014-12-05T11:50:00-06:00","tempC":31,"tempF":88,"dewpointC":24,"dewpointF":75,"humidity":66,"pressureMB":1011,"pressureIN":29.85,"spressureMB":1009,"spressureIN":29.8,"altimeterMB":1011,"altimeterIN":29.85,"windKTS":7,"windKPH":13,"windMPH":8,"windSpeedKTS":7,"windSpeedKPH":13,"windSpeedMPH":8,"windDirDEG":200,"windDir":"SSW","windGustKTS":null,"windGustKPH":null,"windGustMPH":null,"flightRule":"LIFR","visibilityKM":11.265408,"visibilityMI":7,"weather":"Mostly Sunny","weatherShort":"Mostly Sunny","weatherCoded":"::FW","weatherPrimary":"Mostly Sunny","weatherPrimaryCoded":"::FW","cloudsCoded":"FW","icon":"pcloudy.png","heatindexC":37,"heatindexF":98,"windchillC":31,"windchillF":88,"feelslikeC":37,"feelslikeF":98,"isDay":true,"sunrise":1417781368,"sunriseISO":"2014-12-05T06:09:28-06:00","sunset":1417822271,"sunsetISO":"2014-12-05T17:31:11-06:00","snowDepthCM":null,"snowDepthIN":null,"precipMM":null,"precipIN":null,"solradWM2":null,"sky":19,"light":81},"raw":"MSAC 051750Z 20007KT CAVOK 31/24 Q1010 A2985"},{"id":"MSSM","loc":{"long":-88.116666666667,"lat":13.433333333333},"place":{"name":"san miguel","state":"","country":"sv","pretty_name":{"city":"San Miguel|El Jute","region":"SM","country":"El Salvador"}},"profile":{"tz":"America/El_Salvador","elevM":80,"elevFT":262},"obTimestamp":1417801800,"obDateTime":"2014-12-05T11:50:00-06:00","ob":{"timestamp":1417801800,"dateTimeISO":"2014-12-05T11:50:00-06:00","tempC":33,"tempF":91,"dewpointC":18,"dewpointF":64,"humidity":41,"pressureMB":1010,"pressureIN":29.83,"spressureMB":1001,"spressureIN":29.56,"altimeterMB":1011,"altimeterIN":29.85,"windKTS":4,"windKPH":7,"windMPH":5,"windSpeedKTS":4,"windSpeedKPH":7,"windSpeedMPH":5,"windDirDEG":350,"windDir":"N","windGustKTS":null,"windGustKPH":null,"windGustMPH":null,"flightRule":"LIFR","visibilityKM":11.265408,"visibilityMI":7,"weather":"Mostly Sunny","weatherShort":"Mostly Sunny","weatherCoded":"::FW","weatherPrimary":"Mostly Sunny","weatherPrimaryCoded":"::FW","cloudsCoded":"FW","icon":"pcloudy.png","heatindexC":34,"heatindexF":93,"windchillC":33,"windchillF":91,"feelslikeC":34,"feelslikeF":93,"isDay":true,"sunrise":1417780942,"sunriseISO":"2014-12-05T06:02:22-06:00","sunset":1417821873,"sunsetISO":"2014-12-05T17:24:33-06:00","snowDepthCM":null,"snowDepthIN":null,"precipMM":null,"precipIN":null,"solradWM2":null,"sky":19,"light":81},"raw":"MSSM 051750Z 35004KT CAVOK 33/18 Q1011 A2985"},{"id":"MSLU","loc":{"long":-87.883333333333,"lat":13.333333333333},"place":{"name":"la union","state":"","country":"sv","pretty_name":null},"profile":{"tz":"America/El_Salvador","elevM":5,"elevFT":16},"obTimestamp":1417801800,"obDateTime":"2014-12-05T11:50:00-06:00","ob":{"timestamp":1417801800,"dateTimeISO":"2014-12-05T11:50:00-06:00","tempC":31,"tempF":88,"dewpointC":17,"dewpointF":63,"humidity":43,"pressureMB":1011,"pressureIN":29.85,"spressureMB":1010,"spressureIN":29.83,"altimeterMB":1011,"altimeterIN":29.85,"windKTS":0,"windKPH":0,"windMPH":0,"windSpeedKTS":0,"windSpeedKPH":0,"windSpeedMPH":0,"windDirDEG":0,"windDir":"N","windGustKTS":null,"windGustKPH":null,"windGustMPH":null,"flightRule":"LIFR","visibilityKM":11.265408,"visibilityMI":7,"weather":"Mostly Sunny","weatherShort":"Mostly Sunny","weatherCoded":"::FW","weatherPrimary":"Mostly Sunny","weatherPrimaryCoded":"::FW","cloudsCoded":"FW","icon":"pcloudy.png","heatindexC":32,"heatindexF":89,"windchillC":31,"windchillF":88,"feelslikeC":32,"feelslikeF":89,"isDay":true,"sunrise":1417780875,"sunriseISO":"2014-12-05T06:01:15-06:00","sunset":1417821828,"sunsetISO":"2014-12-05T17:23:48-06:00","snowDepthCM":null,"snowDepthIN":null,"precipMM":null,"precipIN":null,"solradWM2":null,"sky":19,"light":81},"raw":"MSLU 051750Z 00000KT CAVOK 31/17 Q1011 A2985"}]}