{"success":true,"error":null,"response":[{"id":"OSLK","loc":{"long":35.95,"lat":35.4},"place":{"name":"latakia","state":"","country":"sy","pretty_name":{"city":"Bassel Al-Assad|Bust?n Sh?kir ‘Ajal","region":"LA","country":"Syria"}},"profile":{"tz":"Asia/Damascus","elevM":7,"elevFT":23},"obTimestamp":1417802400,"obDateTime":"2014-12-05T20:00:00+02:00","ob":{"timestamp":1417802400,"dateTimeISO":"2014-12-05T20:00:00+02:00","tempC":13,"tempF":55,"dewpointC":9,"dewpointF":48,"humidity":77,"pressureMB":1018,"pressureIN":30.06,"spressureMB":1017,"spressureIN":30.03,"altimeterMB":null,"altimeterIN":null,"windKTS":4,"windKPH":7,"windMPH":5,"windSpeedKTS":4,"windSpeedKPH":7,"windSpeedMPH":5,"windDirDEG":350,"windDir":"N","windGustKTS":null,"windGustKPH":null,"windGustMPH":null,"flightRule":"LIFR","visibilityKM":11.265408,"visibilityMI":7,"weather":"Mostly Clear","weatherShort":"Mostly Clear","weatherCoded":"::FW","weatherPrimary":"Mostly Clear","weatherPrimaryCoded":"::FW","cloudsCoded":"FW","icon":"pcloudyn.png","heatindexC":13,"heatindexF":55,"windchillC":13,"windchillF":55,"feelslikeC":13,"feelslikeF":55,"isDay":false,"sunrise":1417753825,"sunriseISO":"2014-12-05T06:30:25+02:00","sunset":1417789404,"sunsetISO":"2014-12-05T16:23:24+02:00","snowDepthCM":null,"snowDepthIN":null,"precipMM":null,"precipIN":null,"solradWM2":null,"sky":19,"light":0},"raw":"OSLK 051800Z 35004KT CAVOK 13/09 Q1018"},{"id":"OSDI","loc":{"long":36.516666666667,"lat":33.416666666667},"place":{"name":"damascus (civ/mi","state":"","country":"sy","pretty_name":{"city":"Damascus|Judaydat al Kh???","region":"DI","country":"Syria"}},"profile":{"tz":"Asia/Damascus","elevM":605,"elevFT":1985},"obTimestamp":1417802400,"obDateTime":"2014-12-05T20:00:00+02:00","ob":{"timestamp":1417802400,"dateTimeISO":"2014-12-05T20:00:00+02:00","tempC":12,"tempF":54,"dewpointC":7,"dewpointF":45,"humidity":72,"pressureMB":1020,"pressureIN":30.12,"spressureMB":949,"spressureIN":28.02,"altimeterMB":null,"altimeterIN":null,"windKTS":12,"windKPH":22,"windMPH":14,"windSpeedKTS":12,"windSpeedKPH":22,"windSpeedMPH":14,"windDirDEG":20,"windDir":"NNE","windGustKTS":null,"windGustKPH":null,"windGustMPH":null,"flightRule":"LIFR","visibilityKM":11.265408,"visibilityMI":7,"weather":"Mostly Clear","weatherShort":"Mostly Clear","weatherCoded":"::FW","weatherPrimary":"Mostly Clear","weatherPrimaryCoded":"::FW","cloudsCoded":"FW","icon":"pcloudyn.png","heatindexC":12,"heatindexF":54,"windchillC":12,"windchillF":54,"feelslikeC":12,"feelslikeF":54,"isDay":false,"sunrise":1417753396,"sunriseISO":"2014-12-05T06:23:16+02:00","sunset":1417789561,"sunsetISO":"2014-12-05T16:26:01+02:00","snowDepthCM":null,"snowDepthIN":null,"precipMM":null,"precipIN":null,"solradWM2":null,"sky":19,"light":0},"raw":"OSDI 051800Z 02012KT CAVOK 12/07 Q1020"}]}