{"success":true,"error":null,"response":[{"id":"FTTD","loc":{"long":16.066666666667,"lat":8.6166666666667},"place":{"name":"moundou","state":"","country":"td","pretty_name":{"city":"Moundou","region":"LC","country":"Chad"}},"profile":{"tz":"Africa/Ndjamena","elevM":422,"elevFT":1385},"obTimestamp":1417791600,"obDateTime":"2014-12-05T16:00:00+01:00","ob":{"timestamp":1417791600,"dateTimeISO":"2014-12-05T16:00:00+01:00","tempC":35,"tempF":95,"dewpointC":6,"dewpointF":43,"humidity":16,"pressureMB":1009,"pressureIN":29.8,"spressureMB":963,"spressureIN":28.44,"altimeterMB":null,"altimeterIN":null,"windKTS":4,"windKPH":7,"windMPH":5,"windSpeedKTS":4,"windSpeedKPH":7,"windSpeedMPH":5,"windDirDEG":40,"windDir":"NE","windGustKTS":null,"windGustKPH":null,"windGustMPH":null,"flightRule":"LIFR","visibilityKM":11.265408,"visibilityMI":7,"weather":"Mostly Sunny","weatherShort":"Mostly Sunny","weatherCoded":"::FW","weatherPrimary":"Mostly Sunny","weatherPrimaryCoded":"::FW","cloudsCoded":"FW","icon":"pcloudy.png","heatindexC":35,"heatindexF":95,"windchillC":35,"windchillF":95,"feelslikeC":35,"feelslikeF":95,"isDay":true,"sunrise":1417755425,"sunriseISO":"2014-12-05T05:57:05+01:00","sunset":1417797352,"sunsetISO":"2014-12-05T17:35:52+01:00","snowDepthCM":null,"snowDepthIN":null,"precipMM":null,"precipIN":null,"solradWM2":null,"sky":19,"light":22},"raw":"FTTD 051500Z 04004KT CAVOK 35/06 Q1009"},{"id":"FTTJ","loc":{"long":15.016666666667,"lat":12.116666666667},"place":{"name":"ndjamena (civ/mi","state":"","country":"td","pretty_name":{"city":"N'Djamena|Mardan Noыm","region":"CB","country":"Chad"}},"profile":{"tz":"Africa/Ndjamena","elevM":295,"elevFT":968},"obTimestamp":1417802400,"obDateTime":"2014-12-05T19:00:00+01:00","ob":{"timestamp":1417802400,"dateTimeISO":"2014-12-05T19:00:00+01:00","tempC":29,"tempF":84,"dewpointC":8,"dewpointF":46,"humidity":27,"pressureMB":1011,"pressureIN":29.85,"spressureMB":978,"spressureIN":28.88,"altimeterMB":null,"altimeterIN":null,"windKTS":5,"windKPH":9,"windMPH":6,"windSpeedKTS":5,"windSpeedKPH":9,"windSpeedMPH":6,"windDirDEG":350,"windDir":"N","windGustKTS":null,"windGustKPH":null,"windGustMPH":null,"flightRule":"LIFR","visibilityKM":7,"visibilityMI":4.35,"weather":"Mostly Clear","weatherShort":"Mostly Clear","weatherCoded":"::FW","weatherPrimary":"Mostly Clear","weatherPrimaryCoded":"::FW","cloudsCoded":"FW","icon":"pcloudyn.png","heatindexC":29,"heatindexF":84,"windchillC":29,"windchillF":84,"feelslikeC":29,"feelslikeF":84,"isDay":false,"sunrise":1417756034,"sunriseISO":"2014-12-05T06:07:14+01:00","sunset":1417797248,"sunsetISO":"2014-12-05T17:34:08+01:00","snowDepthCM":null,"snowDepthIN":null,"precipMM":null,"precipIN":null,"solradWM2":null,"sky":19,"light":0},"raw":"FTTJ 051800Z 35005KT 7000 NSC 29/08 Q1011 NOSIG"},{"id":"FTTA","loc":{"long":18.366666666667,"lat":9.15},"place":{"name":"sarh (civ/mil)","state":"","country":"td","pretty_name":{"city":"Sarh","region":"MC","country":"Chad"}},"profile":{"tz":"Africa/Ndjamena","elevM":365,"elevFT":1198},"obTimestamp":1417802400,"obDateTime":"2014-12-05T19:00:00+01:00","ob":{"timestamp":1417802400,"dateTimeISO":"2014-12-05T19:00:00+01:00","tempC":28,"tempF":82,"dewpointC":15,"dewpointF":59,"humidity":45,"pressureMB":1011,"pressureIN":29.85,"spressureMB":970,"spressureIN":28.64,"altimeterMB":null,"altimeterIN":null,"windKTS":0,"windKPH":0,"windMPH":0,"windSpeedKTS":0,"windSpeedKPH":0,"windSpeedMPH":0,"windDirDEG":0,"windDir":"N","windGustKTS":null,"windGustKPH":null,"windGustMPH":null,"flightRule":"LIFR","visibilityKM":null,"visibilityMI":null,"weather":"Mostly Clear","weatherShort":"Mostly Clear","weatherCoded":"::FW","weatherPrimary":"Mostly Clear","weatherPrimaryCoded":"::FW","cloudsCoded":"FW","icon":"pcloudyn.png","heatindexC":28,"heatindexF":82,"windchillC":28,"windchillF":82,"feelslikeC":28,"feelslikeF":82,"isDay":false,"sunrise":1417754927,"sunriseISO":"2014-12-05T05:48:47+01:00","sunset":1417796746,"sunsetISO":"2014-12-05T17:25:46+01:00","snowDepthCM":null,"snowDepthIN":null,"precipMM":null,"precipIN":null,"solradWM2":null,"sky":19,"light":0},"raw":"FTTA 051800Z 00000KT CAV0K 28/15 Q1011"}]}