{"success":true,"error":null,"response":[{"id":"DXXX","loc":{"long":1.25,"lat":6.1666666666667},"place":{"name":"lome/tokoin (mil","state":"","country":"tg","pretty_name":{"city":"Lome|Station Mйtйo","region":"M","country":"Togo"}},"profile":{"tz":"Africa/Lome","elevM":25,"elevFT":82},"obTimestamp":1417802400,"obDateTime":"2014-12-05T18:00:00+00:00","ob":{"timestamp":1417802400,"dateTimeISO":"2014-12-05T18:00:00+00:00","tempC":28,"tempF":82,"dewpointC":25,"dewpointF":77,"humidity":84,"pressureMB":1011,"pressureIN":29.85,"spressureMB":1008,"spressureIN":29.77,"altimeterMB":null,"altimeterIN":null,"windKTS":7,"windKPH":13,"windMPH":8,"windSpeedKTS":7,"windSpeedKPH":13,"windSpeedMPH":8,"windDirDEG":200,"windDir":"SSW","windGustKTS":null,"windGustKPH":null,"windGustMPH":null,"flightRule":"LIFR","visibilityKM":null,"visibilityMI":null,"weather":"Mostly Clear","weatherShort":"Mostly Clear","weatherCoded":"::FW","weatherPrimary":"Mostly Clear","weatherPrimaryCoded":"::FW","cloudsCoded":"FW","icon":"pcloudyn.png","heatindexC":32,"heatindexF":90,"windchillC":28,"windchillF":82,"feelslikeC":32,"feelslikeF":90,"isDay":false,"sunrise":1417758738,"sunriseISO":"2014-12-05T05:52:18+00:00","sunset":1417801156,"sunsetISO":"2014-12-05T17:39:16+00:00","snowDepthCM":null,"snowDepthIN":null,"precipMM":null,"precipIN":null,"solradWM2":null,"light":0,"sky":19},"raw":"DXXX 051800Z 20007KT 160V220 9999 FEW013 28/25 Q1011 NOSIG"},{"id":"DXNG","loc":{"long":1.1,"lat":9.7666666666667},"place":{"name":"naimtougou(civ/m","state":"","country":"tg","pretty_name":{"city":"Naimtougou|Niamtougou|Kouka","region":"-","country":"Togo"}},"profile":{"tz":"Africa/Lome","elevM":343,"elevFT":1125},"obTimestamp":1417802400,"obDateTime":"2014-12-05T18:00:00+00:00","ob":{"timestamp":1417802400,"dateTimeISO":"2014-12-05T18:00:00+00:00","tempC":28,"tempF":82,"dewpointC":14,"dewpointF":57,"humidity":42,"pressureMB":1014,"pressureIN":29.94,"spressureMB":975,"spressureIN":28.79,"altimeterMB":null,"altimeterIN":null,"windKTS":1,"windKPH":2,"windMPH":1,"windSpeedKTS":1,"windSpeedKPH":2,"windSpeedMPH":1,"windDirDEG":0,"windDir":"N","windGustKTS":null,"windGustKPH":null,"windGustMPH":null,"flightRule":"LIFR","visibilityKM":null,"visibilityMI":null,"weather":"Mostly Clear","weatherShort":"Mostly Clear","weatherCoded":"::FW","weatherPrimary":"Mostly Clear","weatherPrimaryCoded":"::FW","cloudsCoded":"FW","icon":"pcloudyn.png","heatindexC":28,"heatindexF":82,"windchillC":28,"windchillF":82,"feelslikeC":28,"feelslikeF":82,"isDay":false,"sunrise":1417759136,"sunriseISO":"2014-12-05T05:58:56+00:00","sunset":1417800829,"sunsetISO":"2014-12-05T17:33:49+00:00","snowDepthCM":null,"snowDepthIN":null,"precipMM":null,"precipIN":null,"solradWM2":null,"light":0,"sky":19},"raw":"DXNG 051800Z VRB01KT 9999 FEW010 28/14 Q1014 NOSIG"}]}