{"success":true,"error":null,"response":[{"id":"UTDL","loc":{"long":69.7,"lat":40.216666666667},"place":{"name":"khudzhand","state":"","country":"tj","pretty_name":{"city":"Khudzhand|Chkalov","region":"-","country":"Tajikistan"}},"profile":{"tz":"Asia/Dushanbe","elevM":442,"elevFT":1450},"obTimestamp":1417804200,"obDateTime":"2014-12-05T23:30:00+05:00","ob":{"timestamp":1417804200,"dateTimeISO":"2014-12-05T23:30:00+05:00","tempC":2,"tempF":36,"dewpointC":-3,"dewpointF":27,"humidity":70,"pressureMB":1024,"pressureIN":30.24,"spressureMB":970,"spressureIN":28.64,"altimeterMB":null,"altimeterIN":null,"windKTS":12,"windKPH":22,"windMPH":13,"windSpeedKTS":12,"windSpeedKPH":22,"windSpeedMPH":13,"windDirDEG":90,"windDir":"E","windGustKTS":null,"windGustKPH":null,"windGustMPH":null,"flightRule":"LIFR","visibilityKM":null,"visibilityMI":null,"weather":"Partly Cloudy","weatherShort":"Partly Cloudy","weatherCoded":"::SC","weatherPrimary":"Partly Cloudy","weatherPrimaryCoded":"::SC","cloudsCoded":"SC","icon":"pcloudyn.png","heatindexC":2,"heatindexF":36,"windchillC":-3,"windchillF":27,"feelslikeC":-3,"feelslikeF":27,"isDay":false,"sunrise":1417746496,"sunriseISO":"2014-12-05T07:28:16+05:00","sunset":1417780522,"sunsetISO":"2014-12-05T16:55:22+05:00","snowDepthCM":null,"snowDepthIN":null,"precipMM":null,"precipIN":null,"solradWM2":null,"light":0,"sky":44},"raw":"UTDL 051830Z 09006MPS 9999 FEW100 SCT200 02/M03 Q1024 NOSIG RMK QFE728/0971 88CLRD70"},{"id":"UTDD","loc":{"long":68.816666666667,"lat":38.533333333333},"place":{"name":"dushanbe","state":"","country":"tj","pretty_name":{"city":"Dushanbe|Kazokon","region":"-","country":"Tajikistan"}},"profile":{"tz":"Asia/Dushanbe","elevM":803,"elevFT":2635},"obTimestamp":1417804200,"obDateTime":"2014-12-05T23:30:00+05:00","ob":{"timestamp":1417804200,"dateTimeISO":"2014-12-05T23:30:00+05:00","tempC":1,"tempF":34,"dewpointC":1,"dewpointF":34,"humidity":100,"pressureMB":1023,"pressureIN":30.21,"spressureMB":926,"spressureIN":27.34,"altimeterMB":null,"altimeterIN":null,"windKTS":0,"windKPH":0,"windMPH":0,"windSpeedKTS":0,"windSpeedKPH":0,"windSpeedMPH":0,"windDirDEG":0,"windDir":"N","windGustKTS":null,"windGustKPH":null,"windGustMPH":null,"flightRule":"LIFR","visibilityKM":0.05,"visibilityMI":0.03,"weather":"Mostly Cloudy with Fog","weatherShort":"Fog","weatherCoded":"::F,::BK","weatherPrimary":"Fog","weatherPrimaryCoded":"::F","cloudsCoded":"BK","icon":"fogn.png","heatindexC":1,"heatindexF":34,"windchillC":1,"windchillF":34,"feelslikeC":1,"feelslikeF":34,"isDay":false,"sunrise":1417746422,"sunriseISO":"2014-12-05T07:27:02+05:00","sunset":1417781020,"sunsetISO":"2014-12-05T17:03:40+05:00","snowDepthCM":null,"snowDepthIN":null,"precipMM":null,"precipIN":null,"solradWM2":null,"light":0,"sky":81},"raw":"UTDD 051830Z 00000MPS 0050 R09/0050V0300N FG VV001 01/01 Q1023 09CLRD70 NOSIG RMK QBB030 QFE699/0933"}]}