{"success":true,"error":null,"response":[{"id":"TTPP","loc":{"long":-61.35,"lat":10.583333333333},"place":{"name":"piarco int airpt","state":"","country":"tt","pretty_name":{"city":"Port of Spain|Arima","region":"-","country":"Trinidad and Tobago"}},"profile":{"tz":"America/Port_of_Spain","elevM":15,"elevFT":49},"obTimestamp":1417802400,"obDateTime":"2014-12-05T14:00:00-04:00","ob":{"timestamp":1417802400,"dateTimeISO":"2014-12-05T14:00:00-04:00","tempC":32,"tempF":90,"dewpointC":21,"dewpointF":70,"humidity":52,"pressureMB":1010,"pressureIN":29.83,"spressureMB":1008,"spressureIN":29.77,"altimeterMB":null,"altimeterIN":null,"windKTS":7,"windKPH":13,"windMPH":8,"windSpeedKTS":7,"windSpeedKPH":13,"windSpeedMPH":8,"windDirDEG":110,"windDir":"ESE","windGustKTS":null,"windGustKPH":null,"windGustMPH":null,"flightRule":"LIFR","visibilityKM":null,"visibilityMI":null,"weather":"Partly Cloudy","weatherShort":"Partly Cloudy","weatherCoded":"::SC","weatherPrimary":"Partly Cloudy","weatherPrimaryCoded":"::SC","cloudsCoded":"SC","icon":"pcloudy.png","heatindexC":36,"heatindexF":96,"windchillC":32,"windchillF":90,"feelslikeC":36,"feelslikeF":96,"isDay":true,"sunrise":1417774218,"sunriseISO":"2014-12-05T06:10:18-04:00","sunset":1417815741,"sunsetISO":"2014-12-05T17:42:21-04:00","snowDepthCM":null,"snowDepthIN":null,"precipMM":null,"precipIN":null,"solradWM2":null,"light":57,"sky":44},"raw":"TTPP 051800Z 11007KT 9999 SCT022 32/21 Q1010"},{"id":"TTCP","loc":{"long":-60.85,"lat":11.15},"place":{"name":"crown pt/scarbor","state":"","country":"tt","pretty_name":{"city":"Crown Pt.|Bon Accord Village","region":"TO","country":"Trinidad and Tobago"}},"profile":{"tz":"America/Port_of_Spain","elevM":8,"elevFT":26},"obTimestamp":1417802400,"obDateTime":"2014-12-05T14:00:00-04:00","ob":{"timestamp":1417802400,"dateTimeISO":"2014-12-05T14:00:00-04:00","tempC":29,"tempF":84,"dewpointC":23,"dewpointF":73,"humidity":70,"pressureMB":1011,"pressureIN":29.85,"spressureMB":1010,"spressureIN":29.83,"altimeterMB":null,"altimeterIN":null,"windKTS":6,"windKPH":11,"windMPH":7,"windSpeedKTS":6,"windSpeedKPH":11,"windSpeedMPH":7,"windDirDEG":110,"windDir":"ESE","windGustKTS":null,"windGustKPH":null,"windGustMPH":null,"flightRule":"LIFR","visibilityKM":null,"visibilityMI":null,"weather":"Partly Cloudy","weatherShort":"Partly Cloudy","weatherCoded":"::SC","weatherPrimary":"Partly Cloudy","weatherPrimaryCoded":"::SC","cloudsCoded":"SC","icon":"pcloudy.png","heatindexC":32,"heatindexF":90,"windchillC":29,"windchillF":84,"feelslikeC":32,"feelslikeF":90,"isDay":true,"sunrise":1417774156,"sunriseISO":"2014-12-05T06:09:16-04:00","sunset":1417815563,"sunsetISO":"2014-12-05T17:39:23-04:00","snowDepthCM":null,"snowDepthIN":null,"precipMM":null,"precipIN":null,"solradWM2":null,"light":57,"sky":44},"raw":"TTCP 051800Z 11006KT 9999 SCT020 29/23 Q1011"}]}