{"success":true,"error":null,"response":[{"id":"HUEN","loc":{"long":32.45,"lat":0.033333333333333},"place":{"name":"entebbe intl arp","state":"","country":"ug","pretty_name":{"city":"Entebbe","region":"-","country":"Uganda"}},"profile":{"tz":"Africa/Kampala","elevM":1155,"elevFT":3789},"obTimestamp":1417798800,"obDateTime":"2014-12-05T20:00:00+03:00","ob":{"timestamp":1417798800,"dateTimeISO":"2014-12-05T20:00:00+03:00","tempC":23,"tempF":73,"dewpointC":17,"dewpointF":63,"humidity":69,"pressureMB":1016,"pressureIN":30,"spressureMB":891,"spressureIN":26.31,"altimeterMB":null,"altimeterIN":null,"windKTS":2,"windKPH":4,"windMPH":2,"windSpeedKTS":2,"windSpeedKPH":4,"windSpeedMPH":2,"windDirDEG":100,"windDir":"E","windGustKTS":null,"windGustKPH":null,"windGustMPH":null,"flightRule":"LIFR","visibilityKM":11.265408,"visibilityMI":7,"weather":"Mostly Clear","weatherShort":"Mostly Clear","weatherCoded":"::FW","weatherPrimary":"Mostly Clear","weatherPrimaryCoded":"::FW","cloudsCoded":"FW","icon":"pcloudyn.png","heatindexC":23,"heatindexF":73,"windchillC":23,"windchillF":73,"feelslikeC":23,"feelslikeF":73,"isDay":false,"sunrise":1417750635,"sunriseISO":"2014-12-05T06:37:15+03:00","sunset":1417794272,"sunsetISO":"2014-12-05T18:44:32+03:00","snowDepthCM":null,"snowDepthIN":null,"precipMM":null,"precipIN":null,"solradWM2":null,"sky":19,"light":0},"raw":"HUEN 051700Z 10002KT CAVOK 23/17 Q1016"},{"id":"KQUD","loc":{"long":32.45,"lat":0.066666666666667},"place":{"name":"entebbe","state":"","country":"ug","pretty_name":null},"profile":{"tz":"Africa/Kampala","elevM":1149,"elevFT":3770},"obTimestamp":1417804320,"obDateTime":"2014-12-05T21:32:00+03:00","ob":{"timestamp":1417804320,"dateTimeISO":"2014-12-05T21:32:00+03:00","tempC":19,"tempF":66,"dewpointC":17,"dewpointF":63,"humidity":88,"pressureMB":1016,"pressureIN":30,"spressureMB":890,"spressureIN":26.28,"altimeterMB":1022,"altimeterIN":30.18,"windKTS":1,"windKPH":2,"windMPH":1,"windSpeedKTS":1,"windSpeedKPH":2,"windSpeedMPH":1,"windDirDEG":210,"windDir":"SSW","windGustKTS":null,"windGustKPH":null,"windGustMPH":null,"flightRule":"LIFR","visibilityKM":8.04672,"visibilityMI":5,"weather":"Clear","weatherShort":"Clear","weatherCoded":"::CL","weatherPrimary":"Clear","weatherPrimaryCoded":"::CL","cloudsCoded":"CL","icon":"sunnyn.png","heatindexC":19,"heatindexF":66,"windchillC":19,"windchillF":66,"feelslikeC":19,"feelslikeF":66,"isDay":false,"sunrise":1417750639,"sunriseISO":"2014-12-05T06:37:19+03:00","sunset":1417794269,"sunsetISO":"2014-12-05T18:44:29+03:00","snowDepthCM":null,"snowDepthIN":null,"precipMM":0,"precipIN":0,"solradWM2":null,"light":0,"sky":0},"raw":"KQUD 051832Z AUTO 21001KT 5SM CLR 19/17 A3018 RMK AO2 SLP168 TSNO $"}]}