{"success":true,"error":null,"response":[{"id":"TVSV","loc":{"long":-61.2,"lat":13.133333333333},"place":{"name":"arnos vale/st v","state":"","country":"vc","pretty_name":{"city":"Arnos Vale|E.T.Joshua","region":"G","country":"St Lucia"}},"profile":{"tz":"America/St_Vincent","elevM":9,"elevFT":30},"obTimestamp":1417802400,"obDateTime":"2014-12-05T14:00:00-04:00","ob":{"timestamp":1417802400,"dateTimeISO":"2014-12-05T14:00:00-04:00","tempC":29,"tempF":84,"dewpointC":23,"dewpointF":73,"humidity":70,"pressureMB":1011,"pressureIN":29.85,"spressureMB":1010,"spressureIN":29.83,"altimeterMB":null,"altimeterIN":null,"windKTS":6,"windKPH":11,"windMPH":7,"windSpeedKTS":6,"windSpeedKPH":11,"windSpeedMPH":7,"windDirDEG":120,"windDir":"ESE","windGustKTS":null,"windGustKPH":null,"windGustMPH":null,"flightRule":"LIFR","visibilityKM":null,"visibilityMI":null,"weather":"Partly Cloudy","weatherShort":"Partly Cloudy","weatherCoded":"::SC","weatherPrimary":"Partly Cloudy","weatherPrimaryCoded":"::SC","cloudsCoded":"SC","icon":"pcloudy.png","heatindexC":32,"heatindexF":90,"windchillC":29,"windchillF":84,"feelslikeC":32,"feelslikeF":90,"isDay":true,"sunrise":1417774445,"sunriseISO":"2014-12-05T06:14:05-04:00","sunset":1417815442,"sunsetISO":"2014-12-05T17:37:22-04:00","snowDepthCM":null,"snowDepthIN":null,"precipMM":null,"precipIN":null,"solradWM2":null,"light":57,"sky":44},"raw":"TVSV 051800Z 12006KT 9999 SCT020 29/23 Q1011"},{"id":"TVSC","loc":{"long":-61.35,"lat":12.7},"place":{"name":"canouan airport","state":"","country":"vc","pretty_name":{"city":"Canouan|Charlestown","region":"-","country":"Saint Vincent and the Grenadines"}},"profile":{"tz":"America/St_Vincent","elevM":4,"elevFT":13},"obTimestamp":1417802400,"obDateTime":"2014-12-05T14:00:00-04:00","ob":{"timestamp":1417802400,"dateTimeISO":"2014-12-05T14:00:00-04:00","tempC":30,"tempF":86,"dewpointC":22,"dewpointF":72,"humidity":62,"pressureMB":1012,"pressureIN":29.88,"spressureMB":1012,"spressureIN":29.88,"altimeterMB":null,"altimeterIN":null,"windKTS":5,"windKPH":9,"windMPH":6,"windSpeedKTS":5,"windSpeedKPH":9,"windSpeedMPH":6,"windDirDEG":140,"windDir":"SE","windGustKTS":null,"windGustKPH":null,"windGustMPH":null,"flightRule":"LIFR","visibilityKM":null,"visibilityMI":null,"weather":"Partly Cloudy","weatherShort":"Partly Cloudy","weatherCoded":"::SC","weatherPrimary":"Partly Cloudy","weatherPrimaryCoded":"::SC","cloudsCoded":"SC","icon":"pcloudy.png","heatindexC":33,"heatindexF":92,"windchillC":30,"windchillF":86,"feelslikeC":33,"feelslikeF":92,"isDay":true,"sunrise":1417774436,"sunriseISO":"2014-12-05T06:13:56-04:00","sunset":1417815523,"sunsetISO":"2014-12-05T17:38:43-04:00","snowDepthCM":null,"snowDepthIN":null,"precipMM":null,"precipIN":null,"solradWM2":null,"light":57,"sky":44},"raw":"TVSC 051800Z 14005KT 9999 SCT018 30/22 Q1012"}]}