{"success":true,"error":null,"response":[{"id":"NSFA","loc":{"long":-172,"lat":-13.833333333333},"place":{"name":"faleolo int/apia","state":"","country":"ws","pretty_name":{"city":"Faleolo","region":"-","country":"Samoa"}},"profile":{"tz":"Pacific/Apia","elevM":5,"elevFT":16},"obTimestamp":1417802400,"obDateTime":"2014-12-06T07:00:00+13:00","ob":{"timestamp":1417802400,"dateTimeISO":"2014-12-06T07:00:00+13:00","tempC":25,"tempF":77,"dewpointC":24,"dewpointF":75,"humidity":94,"pressureMB":1010,"pressureIN":29.83,"spressureMB":1009,"spressureIN":29.8,"altimeterMB":null,"altimeterIN":null,"windKTS":0,"windKPH":0,"windMPH":0,"windSpeedKTS":0,"windSpeedKPH":0,"windSpeedMPH":0,"windDirDEG":0,"windDir":"N","windGustKTS":null,"windGustKPH":null,"windGustMPH":null,"flightRule":"LIFR","visibilityKM":null,"visibilityMI":null,"weather":"Cloudy","weatherShort":"Cloudy","weatherCoded":"::OV","weatherPrimary":"Cloudy","weatherPrimaryCoded":"::OV","cloudsCoded":"OV","icon":"cloudyn.png","heatindexC":25,"heatindexF":77,"windchillC":25,"windchillF":77,"feelslikeC":25,"feelslikeF":77,"isDay":false,"sunrise":1417884711,"sunriseISO":"2014-12-07T05:51:51+13:00","sunset":1417931190,"sunsetISO":"2014-12-07T18:46:30+13:00","snowDepthCM":null,"snowDepthIN":null,"precipMM":null,"precipIN":null,"solradWM2":null,"light":0,"sky":100},"raw":"NSFA 051800Z 00000KT 9999 SCT020 SCT040 OVC120 25/24 Q1010"},{"id":"NCRG","loc":{"long":-159.81666666667,"lat":-21.2},"place":{"name":"rarotonga cook i","state":"","country":"ws","pretty_name":{"city":"Avarua|Nikao","region":"-","country":"Cook Islands"}},"profile":{"tz":"Pacific/Rarotonga","elevM":7,"elevFT":23},"obTimestamp":1417802400,"obDateTime":"2014-12-05T08:00:00-10:00","ob":{"timestamp":1417802400,"dateTimeISO":"2014-12-05T08:00:00-10:00","tempC":26,"tempF":79,"dewpointC":24,"dewpointF":75,"humidity":89,"pressureMB":1013,"pressureIN":29.91,"spressureMB":1012,"spressureIN":29.88,"altimeterMB":null,"altimeterIN":null,"windKTS":10,"windKPH":19,"windMPH":12,"windSpeedKTS":10,"windSpeedKPH":19,"windSpeedMPH":12,"windDirDEG":120,"windDir":"ESE","windGustKTS":null,"windGustKPH":null,"windGustMPH":null,"flightRule":"MVFR","visibilityKM":null,"visibilityMI":null,"weather":"Mostly Cloudy with Showers Nearby","weatherShort":"Showers Nearby","weatherCoded":"VC::RW,::BK","weatherPrimary":"Showers Nearby","weatherPrimaryCoded":"VC::RW","cloudsCoded":"BK","icon":"pcloudyrw.png","heatindexC":26,"heatindexF":79,"windchillC":26,"windchillF":79,"feelslikeC":26,"feelslikeF":79,"isDay":true,"sunrise":1417794558,"sunriseISO":"2014-12-05T05:49:18-10:00","sunset":1417842691,"sunsetISO":"2014-12-05T19:11:31-10:00","snowDepthCM":null,"snowDepthIN":null,"precipMM":null,"precipIN":null,"solradWM2":null,"light":23,"sky":81},"raw":"NCRG 051800Z 12010KT 9999 VCSH BKN012 BKN045 26/24 Q1013"},{"id":"NCPY","loc":{"long":-158.06666666667,"lat":-9.0166666666667},"place":{"name":"penrhyn island","state":"","country":"ws","pretty_name":{"city":"Penrhyn","region":"-","country":"Cook Islands"}},"profile":{"tz":"Pacific/Rarotonga","elevM":2,"elevFT":7},"obTimestamp":1417802400,"obDateTime":"2014-12-05T08:00:00-10:00","ob":{"timestamp":1417802400,"dateTimeISO":"2014-12-05T08:00:00-10:00","tempC":28,"tempF":82,"dewpointC":24,"dewpointF":75,"humidity":79,"pressureMB":1009,"pressureIN":29.8,"spressureMB":1009,"spressureIN":29.8,"altimeterMB":null,"altimeterIN":null,"windKTS":6,"windKPH":11,"windMPH":7,"windSpeedKTS":6,"windSpeedKPH":11,"windSpeedMPH":7,"windDirDEG":50,"windDir":"NE","windGustKTS":null,"windGustKPH":null,"windGustMPH":null,"flightRule":"LIFR","visibilityKM":null,"visibilityMI":null,"weather":"Mostly Sunny","weatherShort":"Mostly Sunny","weatherCoded":"::FW","weatherPrimary":"Mostly Sunny","weatherPrimaryCoded":"::FW","cloudsCoded":"FW","icon":"pcloudy.png","heatindexC":32,"heatindexF":89,"windchillC":28,"windchillF":82,"feelslikeC":32,"feelslikeF":89,"isDay":true,"sunrise":1417795472,"sunriseISO":"2014-12-05T06:04:32-10:00","sunset":1417840937,"sunsetISO":"2014-12-05T18:42:17-10:00","snowDepthCM":null,"snowDepthIN":null,"precipMM":null,"precipIN":null,"solradWM2":null,"sky":19,"light":25},"raw":"NCPY 051800Z 05006KT //// //// 28/24 Q1009"},{"id":"NSTU","loc":{"long":-170.71666666667,"lat":-14.333333333333},"place":{"name":"pago pago","state":"","country":"ws","pretty_name":{"city":"Pago Pago|Nu`uuli","region":"AS","country":"American Samoa"}},"profile":{"tz":"Pacific/Pago_Pago","elevM":3,"elevFT":10},"obTimestamp":1417804080,"obDateTime":"2014-12-05T07:28:00-11:00","ob":{"timestamp":1417804080,"dateTimeISO":"2014-12-05T07:28:00-11:00","tempC":25,"tempF":77,"dewpointC":24,"dewpointF":75,"humidity":94,"pressureMB":1010,"pressureIN":29.83,"spressureMB":1010,"spressureIN":29.83,"altimeterMB":1010,"altimeterIN":29.83,"windKTS":7,"windKPH":13,"windMPH":8,"windSpeedKTS":7,"windSpeedKPH":13,"windSpeedMPH":8,"windDirDEG":90,"windDir":"E","windGustKTS":null,"windGustKPH":null,"windGustMPH":null,"flightRule":"LIFR","visibilityKM":16.09344,"visibilityMI":10,"weather":"Cloudy with Light Showers","weatherShort":"Showers","weatherCoded":":L:RW,::OV","weatherPrimary":"Showers","weatherPrimaryCoded":":L:RW","cloudsCoded":"OV","icon":"showers.png","heatindexC":25,"heatindexF":77,"windchillC":25,"windchillF":77,"feelslikeC":25,"feelslikeF":77,"isDay":true,"sunrise":1417797949,"sunriseISO":"2014-12-05T05:45:49-11:00","sunset":1417844536,"sunsetISO":"2014-12-05T18:42:16-11:00","snowDepthCM":null,"snowDepthIN":null,"precipMM":0,"precipIN":0,"solradWM2":null,"light":18,"sky":100},"raw":"NSTU 051828Z 09007KT 10SM -SHRA FEW008 SCT017 BKN040 OVC080 25/24 A2984"},{"id":"NWWW","loc":{"long":166.21666666667,"lat":-22.016666666667},"place":{"name":"la tontouta nlle","state":"","country":"ws","pretty_name":{"city":"La Tontouta|Karenga","region":"-","country":"New Caledonia"}},"profile":{"tz":"Pacific/Noumea","elevM":16,"elevFT":52},"obTimestamp":1417804200,"obDateTime":"2014-12-06T05:30:00+11:00","ob":{"timestamp":1417804200,"dateTimeISO":"2014-12-06T05:30:00+11:00","tempC":23,"tempF":73,"dewpointC":17,"dewpointF":63,"humidity":69,"pressureMB":1012,"pressureIN":29.88,"spressureMB":1010,"spressureIN":29.83,"altimeterMB":null,"altimeterIN":null,"windKTS":4,"windKPH":7,"windMPH":5,"windSpeedKTS":4,"windSpeedKPH":7,"windSpeedMPH":5,"windDirDEG":100,"windDir":"E","windGustKTS":null,"windGustKPH":null,"windGustMPH":null,"flightRule":"LIFR","visibilityKM":null,"visibilityMI":null,"weather":"Mostly Cloudy","weatherShort":"Mostly Cloudy","weatherCoded":"::BK","weatherPrimary":"Mostly Cloudy","weatherPrimaryCoded":"::BK","cloudsCoded":"BK","icon":"mcloudy.png","heatindexC":23,"heatindexF":73,"windchillC":23,"windchillF":73,"feelslikeC":23,"feelslikeF":73,"isDay":true,"sunrise":1417802604,"sunriseISO":"2014-12-06T05:03:24+11:00","sunset":1417850910,"sunsetISO":"2014-12-06T18:28:30+11:00","snowDepthCM":null,"snowDepthIN":null,"precipMM":null,"precipIN":null,"solradWM2":null,"light":5,"sky":81},"raw":"NWWW 051830Z AUTO 10004KT 070V150 9999 BKN042 23/17 Q1012"},{"id":"NTAA","loc":{"long":-149.61666666667,"lat":-17.55},"place":{"name":"tahiti-faaa poly","state":"","country":"ws","pretty_name":{"city":"Papeete|Te Auae","region":"IC","country":"French Polynesia"}},"profile":{"tz":"Pacific/Tahiti","elevM":2,"elevFT":7},"obTimestamp":1417804200,"obDateTime":"2014-12-05T08:30:00-10:00","ob":{"timestamp":1417804200,"dateTimeISO":"2014-12-05T08:30:00-10:00","tempC":28,"tempF":82,"dewpointC":24,"dewpointF":75,"humidity":79,"pressureMB":1013,"pressureIN":29.91,"spressureMB":1013,"spressureIN":29.91,"altimeterMB":null,"altimeterIN":null,"windKTS":3,"windKPH":6,"windMPH":3,"windSpeedKTS":3,"windSpeedKPH":6,"windSpeedMPH":3,"windDirDEG":0,"windDir":"N","windGustKTS":null,"windGustKPH":null,"windGustMPH":null,"flightRule":"LIFR","visibilityKM":null,"visibilityMI":null,"weather":"Mostly Cloudy","weatherShort":"Mostly Cloudy","weatherCoded":"::BK","weatherPrimary":"Mostly Cloudy","weatherPrimaryCoded":"::BK","cloudsCoded":"BK","icon":"mcloudy.png","heatindexC":32,"heatindexF":89,"windchillC":28,"windchillF":82,"feelslikeC":32,"feelslikeF":89,"isDay":true,"sunrise":1417792530,"sunriseISO":"2014-12-05T05:15:30-10:00","sunset":1417839822,"sunsetISO":"2014-12-05T18:23:42-10:00","snowDepthCM":null,"snowDepthIN":null,"precipMM":null,"precipIN":null,"solradWM2":null,"light":35,"sky":81},"raw":"NTAA 051830Z VRB03KT 9999 FEW023 BKN300 28/24 Q1013 NOSIG"}]}