{"success":true,"error":null,"response":[{"id":"FLHN","loc":{"long":25.816666666667,"lat":-17.816666666667},"place":{"name":"livingstone nkum","state":"","country":"zm","pretty_name":null},"profile":{"tz":"Africa/Lusaka","elevM":986,"elevFT":3235},"obTimestamp":1417784400,"obDateTime":"2014-12-05T15:00:00+02:00","ob":{"timestamp":1417784400,"dateTimeISO":"2014-12-05T15:00:00+02:00","tempC":34,"tempF":93,"dewpointC":10,"dewpointF":50,"humidity":23,"pressureMB":1015,"pressureIN":29.97,"spressureMB":911,"spressureIN":26.9,"altimeterMB":null,"altimeterIN":null,"windKTS":6,"windKPH":11,"windMPH":7,"windSpeedKTS":6,"windSpeedKPH":11,"windSpeedMPH":7,"windDirDEG":90,"windDir":"E","windGustKTS":null,"windGustKPH":null,"windGustMPH":null,"flightRule":"LIFR","visibilityKM":11.265408,"visibilityMI":7,"weather":"Mostly Sunny","weatherShort":"Mostly Sunny","weatherCoded":"::FW","weatherPrimary":"Mostly Sunny","weatherPrimaryCoded":"::FW","cloudsCoded":"FW","icon":"pcloudy.png","heatindexC":34,"heatindexF":93,"windchillC":34,"windchillF":93,"feelslikeC":34,"feelslikeF":93,"isDay":true,"sunrise":1417750382,"sunriseISO":"2014-12-05T05:33:02+02:00","sunset":1417797712,"sunsetISO":"2014-12-05T18:41:52+02:00","snowDepthCM":null,"snowDepthIN":null,"precipMM":null,"precipIN":null,"solradWM2":null,"sky":19,"light":46},"raw":"FLHN 051300Z 09006KT CAVOK 34/10 Q1015"},{"id":"FLKK","loc":{"long":28.45,"lat":-15.316666666667},"place":{"name":"lusaka kuanda","state":"","country":"zm","pretty_name":{"city":"Kakumbi","region":"A","country":"Zambia"}},"profile":{"tz":"Africa/Lusaka","elevM":1154,"elevFT":3786},"obTimestamp":1417802400,"obDateTime":"2014-12-05T20:00:00+02:00","ob":{"timestamp":1417802400,"dateTimeISO":"2014-12-05T20:00:00+02:00","tempC":26,"tempF":79,"dewpointC":13,"dewpointF":55,"humidity":45,"pressureMB":1018,"pressureIN":30.06,"spressureMB":894,"spressureIN":26.4,"altimeterMB":null,"altimeterIN":null,"windKTS":3,"windKPH":6,"windMPH":3,"windSpeedKTS":3,"windSpeedKPH":6,"windSpeedMPH":3,"windDirDEG":120,"windDir":"ESE","windGustKTS":null,"windGustKPH":null,"windGustMPH":null,"flightRule":"LIFR","visibilityKM":11.265408,"visibilityMI":7,"weather":"Mostly Clear","weatherShort":"Mostly Clear","weatherCoded":"::FW","weatherPrimary":"Mostly Clear","weatherPrimaryCoded":"::FW","cloudsCoded":"FW","icon":"pcloudyn.png","heatindexC":26,"heatindexF":79,"windchillC":26,"windchillF":79,"feelslikeC":26,"feelslikeF":79,"isDay":false,"sunrise":1417750025,"sunriseISO":"2014-12-05T05:27:05+02:00","sunset":1417796805,"sunsetISO":"2014-12-05T18:26:45+02:00","snowDepthCM":null,"snowDepthIN":null,"precipMM":null,"precipIN":null,"solradWM2":null,"sky":19,"light":0},"raw":"FLKK 051800Z 12003KT CAVOK 26/13 Q1018"},{"id":"FLSK","loc":{"long":28.666666666667,"lat":-13},"place":{"name":"ndola","state":"","country":"zm","pretty_name":{"city":"Siankaba","region":"7","country":"Zambia"}},"profile":{"tz":"Africa/Lusaka","elevM":1261,"elevFT":4137},"obTimestamp":1417802400,"obDateTime":"2014-12-05T20:00:00+02:00","ob":{"timestamp":1417802400,"dateTimeISO":"2014-12-05T20:00:00+02:00","tempC":21,"tempF":70,"dewpointC":18,"dewpointF":64,"humidity":83,"pressureMB":1019,"pressureIN":30.09,"spressureMB":882,"spressureIN":26.05,"altimeterMB":null,"altimeterIN":null,"windKTS":0,"windKPH":0,"windMPH":0,"windSpeedKTS":0,"windSpeedKPH":0,"windSpeedMPH":0,"windDirDEG":0,"windDir":"N","windGustKTS":null,"windGustKPH":null,"windGustMPH":null,"flightRule":"LIFR","visibilityKM":null,"visibilityMI":null,"weather":"Cloudy with Thunderstorms","weatherShort":"Thunderstorms","weatherCoded":"::T,::OV","weatherPrimary":"Thunderstorms","weatherPrimaryCoded":"::T","cloudsCoded":"OV","icon":"tstormn.png","heatindexC":21,"heatindexF":70,"windchillC":21,"windchillF":70,"feelslikeC":21,"feelslikeF":70,"isDay":false,"sunrise":1417750222,"sunriseISO":"2014-12-05T05:30:22+02:00","sunset":1417796504,"sunsetISO":"2014-12-05T18:21:44+02:00","snowDepthCM":null,"snowDepthIN":null,"precipMM":null,"precipIN":null,"solradWM2":null,"light":0,"sky":100},"raw":"FLSK 051800Z 00000KT 9999 TS FEW070CB SCT090 OVC300 21/18 Q1019"}]}