{"success":true,"error":null,"response":[{"id":"FVHA","loc":{"long":31.116666666667,"lat":-17.916666666667},"place":{"name":"harare/kutsaga(m","state":"","country":"zw","pretty_name":{"city":"Harare|Salisbury|Kutsaga Village","region":"ME","country":"Zimbabwe"}},"profile":{"tz":"Africa/Harare","elevM":1503,"elevFT":4931},"obTimestamp":1417802400,"obDateTime":"2014-12-05T20:00:00+02:00","ob":{"timestamp":1417802400,"dateTimeISO":"2014-12-05T20:00:00+02:00","tempC":27,"tempF":81,"dewpointC":5,"dewpointF":41,"humidity":24,"pressureMB":1021,"pressureIN":30.15,"spressureMB":863,"spressureIN":25.48,"altimeterMB":null,"altimeterIN":null,"windKTS":11,"windKPH":20,"windMPH":13,"windSpeedKTS":11,"windSpeedKPH":20,"windSpeedMPH":13,"windDirDEG":90,"windDir":"E","windGustKTS":null,"windGustKPH":null,"windGustMPH":null,"flightRule":"LIFR","visibilityKM":11.265408,"visibilityMI":7,"weather":"Mostly Clear","weatherShort":"Mostly Clear","weatherCoded":"::FW","weatherPrimary":"Mostly Clear","weatherPrimaryCoded":"::FW","cloudsCoded":"FW","icon":"pcloudyn.png","heatindexC":27,"heatindexF":81,"windchillC":27,"windchillF":81,"feelslikeC":27,"feelslikeF":81,"isDay":false,"sunrise":1417749099,"sunriseISO":"2014-12-05T05:11:39+02:00","sunset":1417796451,"sunsetISO":"2014-12-05T18:20:51+02:00","snowDepthCM":null,"snowDepthIN":null,"precipMM":null,"precipIN":null,"solradWM2":null,"sky":19,"light":0},"raw":"FVHA 051800Z 09011KT CAVOK 27/05 Q1021 NOSIG"},{"id":"FVBU","loc":{"long":28.616666666667,"lat":-20.016666666667},"place":{"name":"bulawayo/woodval","state":"","country":"zw","pretty_name":{"city":"Bulawayo|J.M. Nkomo|Umvutcha A","region":"MN","country":"Zimbabwe"}},"profile":{"tz":"Africa/Harare","elevM":1326,"elevFT":4350},"obTimestamp":1417802400,"obDateTime":"2014-12-05T20:00:00+02:00","ob":{"timestamp":1417802400,"dateTimeISO":"2014-12-05T20:00:00+02:00","tempC":28,"tempF":82,"dewpointC":-5,"dewpointF":23,"humidity":11,"pressureMB":1019,"pressureIN":30.09,"spressureMB":879,"spressureIN":25.96,"altimeterMB":null,"altimeterIN":null,"windKTS":7,"windKPH":13,"windMPH":8,"windSpeedKTS":7,"windSpeedKPH":13,"windSpeedMPH":8,"windDirDEG":130,"windDir":"SE","windGustKTS":null,"windGustKPH":null,"windGustMPH":null,"flightRule":"LIFR","visibilityKM":11.265408,"visibilityMI":7,"weather":"Mostly Clear","weatherShort":"Mostly Clear","weatherCoded":"::FW","weatherPrimary":"Mostly Clear","weatherPrimaryCoded":"::FW","cloudsCoded":"FW","icon":"pcloudyn.png","heatindexC":28,"heatindexF":82,"windchillC":28,"windchillF":82,"feelslikeC":28,"feelslikeF":82,"isDay":false,"sunrise":1417749460,"sunriseISO":"2014-12-05T05:17:40+02:00","sunset":1417797290,"sunsetISO":"2014-12-05T18:34:50+02:00","snowDepthCM":null,"snowDepthIN":null,"precipMM":null,"precipIN":null,"solradWM2":null,"sky":19,"light":0},"raw":"FVBU 051800Z 13007KT CAVOK 28/M05 Q1019 NOSIG"}]}