{"success":true,"error":null,"response":[{"id":"KQGX","loc":{"long":54.533333333333,"lat":24.25},"place":{"name":"al dhafra","state":"","country":"ae","pretty_name":"Al Dhafra|Al Muqa??arah"},"profile":{"tz":"Asia/Dubai","elevM":23,"elevFT":75},"obTimestamp":1417485480,"obDateTime":"2014-12-02T05:58:00+04:00","ob":{"timestamp":1417485480,"dateTimeISO":"2014-12-02T05:58:00+04:00","tempC":17,"tempF":63,"dewpointC":13,"dewpointF":55,"humidity":77,"pressureMB":1019,"pressureIN":30.09,"spressureMB":1016,"spressureIN":30,"altimeterMB":1019,"altimeterIN":30.09,"windKTS":4,"windKPH":7,"windMPH":5,"windSpeedKTS":4,"windSpeedKPH":7,"windSpeedMPH":5,"windDirDEG":240,"windDir":"WSW","windGustKTS":null,"windGustKPH":null,"windGustMPH":null,"flightRule":"LIFR","visibilityKM":null,"visibilityMI":null,"weather":"Mostly Clear","weatherShort":"Mostly Clear","weatherCoded":"::FW","weatherPrimary":"Mostly Clear","weatherPrimaryCoded":"::FW","cloudsCoded":"FW","icon":"pcloudyn.png","heatindexC":17,"heatindexF":63,"windchillC":17,"windchillF":63,"feelslikeC":17,"feelslikeF":63,"isDay":false,"sunrise":1417488550,"sunriseISO":"2014-12-02T06:49:10+04:00","sunset":1417527207,"sunsetISO":"2014-12-02T17:33:27+04:00","snowDepthCM":null,"snowDepthIN":null,"precipMM":0,"precipIN":0,"solradWM2":null,"light":0,"sky":19},"raw":"KQGX 020158Z AUTO 24004KT 9999 FEW037 17/13 A3010 RMK AO2 SLPNO T01690127"},{"id":"OMFJ","loc":{"long":56.316666666667,"lat":25.1},"place":{"name":"fujairah intl ar","state":"","country":"ae","pretty_name":"Fujairah|??r"},"profile":{"tz":"Asia/Dubai","elevM":28,"elevFT":92},"obTimestamp":1417485600,"obDateTime":"2014-12-02T06:00:00+04:00","ob":{"timestamp":1417485600,"dateTimeISO":"2014-12-02T06:00:00+04:00","tempC":21,"tempF":70,"dewpointC":15,"dewpointF":59,"humidity":69,"pressureMB":1017,"pressureIN":30.03,"spressureMB":1014,"spressureIN":29.94,"altimeterMB":1017,"altimeterIN":30.03,"windKTS":4,"windKPH":7,"windMPH":5,"windSpeedKTS":4,"windSpeedKPH":7,"windSpeedMPH":5,"windDirDEG":280,"windDir":"W","windGustKTS":null,"windGustKPH":null,"windGustMPH":null,"flightRule":"LIFR","visibilityKM":6,"visibilityMI":3.73,"weather":"Mostly Clear","weatherShort":"Mostly Clear","weatherCoded":"::FW","weatherPrimary":"Mostly Clear","weatherPrimaryCoded":"::FW","cloudsCoded":"FW","icon":"pcloudyn.png","heatindexC":21,"heatindexF":70,"windchillC":21,"windchillF":70,"feelslikeC":21,"feelslikeF":70,"isDay":false,"sunrise":1417488222,"sunriseISO":"2014-12-02T06:43:42+04:00","sunset":1417526680,"sunsetISO":"2014-12-02T17:24:40+04:00","snowDepthCM":null,"snowDepthIN":null,"precipMM":null,"precipIN":null,"solradWM2":null,"light":0,"sky":19},"raw":"OMFJ 020200Z 28004KT 6000 FEW018 21/15 Q1017 A3004"},{"id":"OMAL","loc":{"long":55.6,"lat":24.25},"place":{"name":"al ain intnl arp","state":"","country":"ae","pretty_name":"Al Ain|Alain|Al Ja?r"},"profile":{"tz":"Asia/Dubai","elevM":262,"elevFT":860},"obTimestamp":1417485600,"obDateTime":"2014-12-02T06:00:00+04:00","ob":{"timestamp":1417485600,"dateTimeISO":"2014-12-02T06:00:00+04:00","tempC":17,"tempF":63,"dewpointC":14,"dewpointF":57,"humidity":83,"pressureMB":1020,"pressureIN":30.12,"spressureMB":989,"spressureIN":29.21,"altimeterMB":1020,"altimeterIN":30.12,"windKTS":1,"windKPH":2,"windMPH":1,"windSpeedKTS":1,"windSpeedKPH":2,"windSpeedMPH":1,"windDirDEG":80,"windDir":"E","windGustKTS":null,"windGustKPH":null,"windGustMPH":null,"flightRule":"LIFR","visibilityKM":null,"visibilityMI":null,"weather":"Mostly Clear","weatherShort":"Mostly Clear","weatherCoded":"::FW","weatherPrimary":"Mostly Clear","weatherPrimaryCoded":"::FW","cloudsCoded":"FW","icon":"pcloudyn.png","heatindexC":17,"heatindexF":63,"windchillC":17,"windchillF":63,"feelslikeC":17,"feelslikeF":63,"isDay":false,"sunrise":1417488294,"sunriseISO":"2014-12-02T06:44:54+04:00","sunset":1417526951,"sunsetISO":"2014-12-02T17:29:11+04:00","snowDepthCM":null,"snowDepthIN":null,"precipMM":null,"precipIN":null,"solradWM2":null,"light":0,"sky":19},"raw":"OMAL 020200Z 08001KT 9999 FEW025 17/14 Q1019 A3011 NOSIG"},{"id":"OMAD","loc":{"long":54.466666666667,"lat":24.416666666667},"place":{"name":"abu dhabi/bateen","state":"","country":"ae","pretty_name":"Abu Dhabi|Min?aqat al Ma??r"},"profile":{"tz":"Asia/Dubai","elevM":3,"elevFT":10},"obTimestamp":1417485600,"obDateTime":"2014-12-02T06:00:00+04:00","ob":{"timestamp":1417485600,"dateTimeISO":"2014-12-02T06:00:00+04:00","tempC":21,"tempF":70,"dewpointC":15,"dewpointF":59,"humidity":69,"pressureMB":1018,"pressureIN":30.06,"spressureMB":1018,"spressureIN":30.06,"altimeterMB":1018,"altimeterIN":30.06,"windKTS":3,"windKPH":6,"windMPH":3,"windSpeedKTS":3,"windSpeedKPH":6,"windSpeedMPH":3,"windDirDEG":290,"windDir":"WNW","windGustKTS":null,"windGustKPH":null,"windGustMPH":null,"flightRule":"LIFR","visibilityKM":null,"visibilityMI":null,"weather":"Partly Cloudy","weatherShort":"Partly Cloudy","weatherCoded":"::SC","weatherPrimary":"Partly Cloudy","weatherPrimaryCoded":"::SC","cloudsCoded":"SC","icon":"pcloudyn.png","heatindexC":21,"heatindexF":70,"windchillC":21,"windchillF":70,"feelslikeC":21,"feelslikeF":70,"isDay":false,"sunrise":1417488586,"sunriseISO":"2014-12-02T06:49:46+04:00","sunset":1417527204,"sunsetISO":"2014-12-02T17:33:24+04:00","snowDepthCM":null,"snowDepthIN":null,"precipMM":null,"precipIN":null,"solradWM2":null,"light":0,"sky":44},"raw":"OMAD 020200Z 29003KT 9999 SCT033 21/15 Q1018 A3007 NOSIG"},{"id":"OMDW","loc":{"long":55.166666666667,"lat":24.9},"place":{"name":"dubai al maktoum","state":"","country":"ae","pretty_name":"Al Maktoum International Airport|Discovery Gardens"},"profile":{"tz":"Asia/Dubai","elevM":25,"elevFT":82},"obTimestamp":1417485600,"obDateTime":"2014-12-02T06:00:00+04:00","ob":{"timestamp":1417485600,"dateTimeISO":"2014-12-02T06:00:00+04:00","tempC":18,"tempF":64,"dewpointC":15,"dewpointF":59,"humidity":83,"pressureMB":1019,"pressureIN":30.09,"spressureMB":1016,"spressureIN":30,"altimeterMB":null,"altimeterIN":null,"windKTS":6,"windKPH":11,"windMPH":7,"windSpeedKTS":6,"windSpeedKPH":11,"windSpeedMPH":7,"windDirDEG":210,"windDir":"SSW","windGustKTS":null,"windGustKPH":null,"windGustMPH":null,"flightRule":"LIFR","visibilityKM":null,"visibilityMI":null,"weather":"Mostly Clear","weatherShort":"Mostly Clear","weatherCoded":"::FW","weatherPrimary":"Mostly Clear","weatherPrimaryCoded":"::FW","cloudsCoded":"FW","icon":"pcloudyn.png","heatindexC":18,"heatindexF":64,"windchillC":18,"windchillF":64,"feelslikeC":18,"feelslikeF":64,"isDay":false,"sunrise":1417488474,"sunriseISO":"2014-12-02T06:47:54+04:00","sunset":1417526979,"sunsetISO":"2014-12-02T17:29:39+04:00","snowDepthCM":null,"snowDepthIN":null,"precipMM":null,"precipIN":null,"solradWM2":null,"light":0,"sky":19},"raw":"OMDW 020200Z 21006KT 9999 FEW035 18/15 Q1019 NOSIG"},{"id":"OMAA","loc":{"long":54.633333333333,"lat":24.416666666667},"place":{"name":"abu dhabi intl","state":"","country":"ae","pretty_name":"Abu Dhabi|Mad?nat Khal?fah B"},"profile":{"tz":"Asia/Muscat","elevM":27,"elevFT":89},"obTimestamp":1417485600,"obDateTime":"2014-12-02T06:00:00+04:00","ob":{"timestamp":1417485600,"dateTimeISO":"2014-12-02T06:00:00+04:00","tempC":20,"tempF":68,"dewpointC":15,"dewpointF":59,"humidity":73,"pressureMB":1018,"pressureIN":30.06,"spressureMB":1015,"spressureIN":29.97,"altimeterMB":1018,"altimeterIN":30.06,"windKTS":4,"windKPH":7,"windMPH":5,"windSpeedKTS":4,"windSpeedKPH":7,"windSpeedMPH":5,"windDirDEG":290,"windDir":"WNW","windGustKTS":null,"windGustKPH":null,"windGustMPH":null,"flightRule":"LIFR","visibilityKM":null,"visibilityMI":null,"weather":"Partly Cloudy","weatherShort":"Partly Cloudy","weatherCoded":"::SC","weatherPrimary":"Partly Cloudy","weatherPrimaryCoded":"::SC","cloudsCoded":"SC","icon":"pcloudyn.png","heatindexC":20,"heatindexF":68,"windchillC":20,"windchillF":68,"feelslikeC":20,"feelslikeF":68,"isDay":false,"sunrise":1417488546,"sunriseISO":"2014-12-02T06:49:06+04:00","sunset":1417527164,"sunsetISO":"2014-12-02T17:32:44+04:00","snowDepthCM":null,"snowDepthIN":null,"precipMM":null,"precipIN":null,"solradWM2":null,"light":0,"sky":44},"raw":"OMAA 020200Z 29004KT 9999 SCT035 20/15 Q1018 A3006 NOSIG"},{"id":"OMDB","loc":{"long":55.366666666667,"lat":25.25},"place":{"name":"dubai intl airpo","state":"","country":"ae","pretty_name":"Dubai|B?r Sa‘?d|A? ?aw?r"},"profile":{"tz":"Asia/Dubai","elevM":5,"elevFT":16},"obTimestamp":1417485600,"obDateTime":"2014-12-02T06:00:00+04:00","ob":{"timestamp":1417485600,"dateTimeISO":"2014-12-02T06:00:00+04:00","tempC":20,"tempF":68,"dewpointC":16,"dewpointF":61,"humidity":78,"pressureMB":1018,"pressureIN":30.06,"spressureMB":1017,"spressureIN":30.03,"altimeterMB":null,"altimeterIN":null,"windKTS":6,"windKPH":11,"windMPH":7,"windSpeedKTS":6,"windSpeedKPH":11,"windSpeedMPH":7,"windDirDEG":170,"windDir":"S","windGustKTS":null,"windGustKPH":null,"windGustMPH":null,"flightRule":"LIFR","visibilityKM":null,"visibilityMI":null,"weather":"Partly Cloudy","weatherShort":"Partly Cloudy","weatherCoded":"::SC","weatherPrimary":"Partly Cloudy","weatherPrimaryCoded":"::SC","cloudsCoded":"SC","icon":"pcloudyn.png","heatindexC":20,"heatindexF":68,"windchillC":20,"windchillF":68,"feelslikeC":20,"feelslikeF":68,"isDay":false,"sunrise":1417488468,"sunriseISO":"2014-12-02T06:47:48+04:00","sunset":1417526890,"sunsetISO":"2014-12-02T17:28:10+04:00","snowDepthCM":null,"snowDepthIN":null,"precipMM":null,"precipIN":null,"solradWM2":null,"light":0,"sky":44},"raw":"OMDB 020200Z 17006KT 9999 SCT040 20/16 Q1018 NOSIG"},{"id":"OMRK","loc":{"long":55.916666666667,"lat":25.616666666667},"place":{"name":"ras al khaimah","state":"","country":"ae","pretty_name":"Ras Al Khaimah|Ras-Al-Khaima|Al ?amr?n?yah"},"profile":{"tz":"Asia/Dubai","elevM":31,"elevFT":102},"obTimestamp":1417485600,"obDateTime":"2014-12-02T06:00:00+04:00","ob":{"timestamp":1417485600,"dateTimeISO":"2014-12-02T06:00:00+04:00","tempC":18,"tempF":64,"dewpointC":15,"dewpointF":59,"humidity":83,"pressureMB":1018,"pressureIN":30.06,"spressureMB":1014,"spressureIN":29.94,"altimeterMB":1018,"altimeterIN":30.06,"windKTS":3,"windKPH":6,"windMPH":3,"windSpeedKTS":3,"windSpeedKPH":6,"windSpeedMPH":3,"windDirDEG":180,"windDir":"S","windGustKTS":null,"windGustKPH":null,"windGustMPH":null,"flightRule":"LIFR","visibilityKM":null,"visibilityMI":null,"weather":"Partly Cloudy","weatherShort":"Partly Cloudy","weatherCoded":"::SC","weatherPrimary":"Partly Cloudy","weatherPrimaryCoded":"::SC","cloudsCoded":"SC","icon":"pcloudyn.png","heatindexC":18,"heatindexF":64,"windchillC":18,"windchillF":64,"feelslikeC":18,"feelslikeF":64,"isDay":false,"sunrise":1417488379,"sunriseISO":"2014-12-02T06:46:19+04:00","sunset":1417526714,"sunsetISO":"2014-12-02T17:25:14+04:00","snowDepthCM":null,"snowDepthIN":null,"precipMM":null,"precipIN":null,"solradWM2":null,"light":0,"sky":44},"raw":"OMRK 020200Z 18003KT 9999 SCT025 18/15 Q1018 A3007"},{"id":"OMSJ","loc":{"long":55.516666666667,"lat":25.316666666667},"place":{"name":"sharjah intl arp","state":"","country":"ae","pretty_name":"Sharjah|Al Marijah"},"profile":{"tz":"Asia/Dubai","elevM":33,"elevFT":108},"obTimestamp":1417485600,"obDateTime":"2014-12-02T06:00:00+04:00","ob":{"timestamp":1417485600,"dateTimeISO":"2014-12-02T06:00:00+04:00","tempC":19,"tempF":66,"dewpointC":15,"dewpointF":59,"humidity":78,"pressureMB":1018,"pressureIN":30.06,"spressureMB":1014,"spressureIN":29.94,"altimeterMB":null,"altimeterIN":null,"windKTS":6,"windKPH":11,"windMPH":7,"windSpeedKTS":6,"windSpeedKPH":11,"windSpeedMPH":7,"windDirDEG":180,"windDir":"S","windGustKTS":null,"windGustKPH":null,"windGustMPH":null,"flightRule":"MVFR","visibilityKM":null,"visibilityMI":null,"weather":"Mostly Cloudy","weatherShort":"Mostly Cloudy","weatherCoded":"::BK","weatherPrimary":"Mostly Cloudy","weatherPrimaryCoded":"::BK","cloudsCoded":"BK","icon":"mcloudyn.png","heatindexC":19,"heatindexF":66,"windchillC":19,"windchillF":66,"feelslikeC":19,"feelslikeF":66,"isDay":false,"sunrise":1417488440,"sunriseISO":"2014-12-02T06:47:20+04:00","sunset":1417526846,"sunsetISO":"2014-12-02T17:27:26+04:00","snowDepthCM":null,"snowDepthIN":null,"precipMM":null,"precipIN":null,"solradWM2":null,"light":0,"sky":81},"raw":"OMSJ 020200Z 18006KT 9999 BKN030 19/15 Q1018"}]}