{"success":true,"error":null,"response":[{"id":"TKPN","loc":{"long":-62.566666666667,"lat":17.183333333333},"place":{"name":"charlestown/newc","state":"","country":"ag","pretty_name":"Newcastle|New Castle|Nevis"},"profile":{"tz":"America/St_Kitts","elevM":17,"elevFT":56},"obTimestamp":1417474800,"obDateTime":"2014-12-01T19:00:00-04:00","ob":{"timestamp":1417474800,"dateTimeISO":"2014-12-01T19:00:00-04:00","tempC":27,"tempF":81,"dewpointC":23,"dewpointF":73,"humidity":79,"pressureMB":1014,"pressureIN":29.94,"spressureMB":1012,"spressureIN":29.88,"altimeterMB":null,"altimeterIN":null,"windKTS":11,"windKPH":20,"windMPH":13,"windSpeedKTS":11,"windSpeedKPH":20,"windSpeedMPH":13,"windDirDEG":70,"windDir":"ENE","windGustKTS":null,"windGustKPH":null,"windGustMPH":null,"flightRule":"MVFR","visibilityKM":null,"visibilityMI":null,"weather":"Mostly Cloudy","weatherShort":"Mostly Cloudy","weatherCoded":"::BK","weatherPrimary":"Mostly Cloudy","weatherPrimaryCoded":"::BK","cloudsCoded":"BK","icon":"mcloudyn.png","heatindexC":30,"heatindexF":86,"windchillC":27,"windchillF":81,"feelslikeC":30,"feelslikeF":86,"isDay":false,"sunrise":1417429461,"sunriseISO":"2014-12-01T06:24:21-04:00","sunset":1417469689,"sunsetISO":"2014-12-01T17:34:49-04:00","snowDepthCM":null,"snowDepthIN":null,"precipMM":null,"precipIN":null,"solradWM2":null,"light":0,"sky":81},"raw":"TKPN 012300Z 07011KT 9999 BKN018 27/23 Q1014"},{"id":"TAPA","loc":{"long":-61.783333333333,"lat":17.116666666667},"place":{"name":"coolidge/antigua","state":"","country":"ag","pretty_name":"St Johns|V.C.Bird|Gunthorpes"},"profile":{"tz":"America/Antigua","elevM":14,"elevFT":46},"obTimestamp":1417485600,"obDateTime":"2014-12-01T22:00:00-04:00","ob":{"timestamp":1417485600,"dateTimeISO":"2014-12-01T22:00:00-04:00","tempC":24,"tempF":75,"dewpointC":23,"dewpointF":73,"humidity":94,"pressureMB":1014,"pressureIN":29.94,"spressureMB":1012,"spressureIN":29.88,"altimeterMB":null,"altimeterIN":null,"windKTS":5,"windKPH":9,"windMPH":6,"windSpeedKTS":5,"windSpeedKPH":9,"windSpeedMPH":6,"windDirDEG":100,"windDir":"E","windGustKTS":null,"windGustKPH":null,"windGustMPH":null,"flightRule":"LIFR","visibilityKM":null,"visibilityMI":null,"weather":"Partly Cloudy with Light Rain","weatherShort":"Light Rain","weatherCoded":":L:R,::SC","weatherPrimary":"Light Rain","weatherPrimaryCoded":":L:R","cloudsCoded":"SC","icon":"rainn.png","heatindexC":24,"heatindexF":75,"windchillC":24,"windchillF":75,"feelslikeC":24,"feelslikeF":75,"isDay":false,"sunrise":1417429266,"sunriseISO":"2014-12-01T06:21:06-04:00","sunset":1417469508,"sunsetISO":"2014-12-01T17:31:48-04:00","snowDepthCM":null,"snowDepthIN":null,"precipMM":null,"precipIN":null,"solradWM2":null,"light":0,"sky":44},"raw":"TAPA 020200Z 10005KT 9999 -RA SCT017 SCT036 24/23 Q1014 NOSIG"}]}