{"success":true,"error":null,"response":[{"id":"LZSL","loc":{"long":19.133333333333,"lat":48.633333333333},"place":{"name":"sliac","state":"","country":"sk","pretty_name":"Sliac|Hronsek"},"profile":{"tz":"Europe/Bratislava","elevM":313,"elevFT":1027},"obTimestamp":1417487400,"obDateTime":"2014-12-02T03:30:00+01:00","ob":{"timestamp":1417487400,"dateTimeISO":"2014-12-02T03:30:00+01:00","tempC":1,"tempF":34,"dewpointC":0,"dewpointF":32,"humidity":93,"pressureMB":1013,"pressureIN":29.91,"spressureMB":974,"spressureIN":28.76,"altimeterMB":null,"altimeterIN":null,"windKTS":3,"windKPH":6,"windMPH":3,"windSpeedKTS":3,"windSpeedKPH":6,"windSpeedMPH":3,"windDirDEG":10,"windDir":"N","windGustKTS":null,"windGustKPH":null,"windGustMPH":null,"flightRule":"MVFR","visibilityKM":4,"visibilityMI":2.49,"weather":"Cloudy with Light Snow","weatherShort":"Light Snow","weatherCoded":":L:S,::OV","weatherPrimary":"Light Snow","weatherPrimaryCoded":":L:S","cloudsCoded":"OV","icon":"snown.png","heatindexC":1,"heatindexF":34,"windchillC":0,"windchillF":32,"feelslikeC":0,"feelslikeF":32,"isDay":false,"sunrise":1417500975,"sunriseISO":"2014-12-02T07:16:15+01:00","sunset":1417531785,"sunsetISO":"2014-12-02T15:49:45+01:00","snowDepthCM":null,"snowDepthIN":null,"precipMM":null,"precipIN":null,"solradWM2":null,"light":0,"sky":100},"raw":"LZSL 020230Z 01003KT 4000 -SN SCT004 BKN015 OVC020 01/M00 Q1013"},{"id":"LZZI","loc":{"long":18.616666666667,"lat":49.233333333333},"place":{"name":"zilina","state":"","country":"sk","pretty_name":"Zilina|Ve?kб Koteљovб"},"profile":{"tz":"Europe/Bratislava","elevM":311,"elevFT":1020},"obTimestamp":1417487400,"obDateTime":"2014-12-02T03:30:00+01:00","ob":{"timestamp":1417487400,"dateTimeISO":"2014-12-02T03:30:00+01:00","tempC":1,"tempF":34,"dewpointC":0,"dewpointF":32,"humidity":93,"pressureMB":1012,"pressureIN":29.88,"spressureMB":974,"spressureIN":28.76,"altimeterMB":null,"altimeterIN":null,"windKTS":1,"windKPH":2,"windMPH":1,"windSpeedKTS":1,"windSpeedKPH":2,"windSpeedMPH":1,"windDirDEG":0,"windDir":"N","windGustKTS":null,"windGustKPH":null,"windGustMPH":null,"flightRule":"LIFR","visibilityKM":6,"visibilityMI":3.73,"weather":"Cloudy with Light Rain","weatherShort":"Light Rain","weatherCoded":":L:R,::OV","weatherPrimary":"Light Rain","weatherPrimaryCoded":":L:R","cloudsCoded":"OV","icon":"rainn.png","heatindexC":1,"heatindexF":34,"windchillC":1,"windchillF":34,"feelslikeC":1,"feelslikeF":34,"isDay":false,"sunrise":1417501245,"sunriseISO":"2014-12-02T07:20:45+01:00","sunset":1417531763,"sunsetISO":"2014-12-02T15:49:23+01:00","snowDepthCM":null,"snowDepthIN":null,"precipMM":null,"precipIN":null,"solradWM2":null,"light":0,"sky":100},"raw":"LZZI 020230Z VRB01KT 6000 -RA BKN038 OVC085 01/M00 Q1012"},{"id":"LZTT","loc":{"long":20.25,"lat":49.066666666667},"place":{"name":"poprad/tatry","state":"","country":"sk","pretty_name":"Poprad|Spiљskб Teplica"},"profile":{"tz":"Europe/Bratislava","elevM":707,"elevFT":2320},"obTimestamp":1417487400,"obDateTime":"2014-12-02T03:30:00+01:00","ob":{"timestamp":1417487400,"dateTimeISO":"2014-12-02T03:30:00+01:00","tempC":-2,"tempF":28,"dewpointC":-2,"dewpointF":28,"humidity":100,"pressureMB":1012,"pressureIN":29.88,"spressureMB":926,"spressureIN":27.34,"altimeterMB":null,"altimeterIN":null,"windKTS":4,"windKPH":7,"windMPH":5,"windSpeedKTS":4,"windSpeedKPH":7,"windSpeedMPH":5,"windDirDEG":70,"windDir":"ENE","windGustKTS":null,"windGustKPH":null,"windGustMPH":null,"flightRule":"MVFR","visibilityKM":9,"visibilityMI":5.59,"weather":"Cloudy with Light Snow","weatherShort":"Light Snow","weatherCoded":":L:S,::OV","weatherPrimary":"Light Snow","weatherPrimaryCoded":":L:S","cloudsCoded":"OV","icon":"snown.png","heatindexC":-2,"heatindexF":28,"windchillC":-6,"windchillF":22,"feelslikeC":-6,"feelslikeF":22,"isDay":false,"sunrise":1417500812,"sunriseISO":"2014-12-02T07:13:32+01:00","sunset":1417531412,"sunsetISO":"2014-12-02T15:43:32+01:00","snowDepthCM":null,"snowDepthIN":null,"precipMM":null,"precipIN":null,"solradWM2":null,"light":0,"sky":100},"raw":"LZTT 020230Z 07004KT 040V100 9000 -SN SCT015 OVC020 M02/M02 Q1012"},{"id":"LZIB","loc":{"long":17.216666666667,"lat":48.166666666667},"place":{"name":"bratislava ivank","state":"","country":"sk","pretty_name":"Bratislava|Bratislava - Vajnory"},"profile":{"tz":"Europe/Bratislava","elevM":134,"elevFT":440},"obTimestamp":1417487400,"obDateTime":"2014-12-02T03:30:00+01:00","ob":{"timestamp":1417487400,"dateTimeISO":"2014-12-02T03:30:00+01:00","tempC":2,"tempF":36,"dewpointC":1,"dewpointF":34,"humidity":93,"pressureMB":1012,"pressureIN":29.88,"spressureMB":995,"spressureIN":29.38,"altimeterMB":null,"altimeterIN":null,"windKTS":9,"windKPH":17,"windMPH":10,"windSpeedKTS":9,"windSpeedKPH":17,"windSpeedMPH":10,"windDirDEG":110,"windDir":"ESE","windGustKTS":null,"windGustKPH":null,"windGustMPH":null,"flightRule":"LIFR","visibilityKM":5,"visibilityMI":3.11,"weather":"Cloudy with Light Drizzle","weatherShort":"Light Drizzle","weatherCoded":":L:L,::OV","weatherPrimary":"Light Drizzle","weatherPrimaryCoded":":L:L","cloudsCoded":"OV","icon":"drizzlen.png","heatindexC":2,"heatindexF":36,"windchillC":-2,"windchillF":29,"feelslikeC":-2,"feelslikeF":29,"isDay":false,"sunrise":1417501325,"sunriseISO":"2014-12-02T07:22:05+01:00","sunset":1417532356,"sunsetISO":"2014-12-02T15:59:16+01:00","snowDepthCM":null,"snowDepthIN":null,"precipMM":null,"precipIN":null,"solradWM2":null,"light":0,"sky":100},"raw":"LZIB 020230Z 11009KT 5000 -DZ BKN004 OVC006 02/01 Q1012"},{"id":"LZKZ","loc":{"long":21.233333333333,"lat":48.666666666667},"place":{"name":"kosice barca","state":"","country":"sk","pretty_name":"Kosice|Po?ov"},"profile":{"tz":"Europe/Bratislava","elevM":232,"elevFT":761},"obTimestamp":1417487400,"obDateTime":"2014-12-02T03:30:00+01:00","ob":{"timestamp":1417487400,"dateTimeISO":"2014-12-02T03:30:00+01:00","tempC":1,"tempF":34,"dewpointC":-1,"dewpointF":30,"humidity":87,"pressureMB":1014,"pressureIN":29.94,"spressureMB":985,"spressureIN":29.09,"altimeterMB":null,"altimeterIN":null,"windKTS":7,"windKPH":13,"windMPH":8,"windSpeedKTS":7,"windSpeedKPH":13,"windSpeedMPH":8,"windDirDEG":50,"windDir":"NE","windGustKTS":null,"windGustKPH":null,"windGustMPH":null,"flightRule":"MVFR","visibilityKM":null,"visibilityMI":null,"weather":"Mostly Cloudy with Light Wintry Mix","weatherShort":"Wintry Mix","weatherCoded":":L:WM,::BK","weatherPrimary":"Wintry Mix","weatherPrimaryCoded":":L:WM","cloudsCoded":"BK","icon":"wintrymix.png","heatindexC":1,"heatindexF":34,"windchillC":-3,"windchillF":27,"feelslikeC":-3,"feelslikeF":27,"isDay":false,"sunrise":1417500478,"sunriseISO":"2014-12-02T07:07:58+01:00","sunset":1417531273,"sunsetISO":"2014-12-02T15:41:13+01:00","snowDepthCM":null,"snowDepthIN":null,"precipMM":null,"precipIN":null,"solradWM2":null,"light":0,"sky":81},"raw":"LZKZ 020230Z 05007KT 9999 -RASN SCT015 BKN025 01/M01 Q1014"},{"id":"LZPP","loc":{"long":17.833333333333,"lat":48.616666666667},"place":{"name":"piestany","state":"","country":"sk","pretty_name":"Piestany|Pieљ?any"},"profile":{"tz":"Europe/Bratislava","elevM":161,"elevFT":528},"obTimestamp":1417487400,"obDateTime":"2014-12-02T03:30:00+01:00","ob":{"timestamp":1417487400,"dateTimeISO":"2014-12-02T03:30:00+01:00","tempC":3,"tempF":37,"dewpointC":1,"dewpointF":34,"humidity":87,"pressureMB":1012,"pressureIN":29.88,"spressureMB":992,"spressureIN":29.29,"altimeterMB":null,"altimeterIN":null,"windKTS":3,"windKPH":6,"windMPH":3,"windSpeedKTS":3,"windSpeedKPH":6,"windSpeedMPH":3,"windDirDEG":80,"windDir":"E","windGustKTS":null,"windGustKPH":null,"windGustMPH":null,"flightRule":"LIFR","visibilityKM":null,"visibilityMI":null,"weather":"Mostly Clear","weatherShort":"Mostly Clear","weatherCoded":"::FW","weatherPrimary":"Mostly Clear","weatherPrimaryCoded":"::FW","cloudsCoded":"FW","icon":"pcloudyn.png","heatindexC":3,"heatindexF":37,"windchillC":2,"windchillF":35,"feelslikeC":2,"feelslikeF":35,"isDay":false,"sunrise":1417501283,"sunriseISO":"2014-12-02T07:21:23+01:00","sunset":1417532101,"sunsetISO":"2014-12-02T15:55:01+01:00","snowDepthCM":null,"snowDepthIN":null,"precipMM":null,"precipIN":null,"solradWM2":null,"sky":19,"light":0},"raw":"LZPP 020230Z AUTO 08003KT 020V140 9999 BKN015/// OVC025/// 03/01 Q1012"}]}